<?xml version="1.0" encoding="UTF-8"?>
<kml xmlns="http://www.opengis.net/kml/2.2">
  <Document id="root_doc">
    <Schema id="Bioregions_PA1.schema">
      <SimpleField name="OBJECTID" type="float"/>
      <SimpleField name="Shape_Leng" type="float"/>
      <SimpleField name="Shape_Area" type="float"/>
      <SimpleField name="Bioregions" type="string"/>
    </Schema>
    <Document id="Bioregions_PA1">
      <name>Bioregions_PA1</name>
      <Placemark id="Bioregions_PA1.1">
        <ExtendedData>
          <SchemaData schemaUrl="#Bioregions_PA1.schema">
            <SimpleData name="OBJECTID">185</SimpleData>
            <SimpleData name="Shape_Leng">265.62615529200</SimpleData>
            <SimpleData name="Shape_Area">1094.17365678000</SimpleData>
            <SimpleData name="Bioregions">PA1</SimpleData>
          </SchemaData>
        </ExtendedData>
        <MultiGeometry>
          <Polygon>
            <outerBoundaryIs>
              <LinearRing>
                <coordinates>
                  0.771107132000111,69.6595009940001,0
                  0.723636139000121,69.6321559060001,0
                  0.692377125000121,69.6144393500001,0
                  0.660886978000065,69.5968163450001,0
                  0.629168671000173,69.5792868010001,0
                  0.597225176000109,69.5618506290002,0
                  0.568619230000081,69.5464166630002,0
                  0.539839491999999,69.5310564660002,0
                  0.510888052000155,69.5157699740001,0
                  0.481767005000052,69.5005571260001,0
                  0.427278592000107,69.4725183900001,0
                  0.372226568000031,69.444732684,0
                  0.34028063400001,69.4288500420001,0
                  0.308154865000176,69.4130510600001,0
                  0.275851814000021,69.3973356640001,0
                  0.243374036999967,69.3817037730001,0
                  0.210622771000146,69.366107319,0
                  0.177700841000046,69.3505947340002,0
                  0.131544167000186,69.329117566,0
                  0.0850680620001185,69.3078028950001,0
                  0.0382399229999919,69.2866327430002,0
                  -0.00889421199997287,69.2656249410001,0
                  -0.0541511759998912,69.2457292870001,0
                  -0.0996743399999218,69.2259810900001,0
                  -0.153380989999903,69.2030139390001,0
                  -0.207435455999871,69.1802489560001,0
                  -0.237245422999877,69.1678410980002,0
                  -0.267155582999919,69.155493995,0
                  -0.297164314999975,69.1432075950001,0
                  -0.32727000299991,69.1309818500001,0
                  -0.377564791999873,69.110777142,0
                  -0.428115982999884,69.090739944,0
                  -0.466447347999917,69.0757227450001,0
                  -0.504917413999976,69.0608008040002,0
                  -0.560073934999934,69.0396620990001,0
                  -0.61549729199993,69.0187170720001,0
                  -0.663120688999925,69.0009506310002,0
                  -0.710926732999894,68.9833255770001,0
                  -0.76242941199996,68.964567205,0
                  -0.814128504999871,68.9459712600001,0
                  -0.860769246999951,68.9293914210001,0
                  -0.907557650999934,68.9129425280001,0
                  -0.938565951999976,68.9021406930001,0
                  -0.969634969999959,68.8913959650001,0
                  -1.00076318799989,68.8807082990001,0
                  -1.0319490899999,68.8700776490002,0
                  -1.08321499099998,68.8527666450001,0
                  -1.13462527099995,68.8356086640001,0
                  -1.1953020979999,68.8156124290002,0
                  -1.25615871199994,68.7958275070001,0
                  -1.3102677949999,68.7784588230001,0
                  -1.36450208299993,68.7612558270001,0
                  -1.40184315499994,68.7495290400001,0
                  -1.4392373039999,68.737880325,0
                  -1.47668206199995,68.7263096080001,0
                  -1.51417496099998,68.7148168150001,0
                  -1.56661195399988,68.6988966940001,0
                  -1.61913130399995,68.6831282040002,0
                  -1.66209063499991,68.6703593570002,0
                  -1.70509677299998,68.6576914500001,0
                  -1.75499169299997,68.6431363390001,0
                  -1.80493885499988,68.628716479,0
                  -1.85251067899998,68.6151203150001,0
                  -1.90011972699989,68.601646315,0
                  -1.95078305199996,68.5874517770001,0
                  -2.00147700199994,68.5733950410002,0
                  -2.05718314899991,68.5581149040001,0
                  -2.11291127899989,68.5430005420001,0
                  -2.15783376899992,68.5309402100002,0
                  -2.20276135099988,68.51898727,0
                  -2.23560127299987,68.5103183340001,0
                  -2.26844012499993,68.5017066570001,0
                  -2.30127630699997,68.4931521930002,0
                  -2.33410821699994,68.4846548930002,0
                  -2.36683324199987,68.476240594,0
                  -2.39955084499996,68.4678830120001,0
                  -2.43225943999994,68.4595820970001,0
                  -2.46495743999998,68.4513378040002,0
                  -2.49814115899989,68.4430257700001,0
                  -2.53131066399988,68.4347719950001,0
                  -2.56446429599987,68.4265764280001,0
                  -2.59760039499997,68.4184390190001,0
                  -2.63914785999998,68.4083114540002,0
                  -2.68066183599996,68.39827526,0
                  -2.72885657199993,68.3867273950002,0
                  -2.7769965139999,68.3753026260001,0
                  -2.8224215649999,68.3646220600002,0
                  -2.86778878199988,68.3540510930001,0
                  -2.92831745799998,68.3400954420001,0
                  -2.98872475699989,68.326334966,0
                  -3.03164429499992,68.3166587100001,0
                  -3.07449335499996,68.3070810730001,0
                  -3.11800530999989,68.297439314,0
                  -3.16143654199993,68.2878993690002,0
                  -3.20478312099993,68.278461124,0
                  -3.24804111599991,68.2691244560001,0
                  -3.29031503799996,68.260079176,0
                  -3.33249654099995,68.2511310900001,0
                  -3.37480587299996,68.2422331970001,0
                  -3.41701431899992,68.2334333100002,0
                  -3.45232246799992,68.2261307110002,0
                  -3.48755485199996,68.21889686,0
                  -3.52270925999989,68.2117316900001,0
                  -3.5577834849999,68.2046351330001,0
                  -3.61131818699994,68.193903795,0
                  -3.66465185399989,68.1833328660002,0
                  -3.71777655299991,68.1729221060001,0
                  -3.77068435599989,68.1626712750001,0
                  -3.81899406299988,68.1534134040001,0
                  -3.86710867799991,68.1442895760002,0
                  -3.91502208799989,68.135299607,0
                  -3.96272818099987,68.1264433090001,0
                  -4.01514859899993,68.1168207990002,0
                  -4.06730065299996,68.1073607420002,0
                  -4.11917612099995,68.0980628890001,0
                  -4.17076677799992,68.0889269920002,0
                  -4.21614736199996,68.080982356,0
                  -4.26129307999997,68.073164015,0
                  -4.30619824399997,68.0654717980001,0
                  -4.35085716599997,68.0579055310002,0
                  -4.47402061499992,68.038277249,0
                  -4.70440644399997,68.0015611790001,0
                  -4.92067868999993,67.9670943580001,0
                  -5.12086064899995,67.9351918100002,0
                  -5.30784346599989,67.9053927790001,0
                  -5.47601701899993,67.8785913390001,0
                  -5.60061475099997,67.85873448,0
                  -5.70242383799996,67.842509395,0
                  -5.88144743099991,67.8139788080001,0
                  -6.03009446699997,67.7902892650001,0
                  -6.1615633369999,67.7693373670001,0
                  -6.3384125639999,67.7411533040001,0
                  -6.47168541799994,67.7199139100001,0
                  -6.57332090599994,67.7037164910001,0
                  -6.75908810699991,67.6741111910001,0
                  -6.77741699399991,67.6914413790001,0
                  -6.78649043499996,67.700078142,0
                  -6.79226297799994,67.7054784390002,0
                  -6.80100315299995,67.7136579040001,0
                  -6.84331138899995,67.7527631910001,0
                  -6.88247024799989,67.7880362810001,0
                  -6.88281588299998,67.788344168,0
                  -6.88315294499989,67.7886444190001,0
                  -6.89614036199987,67.8000829360002,0
                  -6.92201331199993,67.8228702390001,0
                  -6.92271143999994,67.8234783520001,0
                  -6.92339203599994,67.8240711950002,0
                  -6.94911755899989,67.8462333190001,0
                  -6.96193046299987,67.857271431,0
                  -6.96227661099994,67.8575663810001,0
                  -6.96262631099989,67.8578643610001,0
                  -7.00221810299996,67.8912388100001,0
                  -7.02963336399989,67.9139334210001,0
                  -7.0572121969999,67.9364322920001,0
                  -7.08499159799993,67.9586872190001,0
                  -7.11285196199992,67.9808461810001,0
                  -7.14094642599997,68.0027140920002,0
                  -7.16912016299995,68.024487207,0
                  -7.19751943899996,68.045973703,0
                  -7.22599956299996,68.0673621030001,0
                  -7.27160453199991,68.1008772830001,0
                  -7.31757562899998,68.1339166900001,0
                  -7.36390421199991,68.1664836960001,0
                  -7.41058164599997,68.1985816760001,0
                  -7.45691777899992,68.2297603990001,0
                  -7.50357609799988,68.2604900530002,0
                  -7.55054833199989,68.2907738690002,0
                  -7.59782621199997,68.3206150750001,0
                  -7.62855449799991,68.3396145680001,0
                  -7.65934975899995,68.3585206750001,0
                  -7.69031981199993,68.3771544160001,0
                  -7.72135189399989,68.3956997680001,0
                  -7.75255351799996,68.4139733740002,0
                  -7.78381478099988,68.4321593160001,0
                  -7.81523792499996,68.4500783390001,0
                  -7.8467205849999,68.4679062860001,0
                  -7.89222813199996,68.4931799040001,0
                  -7.93794893399991,68.5180911060002,0
                  -7.98387635499989,68.5426424830002,0
                  -8.0300037589999,68.5668366300001,0
                  -8.06918557099988,68.5870313170001,0
                  -8.10850179199997,68.606973666,0
                  -8.18752138399992,68.6461076210001,0
                  -8.24253126799988,68.672626699,0
                  -8.29776516699997,68.6986749360001,0
                  -8.35321239999996,68.7242565030001,0
                  -8.40886228799997,68.7493755720002,0
                  -8.44742132099992,68.7664003260002,0
                  -8.48602336399989,68.7833102660001,0
                  -8.52475485999992,68.7999006510001,0
                  -8.56352239799998,68.8163819480001,0
                  -8.60241126499989,68.8325458940001,0
                  -8.64133126199988,68.848601602,0
                  -8.6803625579999,68.8643469090001,0
                  -8.71942183499988,68.8799802120002,0
                  -8.76861122399993,68.8992676010001,0
                  -8.81789371899987,68.9182301250002,0
                  -8.86726234699989,68.936870503,0
                  -8.91671013599995,68.9551914620001,0
                  -8.95595108899994,68.9694357370001,0
                  -8.99520144399997,68.9835723140001,0
                  -9.03452255299993,68.9974219220002,0
                  -9.07384623799993,69.0111689600002,0
                  -9.11323289699988,69.0246314460001,0
                  -9.15261678199988,69.0379922300002,0
                  -9.19205515799996,69.0510730060001,0
                  -9.23148534299997,69.0640529580001,0
                  -9.26242798099992,69.0740353850002,0
                  -9.29336258399996,69.0839563410001,0
                  -9.32432146999992,69.0937101850002,0
                  -9.35526965399987,69.1034029910002,0
                  -9.38623811899993,69.1129308580001,0
                  -9.4171931919999,69.1223981270001,0
                  -9.44816456499996,69.131702622,0
                  -9.47911983599994,69.1409469660002,0
                  -9.51097247299998,69.1502879130001,0
                  -9.54280514399989,69.1595657080001,0
                  -9.57464658399988,69.168675921,0
                  -9.60646506299997,69.1777234820001,0
                  -9.63828804999991,69.1866057970001,0
                  -9.67008505499996,69.1954259670002,0
                  -9.70188201899998,69.2040843580001,0
                  -9.73365057899997,69.2126788420001,0
                  -9.79224045499996,69.2282038510001,0
                  -9.85076016199997,69.2433553840001,0
                  -9.90919827799991,69.2581378970001,0
                  -9.9675433839999,69.2725558540001,0
                  -10.023485954,69.2860652710001,0
                  -10.0793220569999,69.2992464260001,0
                  -10.1350415739999,69.31210327,0
                  -10.190634383,69.324639759,0
                  -10.2494676609999,69.3375949270001,0
                  -10.3081348259999,69.350198643,0
                  -10.3666237919999,69.3624556280001,0
                  -10.424922469,69.3743706010002,0
                  -10.4679934639999,69.3829438290001,0
                  -10.5109338749999,69.3914074270001,0
                  -10.5537674759999,69.3996171370001,0
                  -10.596461593,69.4077190100002,0
                  -10.647747716,69.4172040900002,0
                  -10.6988353369999,69.4264347810002,0
                  -10.7497158479999,69.4354144440002,0
                  -10.800380646,69.4441464390001,0
                  -10.861767716,69.4544492270001,0
                  -10.9228066769999,69.4643958670001,0
                  -10.958695937,69.4700830640001,0
                  -10.9944477409999,69.4756961120001,0
                  -11.0300735749999,69.4811422790002,0
                  -11.0655556649999,69.4865177560001,0
                  -11.1009051039999,69.491728997,0
                  -11.1361048359999,69.496870803,0
                  -11.1711649379999,69.50185314,0
                  -11.206069643,69.5067652540001,0
                  -11.2590035029999,69.5140070270002,0
                  -11.3115714479999,69.5209924740002,0
                  -11.3637621259999,69.5277260300001,0
                  -11.4155641869999,69.534212127,0
                  -11.477403744,69.5416995250001,0
                  -11.5386436599999,69.5488423480001,0
                  -11.5992641239999,69.5556483330001,0
                  -11.6592453229999,69.5621252160002,0
                  -11.6930083469999,69.5656399790001,0
                  -11.726551413,69.5690902680001,0
                  -11.7598785509999,69.5724027040001,0
                  -11.7929787749999,69.575652324,0
                  -11.855987542,69.5815917530002,0
                  -11.9181315019999,69.5871792200002,0
                  -11.9793848809999,69.5924247900001,0
                  -12.0397219059999,69.5973385290001,0
                  -12.08189376,69.6005950590001,0
                  -12.123579376,69.6037511670001,0
                  -12.1647781189999,69.6066969030001,0
                  -12.2054728229999,69.6095466740001,0
                  -12.2692526269999,69.613740712,0
                  -12.331702671,69.6175757860001,0
                  -12.3927859199999,69.6210663590001,0
                  -12.4524653379999,69.6242268970001,0
                  -12.4969429609999,69.626388606,0
                  -12.5405658119999,69.6284384720002,0
                  -12.5833235029999,69.6302541280002,0
                  -12.625194177,69.631969327,0
                  -12.6706433029999,69.6336186340002,0
                  -12.714956419,69.6351550260001,0
                  -12.7581159119999,69.63644666,0
                  -12.8000953189999,69.6376340420001,0
                  -12.8623662519999,69.6391048620001,0
                  -12.9217101879999,69.640230369,0
                  -12.9795402649999,69.6410605510001,0
                  -13.0341065479999,69.6415945840002,0
                  -13.0853206209999,69.6418154470001,0
                  -13.133093404,69.641912582,0
                  -13.1842028299999,69.6416672280001,0
                  -13.2304006199999,69.6413336200001,0
                  -13.271545514,69.640731079,0
                  -13.3075012659999,69.6401493590001,0
                  -13.3812051839999,69.6382435730001,0
                  -13.4065316249999,69.6373120990002,0
                  -13.4998308329999,69.7234357250002,0
                  -13.5584604079999,69.7775561380002,0
                  -13.606147252,69.8215754180001,0
                  -13.692308999,69.9011105210001,0
                  -13.7580034979999,69.9617524980001,0
                  -13.796712665,69.9974845690001,0
                  -13.749592685,70.1034007700001,0
                  -13.6843188939999,70.2501230700001,0
                  -13.6253008349999,70.382783748,0
                  -13.565116433,70.5180661310001,0
                  -13.483569738,70.7013666370001,0
                  -13.4209110319999,70.8422107540001,0
                  -13.366258048,70.9650596240001,0
                  -13.3145017909999,71.0813972380002,0
                  -13.266386465,71.1895507780001,0
                  -13.2080926799999,71.3205834330001,0
                  -13.131635036,71.4924447780001,0
                  -13.0694190209999,71.6322938160001,0
                  -13.013297512,71.7584436360001,0
                  -12.9701306069999,71.8554741210001,0
                  -12.928078392,71.9499990090002,0
                  -12.8511273389999,72.0076176050002,0
                  -12.7817563459999,72.0595604840001,0
                  -12.6988591069999,72.1216314020001,0
                  -12.6300586569999,72.1731470760002,0
                  -12.5469926849999,72.2353443360001,0
                  -12.460888305,72.2998166640002,0
                  -12.3537422659999,72.3800443420002,0
                  -12.255059279,72.453935146,0
                  -12.1614399109999,72.524034467,0
                  -12.0960148379999,72.5730227620002,0
                  -12.0300707459999,72.6223996820002,0
                  -11.947173591,72.684470537,0
                  -11.8665343779999,72.7448507140002,0
                  -11.79433346,72.7989125550001,0
                  -11.6979090519999,72.8711122040002,0
                  -11.6230807249999,72.9271413680001,0
                  -11.4938733559999,72.957655281,0
                  -11.3792441369999,72.9847263860001,0
                  -11.279531435,73.0082747700001,0
                  -11.1806030069999,73.0316379380001,0
                  -10.964293008,73.0827222130001,0
                  -10.7972539519999,73.1221705460001,0
                  -10.6382585699999,73.1597192670001,0
                  -10.4439382509999,73.2056104070001,0
                  -10.285142234,73.2431120460001,0
                  -10.137726707,73.2779260410002,0
                  -10.0331084929999,73.3026329220001,0
                  -9.9408542139999,73.3244199090002,0
                  -9.79854416699987,73.3580281810001,0
                  -9.58498641099993,73.408462479,0
                  -9.44934965199991,73.4404947740002,0
                  -9.3219571919999,73.4705800740001,0
                  -9.1733710719999,73.5056705190001,0
                  -9.04676237099994,73.5355707260002,0
                  -8.92624352599995,73.564032738,0
                  -8.80827648999997,73.5918921080001,0
                  -8.69776881099995,73.6179898600001,0
                  -8.52974600699997,73.6576705170002,0
                  -8.42002151699995,73.6835833090001,0
                  -8.26868409899993,73.7193235060001,0
                  -8.15797619999995,73.7454685430002,0
                  -8.0557109049999,73.7696197540002,0
                  -7.92518068499987,73.8004460760001,0
                  -7.79720278099995,73.830669636,0
                  -7.66667181499997,73.8614961340002,0
                  -7.55085829099994,73.8888469260001,0
                  -7.39540021399989,73.9255602680002,0
                  -7.24072477799996,73.9620887800001,0
                  -7.11137875899993,73.9926354380001,0
                  -6.96985238499997,74.0260586370001,0
                  -6.81027228699992,74.0637454450001,0
                  -6.57669185099996,74.1189083470001,0
                  -6.43104458799996,74.1533047440001,0
                  -6.27303336799997,74.1906210430001,0
                  -6.1415178499999,74.221680055,0
                  -6.00117578699991,74.2548235640001,0
                  -5.89969531099996,74.2787894300001,0
                  -5.79159114399994,74.3043195630001,0
                  -5.6617939169999,74.3349727790001,0
                  -5.47826931099991,74.3783143790001,0
                  -5.32359517899988,74.4148425830002,0
                  -5.21023376799991,74.441614278,0
                  -5.10946814499988,74.4654113240001,0
                  -5.07423377499993,74.4624812740001,0
                  -5.03129375199995,74.458733558,0
                  -4.97245222899994,74.4533883550002,0
                  -4.93685447599995,74.4500570170001,0
                  -4.89746904499998,74.4462947930002,0
                  -4.85439119099988,74.4420943280002,0
                  -4.80771616899995,74.4374482700001,0
                  -4.77084577499988,74.4337117360001,0
                  -4.73208932699993,74.4297232360001,0
                  -4.69148564299991,74.4254797720002,0
                  -4.64907353899991,74.4209783480001,0
                  -4.59375163199996,74.4150035670002,0
                  -4.53575704099995,74.4086177780002,0
                  -4.50098057999998,74.404729645,0
                  -4.46534762499988,74.400700612,0
                  -4.42887276099998,74.3965295550001,0
                  -4.39157057499989,74.3922153460002,0
                  -4.35174124499991,74.387555128,0
                  -4.31104187199998,74.3827362270002,0
                  -4.26948907499991,74.3777573590002,0
                  -4.22709947599992,74.3726172400001,0
                  -4.17797200299992,74.366583431,0
                  -4.12781132799989,74.3603381740002,0
                  -4.08011287599993,74.3543205060001,0
                  -4.03155639199991,74.3481157030001,0
                  -3.99812388999993,74.343797324,0
                  -3.96431145399987,74.339391572,0
                  -3.93012525899996,74.3348979730001,0
                  -3.89557147699992,74.3303160500002,0
                  -3.85018586899992,74.3242366490001,0
                  -3.80420493799988,74.318006616,0
                  -3.75764217799991,74.3116249080002,0
                  -3.7105110899999,74.3050904840001,0
                  -3.65171555499995,74.2968329950001,0
                  -3.59210397399988,74.2883404300001,0
                  -3.52967933499997,74.27931641,0
                  -3.46643816599993,74.2700371910001,0
                  -3.42275266499996,74.2635462160001,0
                  -3.37870749099994,74.2569343060001,0
                  -3.33431152299994,74.250200776,0
                  -3.28957364199988,74.2433449400002,0
                  -3.24317737899992,74.2361597950001,0
                  -3.19643796599991,74.2288435990002,0
                  -3.14936508299991,74.2213956050001,0
                  -3.10196841399994,74.2138150640001,0
                  -3.06734023399997,74.2082247420001,0
                  -3.03255000999991,74.2025637920001,0
                  -2.99760145499988,74.1968319300001,0
                  -2.96249827999998,74.1910288660001,0
                  -2.92914704199995,74.1854725910001,0
                  -2.89566386099995,74.1798520820001,0
                  -2.86205187899998,74.1741670940002,0
                  -2.82831424099993,74.1684173860001,0
                  -2.78873738199997,74.1616166270001,0
                  -2.74899826599989,74.1547267820001,0
                  -2.70910190599994,74.1477474650001,0
                  -2.66905331999993,74.140678288,0
                  -2.62029278699993,74.1319849920002,0
                  -2.57132473399997,74.1231583040001,0
                  -2.52215809999996,74.1141975320002,0
                  -2.47280182999992,74.1051019860002,0
                  -2.42800917499989,74.0967595250002,0
                  -2.38307534699987,74.0883057560001,0
                  -2.33800695799994,74.07974017,0
                  -2.29281062499996,74.0710622540001,0
                  -2.25584446099987,74.063898318,0
                  -2.2188011209999,74.0566589870001,0
                  -2.18720480099989,74.0504358930002,0
                  -2.15555736199997,74.0441577750001,0
                  -2.12386101999994,74.0378244630001,0
                  -2.09211799099995,74.0314357870002,0
                  -2.0457819209999,74.0220265030001,0
                  -1.99935828299988,74.0124987560001,0
                  -1.96515334699995,74.005413425,0
                  -1.93090746199988,73.99826348,0
                  -1.89662336099997,73.9910487100001,0
                  -1.86230377599998,73.9837689060001,0
                  -1.81349164999995,73.9733145380001,0
                  -1.76462125499989,73.9627278820002,0
                  -1.72454976199987,73.9539565280001,0
                  -1.68444872799995,73.9450956640001,0
                  -1.64432246299998,73.9361449550001,0
                  -1.60417527099997,73.92710407,0
                  -1.56089360899995,73.9172601560002,0
                  -1.51759803599987,73.9073107220001,0
                  -1.47429393899995,73.8972553530001,0
                  -1.43098670799998,73.8870936300002,0
                  -1.39645046599998,73.8789131320001,0
                  -1.36191838899987,73.8706645170001,0
                  -1.30712660199993,73.857432488,0
                  -1.25236312499987,73.8440275,0
                  -1.21714401499997,73.8353098150002,0
                  -1.18194406299995,73.8265199410001,0
                  -1.14676618199996,73.8176576490002,0
                  -1.1116132809999,73.8087227170002,0
                  -1.05686538499992,73.7946474040001,0
                  -1.00219631899989,73.7803941330002,0
                  -0.940950350999969,73.7641851140001,0
                  -0.879833160999965,73.747749682,0
                  -0.833501122999905,73.7351124330001,0
                  -0.787259234999908,73.7223433060002,0
                  -0.741114330999892,73.7094417720002,0
                  -0.695073249999894,73.6964073030002,0
                  -0.642562092999924,73.6813390250001,0
                  -0.590205847999925,73.6660954480001,0
                  -0.538014739999937,73.6506757830002,0
                  -0.485998987999892,73.6350792420001,0
                  -0.440197717999979,73.6211520730002,0
                  -0.394548348999933,73.6070856820001,0
                  -0.349057932999926,73.5928795260001,0
                  -0.303733517999945,73.5785330590002,0
                  -0.246402293999893,73.5601035950001,0
                  -0.189364826999963,73.5414456740001,0
                  -0.138515500999972,73.5245314930001,0
                  -0.0879240599999775,73.5074321660001,0
                  -0.038824469999895,73.4905705120001,0
                  0.0100100970000199,73.4735311200001,0
                  0.0412735750000479,73.4624779520001,0
                  0.0724208630000476,73.4513507580001,0
                  0.103449393000119,73.4401493400002,0
                  0.134356594999986,73.4288734980001,0
                  0.167001547000098,73.4168327140001,0
                  0.19950406300012,73.404707753,0
                  0.231861079000055,73.392498377,0
                  0.264069529000096,73.3802043510001,0
                  0.309845731999985,73.362483242,0
                  0.35530315200009,73.3445879900002,0
                  0.401553864999983,73.3260650910001,0
                  0.4474506520001,73.3073577850001,0
                  0.488339485000097,73.2904079360001,0
                  0.528928408000127,73.2733083660001,0
                  0.571596280000165,73.2550279110001,0
                  0.613911392000148,73.236578154,0
                  0.657386061000068,73.2172773050001,0
                  0.700463677000016,73.1977932020001,0
                  0.742159383000114,73.1785790180002,0
                  0.783458650000114,73.159188556,0
                  0.813893145000009,73.1446616470002,0
                  0.844100336000167,73.130036713,0
                  0.874076690000095,73.1153134820001,0
                  0.903818671000067,73.1004916810001,0
                  0.937170246999983,73.0836089520002,0
                  0.970212381000124,73.0665993920001,0
                  1.00293995900012,73.0494626020001,0
                  1.03534786800009,73.0321981900001,0
                  1.08590542400009,73.0046499150001,0
                  1.13563144600005,72.976780279,0
                  1.1673720980001,72.9585648190001,0
                  1.19875026800003,72.9402135850002,0
                  1.23865296800005,72.9163579410001,0
                  1.27793255900013,72.8922750940001,0
                  1.31335713200008,72.8700142500001,0
                  1.34823997600006,72.8475612990001,0
                  1.37627049700001,72.8291143020002,0
                  1.40393010100013,72.810538793,0
                  1.43121389800012,72.7918343920001,0
                  1.45811700300004,72.7730007220002,0
                  1.48571302700003,72.753257441,0
                  1.51288570600002,72.7333732430001,0
                  1.53962952200004,72.7133477030001,0
                  1.56593896600015,72.6931803960001,0
                  1.6162402060001,72.6532266900001,0
                  1.66480893700009,72.612723175,0
                  1.71160395500004,72.5716663270001,0
                  1.75658333000007,72.5300532460002,0
                  1.78094771200017,72.5065209780002,0
                  1.80472314300016,72.4828129310001,0
                  1.82790234100008,72.458928546,0
                  1.85047801900015,72.4348672580001,0
                  1.87244306200006,72.4106283200001,0
                  1.89379001100002,72.3862113540001,0
                  1.93460049099997,72.3368410810002,0
                  1.95536486800006,72.3101618020001,0
                  1.97538924500014,72.2832765200001,0
                  1.99466472800009,72.256184547,0
                  2.01318242500008,72.2288851970001,0
                  2.04492999100017,72.1786343110001,0
                  2.07628519300016,72.123609938,0
                  2.10454719899997,72.0677714010001,0
                  2.12793944100014,72.0152413680001,0
                  2.14855790199999,71.9620020950002,0
                  2.16041833000008,71.9271032360002,0
                  2.17107538600004,71.8919033530001,0
                  2.18051437100007,71.8564013100001,0
                  2.18872058400007,71.8205959740001,0
                  2.19615907500008,71.7830824940002,0
                  2.20261241500009,71.745762986,0
                  2.20808836499998,71.7086372160001,0
                  2.21259468699998,71.6717049490001,0
                  2.21635490600016,71.6323590160002,0
                  2.21902103500008,71.5932345460001,0
                  2.22060261200011,71.554331249,0
                  2.22110917600008,71.5156488370001,0
                  2.22055026100008,71.4771868730001,0
                  2.21893540100007,71.438945216,0
                  2.21627413500016,71.4009235790002,0
                  2.21257600000013,71.363121671,0
                  2.20725572600014,71.3213296040001,0
                  2.20067738800009,71.279808669,0
                  2.19285411400011,71.2385584690001,0
                  2.18379903300007,71.1975786080002,0
                  2.17307892900004,71.1552079110001,0
                  2.16105313600002,71.1131292580001,0
                  2.14773646200007,71.071342199,0
                  2.13314371700017,71.0298462880001,0
                  2.11008802600003,70.9710112040001,0
                  2.08449640100008,70.9127692750002,0
                  2.05641192600012,70.8551187480001,0
                  2.04144846900004,70.8265150180001,0
                  2.02587808699997,70.7980587590001,0
                  1.99447489400001,70.7441220090001,0
                  1.96091547100002,70.6907213960001,0
                  1.94165157300006,70.6617256870001,0
                  1.92175944600007,70.6328900000001,0
                  1.90124527000017,70.6042141460001,0
                  1.8801152210001,70.5756979380002,0
                  1.85354009800011,70.5411604660002,0
                  1.8260706100001,70.5068594930001,0
                  1.79771794100014,70.4727946790001,0
                  1.76849327600019,70.4389656880002,0
                  1.72829809699999,70.3943439080001,0
                  1.68660694300013,70.3501377630001,0
                  1.64309734300014,70.30600015,0
                  1.60318651000006,70.267116121,0
                  1.56213590600004,70.2285639420001,0
                  1.53749002000012,70.2060647560002,0
                  1.51246095800008,70.1836798410001,0
                  1.48705255700003,70.1614090780001,0
                  1.46126865900004,70.1392523520001,0
                  1.43213783000016,70.1147287880001,0
                  1.40255200200005,70.0903461510002,0
                  1.37251646800019,70.0661042820002,0
                  1.34203651999997,70.0420030180002,0
                  1.30525733000013,70.0135542110001,0
                  1.26786730000015,69.98530334,0
                  1.24196158500013,69.9661055820002,0
                  1.2157774210001,69.9470001030001,0
                  1.18584655000012,69.9255138670001,0
                  1.15556757600001,69.9041453140001,0
                  1.12485848600005,69.8828350630002,0
                  1.09380758600003,69.8616429040001,0
                  1.05733784900008,69.837189234,0
                  1.02041949500006,69.8128943470001,0
                  0.971441195000182,69.781341544,0
                  0.921720194000045,69.750059875,0
                  0.870240000000081,69.7184225410002,0
                  0.818017096000119,69.687066532,0
                  0.771107132000111,69.6595009940001,0
                </coordinates>
              </LinearRing>
            </outerBoundaryIs>
          </Polygon>
          <Polygon>
            <outerBoundaryIs>
              <LinearRing>
                <coordinates>
                  80.3080734140001,84.5085693720001,0
                  80.646393043,84.4757956690001,0
                  80.9720091120001,84.4891290730001,0
                  81.393232283,84.5054901020001,0
                  81.7742617450001,84.5196868530001,0
                  82.143262227,84.532970973,0
                  82.459904699,84.5440374490001,0
                  82.7364102220001,84.5534640430001,0
                  83.0299309300001,84.5632385080002,0
                  83.3799530770001,84.5745921220001,0
                  83.7807948120002,84.587201887,0
                  84.0875894520001,84.5965767010002,0
                  84.3943716650001,84.605715646,0
                  84.6860956340002,84.6141902220001,0
                  84.9865006420002,84.6226992090001,0
                  85.397472646,84.6339848900001,0
                  85.7367271530002,84.6429937570001,0
                  86.2111585650002,84.6551278320001,0
                  86.5042757980001,84.6623543210001,0
                  86.8028435720001,84.6695028680001,0
                  87.2783699100001,84.680444968,0
                  87.7228615230001,84.6901784390001,0
                  88.2079236130002,84.7002514920001,0
                  88.7051980320001,84.7099783860001,0
                  89.011184283,84.7156590140001,0
                  89.3809496300001,84.7222110530001,0
                  89.8461399550001,84.7299628740002,0
                  90.3218705950001,84.7373169110002,0
                  90.7549138650001,84.7434993470001,0
                  91.1569120550002,84.7487953130001,0
                  91.4842089000001,84.7527873820001,0
                  91.885926253,84.757288954,0
                  92.192613135,84.76042598,0
                  92.4770273050001,84.763099991,0
                  92.7629874340001,84.7655573740001,0
                  93.0265260640001,84.7676142010002,0
                  93.2912421130002,84.7694769000002,0
                  93.7668838280001,84.772303363,0
                  94.0463790580001,84.773646947,0
                  94.3269125,84.7747550810002,0
                  94.834064754,84.7761352280001,0
                  95.3095466670001,84.7766831390001,0
                  95.5681767710001,84.7766707480002,0
                  95.827368043,84.7764345720001,0
                  96.2711094460001,84.7754999880001,0
                  96.6303092940002,84.774242231,0
                  97.0001086850001,84.7724669850001,0
                  97.4016122000002,84.7699738100001,0
                  97.8349442730001,84.7665989870002,0
                  98.2682619340002,84.762495582,0
                  98.7266010010002,84.7573487310001,0
                  99.1845110670001,84.7513631200002,0
                  99.6285030230002,84.7447377630001,0
                  100.071696137,84.7372998610002,0
                  100.36769618,84.7318640580001,0
                  100.663193391,84.7260564440001,0
                  100.938039589,84.7203073160001,0
                  101.212351553,84.7142299480001,0
                  101.678045709,84.7031196980001,0
                  101.953347322,84.6960721080002,0
                  102.227925905,84.6886799480002,0
                  102.71659894,84.6746050610001,0
                  103.202532059,84.6594061680001,0
                  103.490640515,84.6498098330001,0
                  103.77761961,84.6398058150001,0
                  104.151796353,84.6260767670001,0
                  104.523802566,84.6116351040001,0
                  104.898324639,84.5962705100001,0
                  105.270347198,84.5801595020001,0
                  105.623342106,84.5640616770002,0
                  105.97381093,84.5472689240001,0
                  106.400023761,84.5257147250001,0
                  106.822037169,84.5030930920002,0
                  107.217690379,84.4806708,0
                  107.609191432,84.457269566,0
                  107.898954799,84.4391353990002,0
                  108.186216506,84.4204443680001,0
                  108.565725841,84.3946129710002,0
                  108.84234454,84.3749308620002,0
                  109.116290433,84.3546957630002,0
                  109.596790527,84.3173186500001,0
                  110.009695157,84.2831553190001,0
                  110.415344859,84.2476093650001,0
                  110.695818675,84.2218036850001,0
                  110.972476703,84.1953026650002,0
                  111.253646336,84.1672430450002,0
                  111.530549059,84.1384325150001,0
                  111.955812928,84.091740046,0
                  112.369917233,84.0431648100001,0
                  112.732355092,83.9978668930002,0
                  113.085142352,83.9510122550001,0
                  113.493073355,83.8930412260002,0
                  113.767512637,83.8514885630001,0
                  114.034718856,83.8088346380001,0
                  114.407350317,83.7452993020001,0
                  114.764046474,83.6794213340001,0
                  115.087187378,83.614745146,0
                  115.395098779,83.5479119540002,0
                  115.659859591,83.4856482920001,0
                  115.911510779,83.4215861790001,0
                  116.195522832,83.3456818290001,0
                  116.477662832,83.2677059140001,0
                  116.749658949,83.1877768860002,0
                  117.036032507,83.094894325,0
                  117.292419585,82.9984688000001,0
                  117.678974338,82.7927348310002,0
                  118.07333287,82.5173021350002,0
                  118.323058329,82.4255737400001,0
                  118.533108402,82.3225772500001,0
                  118.703623301,82.2130332180002,0
                  118.852703141,82.0868987700001,0
                  118.963161397,81.9617791100001,0
                  119.069073168,81.786655518,0
                  119.138396761,81.5051318280002,0
                  119.467413843,81.3958498830001,0
                  119.721104196,81.3115874640001,0
                  120.050912994,81.2020425530001,0
                  120.300379873,81.1191829470001,0
                  120.591320662,81.0225479170001,0
                  120.947163184,80.842811988,0
                  121.324092598,80.6524250790002,0
                  121.554589777,80.536001039,0
                  121.903690927,80.3596701770001,0
                  122.150547825,80.2983488170001,0
                  122.321642034,80.247648069,0
                  122.472959316,80.19766297,0
                  122.770888969,80.084023238,0
                  122.946123271,80.0063568530001,0
                  123.191837776,79.8806033760002,0
                  123.385376186,79.7637568220001,0
                  123.688474338,79.5331821440001,0
                  123.840783918,79.3812932790001,0
                  123.944295509,79.2533174070002,0
                  124.044247743,79.0953308220001,0
                  124.377489139,78.9937727130001,0
                  124.609471128,78.9230742580001,0
                  124.885875659,78.8388376610001,0
                  125.06129739,78.7853764170002,0
                  125.300104601,78.7125979180001,0
                  125.756169983,78.573608171,0
                  125.285944833,78.5222441250001,0
                  125.131267175,78.50534824,0
                  124.610029433,78.4484119430001,0
                  124.197176818,78.403314864,0
                  123.607821759,78.3389379160001,0
                  123.287553357,78.3039540780001,0
                  122.701580893,78.2399466200001,0
                  122.271421238,78.1929590440001,0
                  121.986902883,78.1618802870001,0
                  121.759590203,78.1370502680002,0
                  121.383623071,78.0959822980001,0
                  121.267706833,78.083320434,0
                  120.761900031,78.028069702,0
                  120.410770851,77.9897148520001,0
                  119.994584057,77.9442535720001,0
                  119.465783437,77.9436886390002,0
                  119.057196957,77.9432521330001,0
                  118.817680634,77.9429962510001,0
                  118.38091514,77.9425296410002,0
                  118.09913106,77.9422286030002,0
                  117.775079354,77.9418824090001,0
                  117.352403112,77.9414308510001,0
                  116.901548573,77.9409491900001,0
                  116.422515949,77.9404374250001,0
                  115.703966313,77.9396697770002,0
                  114.957237765,77.9388720250001,0
                  114.478205075,77.9383602600001,0
                  113.942815771,77.9377882870001,0
                  113.393336973,77.937201263,0
                  112.773411628,77.936538978,0
                  112.252110995,77.9359820580001,0
                  111.885791413,77.9355907070002,0
                  111.420847683,77.9350939940001,0
                  110.857280037,77.9344919180002,0
                  110.265532807,77.9338597370001,0
                  109.716054549,77.9332727120001,0
                  109.251110953,77.9327760000001,0
                  108.67345354,77.9321588710001,0
                  108.307133457,77.931767521,0
                  107.870368385,77.9313009110002,0
                  107.504048897,77.9309095610001,0
                  107.165908258,77.9305483150001,0
                  106.870035094,77.9302322250001,0
                  106.468512009,77.9298032660001,0
                  106.088941706,77.9729201710001,0
                  105.680823907,78.0192799010001,0
                  105.30690213,78.0617551670002,0
                  105.084373153,78.0870331220001,0
                  104.702476937,78.1304142370001,0
                  104.492261253,78.154293475,0
                  104.24920449,78.1819032620001,0
                  103.859374419,78.1376610130001,0
                  103.522364878,78.0994134250001,0
                  103.166753075,78.0590546450002,0
                  102.866787642,78.0250112330002,0
                  102.392224588,77.9711525430001,0
                  101.985686925,77.9250141300002,0
                  101.66338351,77.8194515870002,0
                  101.422072493,77.740416107,0
                  100.977369048,77.594764448,0
                  100.643024857,77.4852582450002,0
                  100.237815043,77.3525417510001,0
                  99.8542899170001,77.361013552,0
                  99.3758278340001,77.3715824430001,0
                  99.0149529360002,77.3795539160002,0
                  98.874435199,77.4361677460001,0
                  98.7494081280001,77.4865404710001,0
                  98.4957498760002,77.5887379970001,0
                  98.3562913110001,77.6449250920001,0
                  98.16089133,77.7236506770002,0
                  98.0068580080001,77.7857098630001,0
                  97.8587681590001,77.8453744550001,0
                  97.7435336250002,77.8918018210001,0
                  97.5195809860001,77.9444185680001,0
                  97.3483655410001,77.9846449290002,0
                  97.1948540260001,78.0207118260001,0
                  97.0255861350001,78.0604806180001,0
                  96.752679447,78.1245989170001,0
                  96.54381242,78.1736713630002,0
                  96.2977295840002,78.1940605500001,0
                  96.0919109220001,78.2111136500001,0
                  95.8942626730001,78.22748979,0
                  95.6056671950001,78.2514013620002,0
                  95.3164848900002,78.2753615550001,0
                  95.0197182510001,78.2999501470002,0
                  94.6967304060001,78.3267112970001,0
                  94.4017256770001,78.3511539070002,0
                  94.0671491520001,78.3788752360001,0
                  93.766531388,78.377779392,0
                  93.4918492130002,78.3767780910001,0
                  92.9846608160002,78.374929233,0
                  92.6605937460001,78.373747909,0
                  92.4281420610001,78.3729005520001,0
                  91.935024558,78.371102987,0
                  91.6742863750001,78.3701525160001,0
                  91.3432838490001,78.3689459100001,0
                  91.0967067880001,78.3680470610001,0
                  90.7796123560001,78.3668911540001,0
                  90.4133508140001,78.3655560180001,0
                  90.1174437600002,78.3644773460001,0
                  89.7511098200001,78.3631419450002,0
                  89.4693827660001,78.3621149630001,0
                  89.067807528,78.360651098,0
                  88.7931621260001,78.359649931,0
                  88.405621671,78.3582372280001,0
                  88.1308843780001,78.3572357260001,0
                  87.8914065940002,78.3563627560001,0
                  87.6025624980001,78.3553098290001,0
                  87.2723815480001,78.3541062190002,0
                  86.8311358810001,78.2819896540001,0
                  86.3040145760001,78.1958376990002,0
                  85.83549086,78.1192628490001,0
                  85.5405802210001,78.0710630740002,0
                  85.2629153610001,78.0256819240001,0
                  84.9553943470001,77.9754211270001,0
                  84.7200182970001,77.936951601,0
                  84.4811219900002,77.8979067280002,0
                  84.3600029470002,77.8781112050002,0
                  84.1328425590001,77.8409844330001,0
                  83.8627380600002,77.7968389390001,0
                  83.5244240370001,77.7415453770001,0
                  83.1825906410002,77.6856766120002,0
                  82.8101426040001,77.6248042350002,0
                  82.574588766,77.5863056510001,0
                  82.2637250080001,77.5354985210001,0
                  81.9905169670001,77.4908457870001,0
                  81.7048753360002,77.4441609260002,0
                  81.4852739180001,77.4082695820001,0
                  81.2293107110001,77.3664353200001,0
                  80.9481256040002,77.3204788260001,0
                  80.7539249710001,77.2887389510002,0
                  80.512622656,77.2493008440001,0
                  80.2703844570001,77.2097097770001,0
                  79.9858575600002,77.1632071060001,0
                  79.6132310640001,77.102305562,0
                  79.1434413850002,77.0255238060001,0
                  78.8702069340001,76.9808667550002,0
                  78.5810449900001,76.933606539,0
                  78.2586847150002,76.8809204340002,0
                  78.0394879630002,76.8326470830001,0
                  77.8855818030001,76.7987525750002,0
                  77.682026299,76.7539238700001,0
                  77.5051838220001,76.714978134,0
                  77.2216456080001,76.6525349650001,0
                  76.9731827310002,76.5978163820001,0
                  76.8238627900001,76.564931889,0
                  76.6791492520001,76.5330618570001,0
                  76.4015012070001,76.4719158710001,0
                  76.1933599000001,76.4260772420002,0
                  75.9635852960001,76.3754743490001,0
                  75.6569414510002,76.3079426640001,0
                  75.448611386,76.2620624650001,0
                  75.1896522390002,76.2050323050001,0
                  74.9367711580001,76.1493407080001,0
                  74.502441531,76.0536889870002,0
                  74.1323701860001,75.9721887640001,0
                  73.823423676,75.9041499670001,0
                  73.4390812190002,75.8195068400001,0
                  73.046546155,75.7330594690002,0
                  72.5615876840001,75.6262578380001,0
                  72.1190648070001,75.5288017300002,0
                  71.7168641960001,75.4402257300001,0
                  71.2451576890001,75.3363425590001,0
                  70.9966941210002,75.2816238230002,0
                  70.5886035790002,75.1917506940002,0
                  70.2706345320001,75.1217248780001,0
                  69.8117258420002,75.020660148,0
                  69.4939447200001,74.9506757190002,0
                  69.0782144730001,74.8591201090001,0
                  68.761806314,74.7894380450001,0
                  68.4499154590002,74.7207508190002,0
                  67.9752631560001,74.616218899,0
                  67.683532809,74.5519715900001,0
                  67.2237952660001,74.4507243240001,0
                  66.9343675430001,74.386984118,0
                  66.5596904040001,74.3044695690001,0
                  66.2862978720001,74.2442607670002,0
                  65.9756328410001,74.1919038620001,0
                  65.7403956240001,74.1522589350001,0
                  65.5348261950001,74.11761397,0
                  65.3338441560001,74.0837421260002,0
                  65.109983838,74.0460145670001,0
                  64.9078554370001,74.0119495240002,0
                  64.6794692590001,73.9734592140001,0
                  64.3836542940001,73.9236050160001,0
                  64.0844607190001,73.8731814140001,0
                  63.7509798590001,73.8169793190002,0
                  63.4803387100001,73.7713677070001,0
                  63.175409501,73.7199774700001,0
                  62.9618414890001,73.6839844900001,0
                  62.7191124520001,73.643076954,0
                  62.3576384500001,73.5659344220002,0
                  61.9446593170002,73.4778001270001,0
                  61.5930122370001,73.4027547680002,0
                  61.403898983,73.3623959170002,0
                  61.1387753850001,73.3058156230001,0
                  60.8659612050001,73.247594072,0
                  60.7066657140001,73.213598661,0
                  60.4517542560002,73.1591977480001,0
                  60.2538916690001,73.1169716930001,0
                  59.882403111,73.0376919450002,0
                  59.5626083050001,72.9694442120001,0
                  59.238381874,72.987714533,0
                  59.0429787800002,72.998725595,0
                  58.830709745,73.0106870610001,0
                  58.482812047,73.0302912700001,0
                  58.2107679290001,73.0456210920001,0
                  57.9505548310001,73.0602842300001,0
                  57.6465982710001,73.0774123340001,0
                  57.4491790970001,73.0885370030002,0
                  57.255930588,73.0994266530001,0
                  57.0815821890001,73.1092512730001,0
                  56.9398659610002,73.1651115690001,0
                  56.8046477770002,73.21841053,0
                  56.7205967090001,73.2515409460001,0
                  56.545148456,73.3206973970001,0
                  56.4213658540002,73.4084979010001,0
                  56.2663996540001,73.3942431250002,0
                  56.0514428920001,73.427078355,0
                  55.9000201240002,73.4502085940001,0
                  55.7204921630001,73.4744943470002,0
                  55.5900124640001,73.4921450670001,0
                  55.3786593410001,73.506008492,0
                  55.2304686940001,73.532788728,0
                  55.0686366300001,73.5620341690001,0
                  54.8854318130001,73.6041061080002,0
                  54.8923973920001,73.6780819590001,0
                  54.9504306950002,73.757395824,0
                  54.9820523840001,73.8313980160001,0
                  54.9819790050001,73.9000828900002,0
                  54.9819056270001,73.9687677620001,0
                  54.9078752130001,74.0268067090001,0
                  54.828566992,74.0795565590002,0
                  54.775698607,74.1112008250001,0
                  54.6594400910001,74.1322104540002,0
                  54.5765395170001,74.1536866870001,0
                  54.4723915170001,74.1806672800001,0
                  54.3335286520002,74.216641111,0
                  54.1510356640002,74.2639177670002,0
                  53.8562172370001,74.2658533100002,0
                  53.5530986740001,74.2678433450001,0
                  53.215082418,74.270062491,0
                  52.9333664540001,74.2719120140002,0
                  52.6797190810001,74.2735772610001,0
                  52.3839690110001,74.2755189210001,0
                  52.087949088,74.277462352,0
                  51.8765677750002,74.2788501140001,0
                  51.6370093650002,74.2804228630001,0
                  51.4257360970001,74.2818099160001,0
                  51.1791331960001,74.2834289140001,0
                  51.0223034310002,74.2844585330001,0
                  50.8559398580001,74.2513315480002,0
                  50.6689244210001,74.2140922810001,0
                  50.4440640620001,74.1693171810001,0
                  50.2340324390001,74.1274948380001,0
                  49.895298122,74.0600446950001,0
                  49.5551546760001,73.9923139620002,0
                  49.2001821970001,73.9216304120001,0
                  48.8952675240002,73.8609145730001,0
                  48.561968719,73.7945467720001,0
                  48.2435663700001,73.7311452130001,0
                  47.921996662,73.6671129580001,0
                  47.6243437160001,73.6078431030002,0
                  47.319495402,73.5471404780002,0
                  46.9495590540001,73.4734772620001,0
                  46.7124856680002,73.4262702550001,0
                  46.4468932340001,73.373384419,0
                  46.194855705,73.3231976910002,0
                  45.99435299,73.2832727830001,0
                  45.6014001410001,73.2050264270001,0
                  45.289774777,73.142974329,0
                  45.086521502,73.102501718,0
                  44.8371671290001,73.052849271,0
                  44.5648651390002,72.9986274020001,0
                  44.3426214870001,72.9543733500001,0
                  44.0607903830001,72.8982540050001,0
                  43.7180295630002,72.8300020900001,0
                  43.3386312970001,72.7544547780001,0
                  43.1163875900001,72.7102007150002,0
                  42.9361496150001,72.6743110040001,0
                  42.657069608,72.6187394680002,0
                  42.4890451320001,72.5852817580002,0
                  42.2993454090001,72.5475079850002,0
                  42.1205168490001,72.5118989210001,0
                  41.9010089560001,72.4681896250001,0
                  41.684868433,72.4813718180002,0
                  41.4945102310002,72.4929815740001,0
                  41.3256417380001,72.5032806940001,0
                  41.1484482830002,72.5140875440001,0
                  40.84009015,72.5328939980001,0
                  40.66246169,72.5437273790001,0
                  40.5073440230001,72.55318785,0
                  40.212000312,72.5712005660002,0
                  40.0080418100002,72.5836397900002,0
                  39.7970652390001,72.5965070390002,0
                  39.5286373320001,72.6128781880001,0
                  39.3792939340001,72.6219864920001,0
                  39.2258068560002,72.6628043140001,0
                  39.0986297750001,72.696625346,0
                  38.8692773440001,72.7576185370001,0
                  38.5982548060001,72.8296933320001,0
                  38.373723105,72.8894045150001,0
                  38.061479579,72.9724414760001,0
                  37.7729305260001,73.0491772120001,0
                  37.5545269230001,73.1072587090001,0
                  37.3830645040002,73.1528568310001,0
                  37.128709717,73.2204990620002,0
                  36.921933596,73.300072986,0
                  36.7694544270001,73.358751742,0
                  36.5886756480002,73.428321075,0
                  36.4272374710001,73.490447538,0
                  36.2444430560002,73.5301705420001,0
                  36.050486349,73.5723192200002,0
                  35.7381813920002,73.6401861250002,0
                  35.4492198800001,73.702980272,0
                  35.150045007,73.7679938810001,0
                  35.0058878940001,73.8021325330001,0
                  34.9333882200002,73.8188623010002,0
                  34.860615959,73.8353675640001,0
                  34.8089930670001,73.8468755970001,0
                  34.8058446380001,73.8475950070001,0
                  34.8021338360001,73.8484046910001,0
                  34.7875630430001,73.8515839890001,0
                  34.7142781530001,73.8677101740002,0
                  34.6407248460002,73.8835503190002,0
                  34.5669234280001,73.8991715580001,0
                  34.4840700270001,73.916390419,0
                  34.4009223050001,73.9333389990001,0
                  34.317488832,73.950019255,0
                  34.2337781760001,73.9664331500002,0
                  34.122581467,73.9877496010001,0
                  34.0197312580001,74.0069640320002,0
                  34.0155435920001,74.0077534480001,0
                  34.0140290660001,74.0080293130001,0
                  34.010931633,74.008593499,0
                  33.89885609,74.0290114000001,0
                  33.7863671450002,74.048965833,0
                  33.6614544160001,74.0705251820002,0
                  33.5360786540001,74.0914796310001,0
                  33.5211119040002,74.0939856630001,0
                  33.5150153200001,74.095006475,0
                  33.4997977670001,74.0974573030002,0
                  33.410300577,74.1120345800001,0
                  33.284113266,74.1319969350002,0
                  33.1575117810001,74.1514457920001,0
                  33.0609493940001,74.1658485730001,0
                  33.047930799,74.1678123580002,0
                  33.0426161190001,74.1685830760002,0
                  33.030558926,74.170331574,0
                  32.9033025790002,74.1888070030001,0
                  32.7757487150002,74.2067316770001,0
                  32.6384428160001,74.2254335260002,0
                  32.5008661360002,74.2435710140001,0
                  32.4766598540002,74.246658977,0
                  32.4676778410001,74.2478402880001,0
                  32.4471246400001,74.2504267450002,0
                  32.3630520520002,74.2611517730001,0
                  32.2250339340002,74.2781834390001,0
                  32.138669775,74.2885544550001,0
                  32.0522470820002,74.2987157590001,0
                  31.9657740070001,74.3086692150001,0
                  31.8792587010001,74.3184166880001,0
                  31.7725739700002,74.3301507590001,0
                  31.6658527300001,74.3415782040001,0
                  31.5591102440001,74.3527025150001,0
                  31.4523617770001,74.363527184,0
                  31.3256476490002,74.3759935930001,0
                  31.2045446970002,74.3875181630001,0
                  31.2018393560001,74.3877785810001,0
                  31.200885686,74.3878663670001,0
                  31.198971613,74.3880425590001,0
                  31.0723608160002,74.3996976450001,0
                  30.9458391950001,74.410946971,0
                  30.84803107,74.4193795890002,0
                  30.7503037570001,74.4275790730001,0
                  30.6526690850001,74.435548127,0
                  30.555138883,74.4432894570002,0
                  30.4484577370001,74.4515096840001,0
                  30.3419265480001,74.4593962530001,0
                  30.3088542040001,74.4618555540001,0
                  30.2991306160001,74.4625786130001,0
                  30.2807522270001,74.4638877450001,0
                  30.2355743560001,74.46713032,0
                  30.1294066360001,74.4745865010001,0
                  30.0335471710001,74.4810884520001,0
                  29.9378641830002,74.4873838400002,0
                  29.8423691700002,74.4934752980001,0
                  29.7470736290002,74.4993654530001,0
                  29.651988586,74.5050495040001,0
                  29.6500813330001,74.5051674550002,0
                  29.6497196240001,74.5051898240001,0
                  29.6486092070001,74.505252736,0
                  29.5571269610001,74.5105523820001,0
                  29.4624988320001,74.5158544150001,0
                  29.36811617,74.520965668,0
                  29.288398655,74.5251463790001,0
                  29.2088723580001,74.5291937860001,0
                  29.1295442620001,74.5331094890002,0
                  29.0504178880001,74.5368256560001,0
                  29.0203143380001,74.5382903760001,0
                  29.0161427200001,74.5384933510001,0
                  29.0104167880001,74.5387490730001,0
                  28.9715077270001,74.540486769,0
                  28.8928189790001,74.5440823260001,0
                  28.814353489,74.547487172,0
                  28.7361211030001,74.550768297,0
                  28.6595556330001,74.553870503,0
                  28.5832281340001,74.5568565280001,0
                  28.5071452090001,74.5597278820002,0
                  28.431313433,74.5624852850002,0
                  28.4308578550002,74.5625020930001,0
                  28.3557395000001,74.5651326260001,0
                  28.280429924,74.5676690350001,0
                  28.2053913390001,74.5700968160001,0
                  28.1306303480001,74.5724174800001,0
                  28.0237517730001,74.575566214,0
                  27.9174790350002,74.5785015670002,0
                  27.8492813660001,74.5802615510001,0
                  27.8402610260001,74.5805068070002,0
                  27.8281771040001,74.5808061920002,0
                  27.811831498,74.5812195930002,0
                  27.7068293410002,74.5837500410001,0
                  27.5963344630002,74.5861765870002,0
                  27.5238525250002,74.5876794090001,0
                  27.5091448400001,74.5879898030001,0
                  27.5026530800002,74.5881110990002,0
                  27.4866093090001,74.5884243380001,0
                  27.3776754300002,74.590419453,0
                  27.2695580230001,74.59227078,0
                  27.1372112810001,74.594229044,0
                  27.0061863370001,74.5958418340001,0
                  26.9825605420001,74.5961371790001,0
                  26.9738885270002,74.5962455880001,0
                  26.954234055,74.5964362820001,0
                  26.8765285160001,74.5972234940002,0
                  26.7482806690001,74.5983462790001,0
                  26.6154117500001,74.5991991060002,0
                  26.484190461,74.5997523570001,0
                  26.476766685,74.599784205,0
                  26.473443837,74.5997984610001,0
                  26.464205413,74.5998128230001,0
                  26.3546674130001,74.6000227390001,0
                  26.2268929310002,74.6000958750001,0
                  26.0784979130001,74.5998148840002,0
                  25.932688442,74.5992049490001,0
                  25.7895472580001,74.5982849990002,0
                  25.6491571020001,74.5970739570001,0
                  25.5108084610001,74.5955813570001,0
                  25.3754108690002,74.5938326720001,0
                  25.2430485180001,74.5918471600001,0
                  25.1138056050001,74.5896440800001,0
                  25.0119071930001,74.58772205,0
                  24.9121364610002,74.5856811480001,0
                  24.814537564,74.5835314720001,0
                  24.7191546620002,74.5812831250001,0
                  24.6123249930001,74.5785903180001,0
                  24.508547794,74.5757958520001,0
                  24.4078901030001,74.5729150600001,0
                  24.310418956,74.5699632760001,0
                  24.168355269,74.5653696520001,0
                  24.0340624550001,74.5607011750001,0
                  23.9077767620001,74.5560118810001,0
                  23.789734438,74.5513558090001,0
                  23.7039910410001,74.5478011660001,0
                  23.6234609140002,74.5443242630001,0
                  23.4784816360001,74.5377045870001,0
                  23.3923211540001,74.5335321350001,0
                  23.3167423220001,74.5297086800001,0
                  23.198447102,74.523364374,0
                  23.1011289310001,74.5176754600001,0
                  22.9891524320001,74.5178083480001,0
                  22.8763203890001,74.5170938420001,0
                  22.7626936530001,74.5155542110002,0
                  22.6483330710001,74.5132117270002,0
                  22.529992143,74.5099878280001,0
                  22.41100531,74.5059621840001,0
                  22.2914388060001,74.5011590330001,0
                  22.1713588670001,74.4956026170001,0
                  22.0625793730001,74.489960228,0
                  21.9534842030001,74.483741637,0
                  21.8441220760001,74.4769646750001,0
                  21.7345417050001,74.4696471670002,0
                  21.6045008990001,74.4603026830001,0
                  21.474303157,74.450254149,0
                  21.3440294930001,74.4395312160001,0
                  21.2137609230002,74.4281635310001,0
                  21.1208906260001,74.4196775970001,0
                  21.0280935390001,74.4108894760002,0
                  20.93539906,74.4018099280001,0
                  20.8428365890001,74.3924497140002,0
                  20.6970565010001,74.3771284540001,0
                  20.5517943010001,74.3611769090002,0
                  20.4445067990001,74.3489693790002,0
                  20.3376146150001,74.3364559540001,0
                  20.231164874,74.323653881,0
                  20.1252046990001,74.310580406,0
                  20.0290927830002,74.298442645,0
                  19.933462406,74.2861068020002,0
                  19.8383492520001,74.2735859340002,0
                  19.743789001,74.2608931010002,0
                  19.6652042590001,74.2501617890001,0
                  19.5870515290002,74.2393270920001,0
                  19.5093516450001,74.2283966330001,0
                  19.4321254410001,74.2173780400001,0
                  19.128374107,74.172574806,0
                  19.04490529,74.1598627730001,0
                  18.9621909320001,74.1470986990002,0
                  18.8802603220001,74.134293302,0
                  18.7991427490001,74.1214573,0
                  18.6962939950001,74.1049590370002,0
                  18.5948940080001,74.0884506800001,0
                  18.495004669,74.0719548760001,0
                  18.3966878580001,74.0554942740001,0
                  18.2642072,74.032964076,0
                  18.1349762550001,74.0106020460001,0
                  18.0091558040001,73.9884670250001,0
                  17.8869066230001,73.9666178520002,0
                  17.7849062720002,73.948129334,0
                  17.685759445,73.9299322180001,0
                  17.5895679360002,73.9120637580001,0
                  17.4964335350001,73.8945612050001,0
                  17.416537507,73.8793867450001,0
                  17.3391929840001,73.8645548090002,0
                  17.1924418120001,73.8360222140001,0
                  17.0567467200001,73.8091708200001,0
                  16.932674407,73.7842080250001,0
                  16.818886773,73.760948852,0
                  16.71833078,73.7400808950001,0
                  16.559305556,73.7063939810001,0
                  16.4263449790001,73.6773436080002,0
                  16.0371217860002,73.6205442380001,0
                  15.6250010980001,73.5604034360001,0
                  15.3214547660001,73.516106898,0
                  15.1124927180001,73.48561305,0
                  14.8423452940001,73.4461904170001,0
                  14.6431838620002,73.4171267740001,0
                  14.2310635140001,73.3569860220001,0
                  13.8427333460001,73.3003169720001,0
                  13.4408420870001,73.2416689510002,0
                  13.1095074000001,73.158321748,0
                  12.768192761,73.0724640910001,0
                  12.357265542,72.9690953960001,0
                  11.999355625,72.8790631970002,0
                  11.5486650710002,72.7656920400001,0
                  11.1772401380001,72.6722601410002,0
                  10.8066448690001,72.5222839880001,0
                  10.411427544,72.3623435390001,0
                  10.13884362,72.2520315850002,0
                  9.70098903700017,72.3888112220001,0
                  9.5112430210001,72.453334563,0
                  9.02716452400011,72.6309851130001,0
                  8.6457366140001,72.7850960340001,0
                  8.38802594800006,72.8972661000002,0
                  8.12608849200006,73.0189660950002,0
                  7.85122320800014,73.1564414840001,0
                  7.64176288100003,73.2692072180001,0
                  7.39077451600014,73.4155209370002,0
                  7.15041446900011,73.5701054030001,0
                  6.84555669100018,73.7946043330002,0
                  6.67579125900005,73.9397386140002,0
                  6.44298129900011,74.177860068,0
                  6.272767155,74.4058423670001,0
                  5.75033973800015,74.547824799,0
                  5.39259139100011,74.645051665,0
                  5.0384504430001,74.7412981320002,0
                  4.72005106200015,74.827830953,0
                  4.176296562,74.9756095410001,0
                  3.8310912450001,75.0694275320001,0
                  3.55384449000019,75.1447761210001,0
                  3.18896447200012,75.2439411930002,0
                  2.92065299600011,75.3168614000002,0
                  2.68216843300007,75.3816754140001,0
                  2.42055531600016,75.4527751800001,0
                  2.02617967200013,75.5913018380001,0
                  1.78987613400011,75.6743047830001,0
                  1.56605876100002,75.7529218920002,0
                  1.28772487100014,75.8506882330001,0
                  1.04844221900004,75.9347376080001,0
                  0.840141867999989,76.0079042760001,0
                  0.611727957000028,76.088135944,0
                  0.284812727000087,76.1642025680001,0
                  0.035784868000178,76.2221463600001,0
                  -0.307644997999944,76.302055608,0
                  -0.534803226999884,76.3549107760001,0
                  -0.873810121999952,76.4337908880001,0
                  -1.16761105599988,76.502152477,0
                  -1.51779643799995,76.5836335990001,0
                  -1.82039225899996,76.6696511630002,0
                  -2.07076705199995,76.7408240880002,0
                  -2.30904688199996,76.8085588320002,0
                  -2.55384239699987,76.878145761,0
                  -2.75210333299992,76.934504513,0
                  -2.93270507199992,76.985843363,0
                  -2.99304670399988,77.118795682,0
                  -3.07571548499993,77.3009420040001,0
                  -3.22489594799987,77.5085531570001,0
                  -3.36130751799993,77.6983941220001,0
                  -3.41075734299994,77.9758482200002,0
                  -3.44834880399992,78.1867671630001,0
                  -3.48970896999992,78.4188316280001,0
                  -3.38692910799995,78.5161425480002,0
                  -3.24540107399997,78.65013984,0
                  -3.12724586299993,78.762007983,0
                  -2.98527126399995,78.896428078,0
                  -2.84022913999991,79.0337524750001,0
                  -2.67215676499995,79.192881676,0
                  -2.49961402799988,79.3056558030001,0
                  -2.31200312199996,79.4778512850002,0
                  -2.09552928999994,79.6765381120002,0
                  -1.90806496499994,79.8485990570001,0
                  -1.78730385299997,79.9594375900002,0
                  -1.57158124599988,80.0382712860001,0
                  -1.39013287599994,80.1045798000001,0
                  -1.23692962799993,80.1605664140002,0
                  -1.09109628399989,80.2138597680001,0
                  -0.902278809999927,80.2828612480001,0
                  -0.757557252999959,80.335748311,0
                  -0.521843393999973,80.421887612,0
                  -0.234664395999914,80.5268343390001,0
                  0.0338627660001407,80.6249649370001,0
                  0.292756417000078,80.7195750640002,0
                  0.469139589000065,80.7840325510002,0
                  0.684513755000182,80.8627389120002,0
                  0.929285034000145,80.9521881580002,0
                  1.20176551000009,81.0517634550001,0
                  1.48610401700006,81.1556721530001,0
                  1.76422487700006,81.2573086740001,0
                  2.00730726000006,81.3461407290001,0
                  2.25533739200011,81.4249343110001,0
                  2.41941413200004,81.4770577920001,0
                  2.77828047800011,81.5910615400002,0
                  3.10076749700005,81.6935083950002,0
                  3.38346758600011,81.7833158420001,0
                  3.66114713000002,81.8715283720001,0
                  3.96945213900005,81.9694699240001,0
                  4.32934127200008,82.0837985880001,0
                  4.66975427400001,82.1709118090002,0
                  4.9694221260001,82.2475981630001,0
                  5.2011447970001,82.306897039,0
                  5.42962392100003,82.365365877,0
                  5.70898459300008,82.436855531,0
                  5.90028951600004,82.5676983800001,0
                  6.1273883830001,82.7230224670002,0
                  6.338779112,82.867602986,0
                  6.51129337599997,82.9855939780002,0
                  6.68708460900012,83.1058262500001,0
                  6.92927167200014,83.2714698970001,0
                  7.20005018000018,83.45666864,0
                  7.47868392600014,83.6472399660001,0
                  7.63499031300012,83.7125376180001,0
                  7.83881054200003,83.7976843780002,0
                  8.18233320900015,83.8193550860001,0
                  8.50463816200016,83.8396873,0
                  8.80419397800017,83.8585844140001,0
                  9.02085510100005,83.872252217,0
                  9.37432371400018,83.8945503530001,0
                  9.71201754800006,83.9158533560001,0
                  9.91594948500011,83.928718153,0
                  10.3259908480002,83.954585112,0
                  10.6496498010001,83.9750027420001,0
                  10.9176067660002,83.9919064810001,0
                  11.191711184,84.0091980230001,0
                  11.5627500210001,84.032604555,0
                  11.971050236,84.0583616760002,0
                  12.3872378890001,84.084616366,0
                  12.7254485470001,84.1059519730001,0
                  13.0922017290001,84.1152802800001,0
                  13.5367661350001,84.1265877040001,0
                  13.9591801130001,84.137331734,0
                  14.2196693180001,84.143957234,0
                  14.47363245,84.1504167450001,0
                  14.7133437950002,84.1565137640002,0
                  15.030497629,84.1645805200001,0
                  15.3258451570002,84.1720926360001,0
                  15.5513040960001,84.1778271470002,0
                  15.8756694820001,84.1860773270001,0
                  16.150410382,84.1930653170001,0
                  16.537108608,84.2029009230002,0
                  16.9876838890002,84.2143612320001,0
                  17.220698122,84.2202879110001,0
                  17.5234284870001,84.2279878090002,0
                  17.7564424040002,84.2339144790001,0
                  18.051618101,84.2414222250001,0
                  18.5243430460002,84.2534459060001,0
                  18.9324628500001,84.263826367,0
                  19.3973852780001,84.2643230570001,0
                  19.8693735060001,84.2648272960002,0
                  20.3836289230001,84.2653766910001,0
                  20.9331086760001,84.265963716,0
                  21.362829139,84.2664227990001,0
                  21.708014602,84.2667915710001,0
                  21.891174569,84.266987246,0
                  22.1025123960001,84.2672130250001,0
                  22.4547425980001,84.2675893230002,0
                  22.680170145,84.2678301540001,0
                  22.9901324140002,84.2681612960001,0
                  23.223506,84.2596865080001,0
                  23.5755212820001,84.2469033360001,0
                  23.8619215120002,84.2365029240001,0
                  24.1307643660001,84.2267400950001,0
                  24.5617434870001,84.2110894100001,0
                  24.955443476,84.1967924880002,0
                  25.1948979730001,84.1880968760001,0
                  25.5047041560001,84.176846495,0
                  25.759280339,84.1676017510002,0
                  26.0271386020001,84.1578746770001,0
                  26.2552212960001,84.1495920240001,0
                  26.4927156000001,84.1414094510002,0
                  26.829193366,84.1298165240001,0
                  27.1679205820001,84.1181460960001,0
                  27.3649289990001,84.1113584140001,0
                  27.5760085790001,84.1040859280001,0
                  27.8014106750001,84.0963199760001,0
                  28.1393876290002,84.0846753970002,0
                  28.4989728380001,84.0722863320001,0
                  28.8093065130001,84.0615941680001,0
                  29.118872243,84.050928463,0
                  29.3731896810002,84.041595771,0
                  29.7249325070002,84.0286878570001,0
                  30.126450366,84.013953348,0
                  30.711937058,83.9924677310001,0
                  31.09181879,83.978527204,0
                  31.3310040810002,83.9697498160001,0
                  31.606426089,83.9596426480002,0
                  32.0496218580001,83.9433786840001,0
                  32.4159655470002,83.9299349630002,0
                  32.6916532320002,83.919818046,0
                  32.888097488,83.9126091270002,0
                  33.190596106,83.901508329,0
                  33.2977132850001,83.8975774480002,0
                  33.5220312000001,83.8893456490002,0
                  33.851075467,83.877270704,0
                  34.1211669460001,83.9004170910002,0
                  34.4160941650001,83.9256918590001,0
                  34.7325945260001,83.9528154080002,0
                  35.1144068010001,83.9855360800001,0
                  35.3190045470001,84.003069763,0
                  35.6646644160001,84.0326922340001,0
                  36.058097307,84.066408772,0
                  36.4281711690001,84.0981234810002,0
                  36.7399623300001,84.1352528790001,0
                  36.9532901740001,84.1606568540001,0
                  37.144957209,84.1834813680002,0
                  37.3394727300001,84.2066450920001,0
                  37.6059173470001,84.2383744340001,0
                  37.838446844,84.266065021,0
                  38.2193224960002,84.311421291,0
                  38.4543108470002,84.3394046890001,0
                  38.6696675020002,84.3650502630002,0
                  39.0297019030001,84.4079246690001,0
                  39.4383646220001,84.4565899390002,0
                  39.7541528460001,84.4941953240001,0
                  39.968182255,84.5220019130002,0
                  40.1918963430001,84.5499367690001,0
                  40.543342153,84.592204285,0
                  40.9120599220001,84.6347591490002,0
                  41.2738117880002,84.6749059730001,0
                  41.7775454360001,84.7283277650001,0
                  42.0787721750001,84.7589389340001,0
                  42.453458057,84.7956452820002,0
                  42.8801907830001,84.8356095600001,0
                  43.3659679990001,84.8787084040001,0
                  43.698245452,84.9067036860001,0
                  43.958577957,84.927782511,0
                  44.3108776510002,84.9550925350002,0
                  44.5932810490001,84.9759570420002,0
                  44.9281064100001,84.9994844420001,0
                  45.1595081900001,85.0149611430002,0
                  45.521134262,85.0378332210001,0
                  45.7490781690001,85.0514069110002,0
                  46.0885528840002,85.0703784820002,0
                  46.5758179650001,85.0958525070002,0
                  47.0382783660002,85.1188225390001,0
                  47.36359758,85.1342983250001,0
                  47.8294496280002,85.1555045180001,0
                  48.1541036700001,85.1696326320001,0
                  48.4774999040001,85.1831848640002,0
                  48.8859525790002,85.1995696200001,0
                  49.2254758580002,85.2125757480001,0
                  49.5627506850001,85.2249500800001,0
                  49.861739039,85.2354681620001,0
                  50.166907114,85.245767948,0
                  50.410580912,85.2536767850001,0
                  50.7316254980001,85.2636690690002,0
                  51.1382842310001,85.2756255660001,0
                  51.4364623180001,85.2838917140002,0
                  51.7311270490001,85.291639939,0
                  52.0006673800001,85.2983570120001,0
                  52.2668390620001,85.3046376420002,0
                  52.598195446,85.3119576540001,0
                  52.8856699030001,85.3178496940002,0
                  53.2660309680001,85.3249697740001,0
                  53.4850042330001,85.3287079300001,0
                  53.9847948610001,85.3362022090001,0
                  54.372539703,85.340960499,0
                  54.8587653230001,85.3454989570002,0
                  55.1546745650001,85.3474052180001,0
                  55.5244986120002,85.3487672860002,0
                  55.8310635290001,85.3489304390001,0
                  56.1902171820001,85.3478274830001,0
                  56.4705120630002,85.3458205730001,0
                  56.7325613160001,85.3428422100002,0
                  57.0736094150001,85.3369379020002,0
                  57.3737423090001,85.3291331960001,0
                  57.5323500650001,85.3288916810001,0
                  57.9866848640002,85.3274968220001,0
                  58.5359295420002,85.3249049830001,0
                  58.947991662,85.3224265580001,0
                  59.3392213680002,85.3196871480001,0
                  59.8464990360002,85.31560243,0
                  60.2902734030001,85.3115507530001,0
                  60.786862838,85.3064971050001,0
                  61.1259587320001,85.3027328580001,0
                  61.3468234720001,85.3001443610001,0
                  61.822687853,85.2941994610001,0
                  62.118202249,85.2902531160001,0
                  62.4354610600001,85.285797212,0
                  62.7210450180002,85.281590121,0
                  63.1226841770001,85.2753548510001,0
                  63.5131897790002,85.2689296240001,0
                  63.9895526300002,85.2605968510002,0
                  64.2677473380001,85.2554734820002,0
                  64.548792889,85.2501010390002,0
                  65.0243278440001,85.2405503970001,0
                  65.340468059,85.2338726510002,0
                  65.658520136,85.226882493,0
                  65.9547492100002,85.2201205050001,0
                  66.2507318920001,85.2131158110001,0
                  66.514209662,85.2066663870002,0
                  66.9160447000001,85.196430879,0
                  67.3390124690002,85.1851179790002,0
                  67.6181973670001,85.1773367970001,0
                  67.897969452,85.1692803310002,0
                  68.3525531120001,85.1556169770001,0
                  68.6688674330002,85.1456745720002,0
                  69.0161846780001,85.1343285210001,0
                  69.4618432750001,85.1190388310002,0
                  69.7421425290001,85.108985515,0
                  70.0218721430002,85.098625474,0
                  70.2227444420002,85.0909883130001,0
                  70.5831491980001,85.0768800100001,0
                  70.8908610230001,85.0644303190002,0
                  71.3013595790001,85.0472559370001,0
                  71.7965459600002,85.0256978060001,0
                  72.1133458900001,85.011434115,0
                  72.465282513,84.9951647670002,0
                  72.7911000220001,84.9797107790001,0
                  73.0989072000002,84.964768797,0
                  73.4168218250002,84.9489903570001,0
                  73.7313128570001,84.9330386130001,0
                  74.1955098060002,84.9088732270001,0
                  74.545489093,84.8901662620001,0
                  74.8919409550002,84.871234605,0
                  75.4116366530001,84.8420605540001,0
                  75.6234980210001,84.8298977050001,0
                  75.9703568100001,84.8096426360001,0
                  76.301866428,84.789880263,0
                  76.6367949150002,84.7695036150002,0
                  77.1354874340002,84.7383705170001,0
                  77.6216223770001,84.7070556290001,0
                  77.914766035,84.6876783640001,0
                  78.306788365,84.6611332710001,0
                  78.5809094820001,84.6421029870001,0
                  78.8775241900001,84.6210268110001,0
                  79.0795487230001,84.6063508890001,0
                  79.3115294790001,84.589135887,0
                  79.6072891580001,84.5665309990002,0
                  79.7979854560001,84.5514848870001,0
                  79.9991669500001,84.5351084450002,0
                  80.3080734140001,84.5085693720001,0
                </coordinates>
              </LinearRing>
            </outerBoundaryIs>
          </Polygon>
        </MultiGeometry>
      </Placemark>
    </Document>
  </Document>
</kml>
