<?xml version="1.0" encoding="UTF-8"?>
<kml xmlns="http://www.opengis.net/kml/2.2">
  <Document id="root_doc">
    <Schema id="Bioregions_PA10.schema">
      <SimpleField name="OBJECTID" type="float"/>
      <SimpleField name="Shape_Leng" type="float"/>
      <SimpleField name="Shape_Area" type="float"/>
      <SimpleField name="Bioregions" type="string"/>
    </Schema>
    <Document id="Bioregions_PA10">
      <name>Bioregions_PA10</name>
      <Placemark id="Bioregions_PA10.1">
        <ExtendedData>
          <SchemaData schemaUrl="#Bioregions_PA10.schema">
            <SimpleData name="OBJECTID">167</SimpleData>
            <SimpleData name="Shape_Leng">115.88522191000</SimpleData>
            <SimpleData name="Shape_Area">184.66667711200</SimpleData>
            <SimpleData name="Bioregions">PA10</SimpleData>
          </SchemaData>
        </ExtendedData>
        <Polygon>
          <outerBoundaryIs>
            <LinearRing>
              <coordinates>
                11.99671784,56.6226572740001,0
                12.093652428,56.6174947800001,0
                12.2472900220001,56.6093139000001,0
                12.339658338,56.60439431,0
                12.4322490700001,56.5994634130001,0
                12.6377102970001,56.5885224300001,0
                12.7891836050001,56.5804562000001,0
                12.8297210910001,56.546442159,0
                12.8297850600001,56.4865643300001,0
                12.861657388,56.4644407700001,0
                12.9108554150001,56.4302929670001,0
                13.0342041500001,56.367023504,0
                13.1328703450001,56.3283833290001,0
                13.179213931,56.318678769,0
                13.199808347,56.314366464,0
                13.2702731580001,56.3003521190001,0
                13.3084009190001,56.292768176,0
                13.3583464000001,56.282834236,0
                13.453518952,56.26594435,0
                13.4569899360001,56.2653283930001,0
                13.494792229,56.2587956450001,0
                13.5380186260001,56.251325566,0
                13.619041182,56.2408452510001,0
                13.6965601000001,56.2162717300001,0
                13.73184998,56.1529084760001,0
                13.770627796,56.1247706550001,0
                13.8305539030001,56.079045222,0
                13.925632395,56.100280384,0
                13.9321415370001,56.1030292950001,0
                13.9925246240001,56.1285305490001,0
                14.0401019810001,56.146429331,0
                14.048860715,56.1497244890001,0
                14.1087271760001,56.160355172,0
                14.1418524320001,56.174103303,0
                14.2108313850001,56.202732467,0
                14.2882949780001,56.2274708800001,0
                14.3472586300001,56.241144552,0
                14.379853176,56.2487035730001,0
                14.4374315100001,56.2557445190001,0
                14.496073241,56.2629159580001,0
                14.577095796,56.2524356430001,0
                14.601318942,56.211358741,0
                14.612385907,56.1925934980001,0
                14.661773935,56.1222015750001,0
                14.699512466,56.073480884,0
                14.718345879,56.0491671990001,0
                14.771898428,55.9800336210001,0
                14.83013056,55.904861075,0
                14.836021805,55.8972562050001,0
                14.926434009,55.7805416580001,0
                14.9522684950001,55.77429462,0
                15.024160056,55.756910781,0
                15.132592533,55.730691129,0
                15.2358961890001,55.7057121060001,0
                15.384251595,55.6698388560001,0
                15.516282565,55.637913117,0
                15.579663102,55.6225877090001,0
                15.6469635920001,55.606315097,0
                15.70033349,55.5934090530001,0
                15.751757082,55.580974284,0
                15.904821371,55.5439626770001,0
                16.124112231,55.4909370720001,0
                16.2854583770001,55.4519231560001,0
                16.299701827,55.448479111,0
                16.403017404,55.423497712,0
                16.5213329270001,55.45972736,0
                16.557782606,55.4708883070001,0
                16.6606471960001,55.5023863820001,0
                16.7932418680001,55.542988979,0
                16.9495860970001,55.5908634640001,0
                16.9948828500001,55.604734051,0
                17.1189499220001,55.642726108,0
                17.2753994920001,55.690631872,0
                17.3057648490001,55.699930065,0
                17.3435330900001,55.711495261,0
                17.4847927120001,55.754751593,0
                17.6720150090001,55.8120806790001,0
                17.680050126,55.814541127,0
                17.8495732110001,55.8664511910001,0
                17.980319964,55.9064876320001,0
                18.020416401,55.9187657670001,0
                18.0311623970001,55.9220562420001,0
                18.141871521,55.9559565060001,0
                18.203334802,55.9747776580001,0
                18.259977298,55.9921231540001,0
                18.289714648,55.989947354,0
                18.3973467280001,55.9820729040001,0
                18.550520039,55.970867356,0
                18.5936981080001,55.9677086470001,0
                18.6834503920001,55.9611431880001,0
                18.761067812,55.955464277,0
                18.822792049,55.9509483370001,0
                18.8571836900001,55.811901043,0
                18.869804867,55.7608735310001,0
                18.899956091,55.638971912,0
                18.9276436010001,55.527031101,0
                18.951843098,55.4291923580001,0
                18.9131341790001,55.3194306510001,0
                18.8870112970001,55.2453574890001,0
                18.8475342020001,55.1334175710001,0
                18.8230681380001,55.064042423,0
                18.7902170740001,54.970891056,0
                18.754155288,54.8686354700001,0
                18.72851674,54.795935666,0
                18.6919706680001,54.6923068580001,0
                18.64362455,54.555218236,0
                18.6133538490001,54.469383656,0
                18.633271209,54.3793804200001,0
                18.657998815,54.312483038,0
                18.679189066,54.2596710980001,0
                18.7039204340001,54.189251416,0
                18.725159605,54.0906495610001,0
                18.725219813,54.034292742,0
                18.7218329790001,53.907486136,0
                18.683170451,53.8299541170001,0
                18.630426245,53.7453624440001,0
                18.6023456730001,53.6537525100001,0
                18.5319598570001,53.5973204310001,0
                18.429858278,53.5549436910001,0
                18.334823881,53.491440669,0
                18.225696515,53.4314448960001,0
                18.134214521,53.339767228,0
                18.088481051,53.286883792,0
                18.12386587,53.135462472,0
                18.042879284,53.110719815,0
                17.916076441,53.110584347,0
                17.7998367390001,53.1139824700001,0
                17.7258082070001,53.1702602660001,0
                17.6623653930001,53.208937846,0
                17.602467458,53.226485381,0
                17.433415816,53.208693252,0
                17.2608305850001,53.201464263,0
                17.1164726810001,53.1484754640001,0
                16.964994916,53.1659251620001,0
                16.774794415,53.1621996600001,0
                16.669129142,53.1585644690001,0
                16.54935585,53.1725257320001,0
                16.478917353,53.16540587,0
                16.440269877,53.0737846470001,0
                16.3769249010001,53.020882396,0
                16.2677373270001,53.0172434420001,0
                16.116312243,52.985380923,0
                16.0071209060001,52.9852642710001,0
                15.9607782840001,53.09044363,0
                15.959374166,53.1683731320001,0
                15.9844183500001,53.2172718730001,0
                15.9948907090001,53.3057809790001,0
                16.054309785,53.3243365600001,0
                16.146764547,53.3297187900001,0
                16.2021857570001,53.3812917110001,0
                16.1955080650001,53.449969529,0
                16.1334148060001,53.4617909730001,0
                16.0317097700001,53.4603614540001,0
                15.9630206640001,53.4642506650001,0
                15.904939384,53.4298461390001,0
                15.8865404360001,53.3426494300001,0
                15.8549229810001,53.2646846490001,0
                15.800836745,53.1999045090001,0
                15.738790054,53.168137476,0
                15.7004201180001,53.228856249,0
                15.7069298870001,53.317361121,0
                15.6209947730001,53.3912377230001,0
                15.601088695,53.478393511,0
                15.606298769,53.547084028,0
                15.689504668,53.555098107,0
                15.760811511,53.573666388,0
                15.8356684070001,53.5662614610001,0
                15.882297035,53.605496922,0
                15.927147108,53.661021143,0
                15.8517845430001,53.729625583,0
                15.6827013860001,53.7413327260001,0
                15.512335466,53.717375159,0
                15.5150350480001,53.663222601,0
                15.4689064450001,53.568071079,0
                15.461088513,53.4676770290001,0
                15.4426641650001,53.4042558520001,0
                15.4070417880001,53.3659127270001,0
                15.4665779870001,53.274836684,0
                15.520820857,53.193001037,0
                15.581644053,53.1336271160001,0
                15.5566436140001,53.0437816250001,0
                15.4840271960001,53.0146450290001,0
                15.400817064,53.0105935390001,0
                15.4035364010001,52.9379489,0
                15.3666340840001,52.861299338,0
                15.299319462,52.814997168,0
                15.21612062,52.8003787750001,0
                15.095931969,52.791004323,0
                14.9999817180001,52.7605219340001,0
                14.9207130080001,52.776287622,0
                14.8361853060001,52.7691527090001,0
                14.75697304,52.7320838790001,0
                14.6566175610001,52.7037982250001,0
                14.577425992,52.647356739,0
                14.49639425,52.6648816960001,0
                14.3924092240001,52.736977863,0
                14.293711413,52.8055573720001,0
                14.2143749690001,52.884724481,0
                14.143872501,52.9374837400001,0
                14.189557053,53.0361570910001,0
                14.266957367,53.1207751060001,0
                14.435828386,53.3076376910001,0
                14.576588729,53.4310687510001,0
                14.6575038190001,53.5227351300001,0
                14.667965359,53.621370852,0
                14.5797911770001,53.7304681140001,0
                14.491778803,53.688106426,0
                14.4813059740001,53.600037608,0
                14.354653651,53.4590100930001,0
                14.2808019780001,53.3497397340001,0
                14.192862914,53.2387570280001,0
                14.1295311760001,53.1734628670001,0
                14.041563959,53.088833564,0
                13.999360315,53.0289092880001,0
                13.999409234,52.9831193730001,0
                13.8479954380001,52.9406899510001,0
                13.9537472600001,52.8633122140001,0
                13.999601145,52.8034820130001,0
                13.8411276960001,52.7751342700001,0
                13.6474124210001,52.7643604020001,0
                13.471338754,52.72542694,0
                13.4079787260001,52.6866138940001,0
                13.3305483080001,52.6301742890001,0
                13.2460093170001,52.6336062780001,0
                13.1614515100001,52.6546497740001,0
                13.0346486670001,52.6545143070001,0
                13.0275400950001,52.7143859010001,0
                13.1331188190001,52.799034019,0
                13.1999597550001,52.876596142,0
                13.3231274070001,52.9823968810001,0
                13.351215505,53.0669622130001,0
                13.2490537190001,53.080942291,0
                13.1566582240001,53.020083818,0
                13.051936557,52.957451023,0
                12.932208421,52.9291446730001,0
                12.8406097750001,52.946658341,0
                12.7235196020001,52.921877114,0
                12.5623884340001,52.9084963280001,0
                12.4540946060001,52.892530261,0
                12.3484650820001,52.8554332090001,0
                12.224301143,52.85794229,0
                12.153053567,52.7838977650001,0
                12.089717057,52.723070336,0
                11.97357143,52.6384109300001,0
                11.881175935,52.577552456,0
                11.7438823900001,52.5060791010001,0
                11.6382641540001,52.458415146,0
                11.5141594830001,52.405447983,0
                11.4137936550001,52.386848657,0
                11.3424952780001,52.360355198,0
                11.2500348720001,52.3602564190001,0
                11.173424821,52.360174574,0
                11.0730194820001,52.37855941,0
                10.980544965,52.3916692620001,0
                10.8880676250001,52.4074208390001,0
                10.7823834700001,52.42146101,0
                10.682010184,52.40984243,0
                10.563132519,52.4097154300001,0
                10.4574634840001,52.409602541,0
                10.394104396,52.3699089190001,0
                10.2355951980001,52.3750230370001,0
                10.1272816150001,52.3775490510001,0
                9.98725603200006,52.390608102,0
                9.83142242700006,52.3640243310001,0
                9.77333832500005,52.3322615320001,0
                9.70993125900003,52.3374772500001,0
                9.62535087500004,52.379654552,0
                9.54603983200008,52.4350461280001,0
                9.34259307200006,52.466529527,0
                9.21313439100004,52.479599867,0
                9.05995944600005,52.4371685630001,0
                8.93318764800006,52.407974111,0
                8.83814196100008,52.3550379930001,0
                8.81708435400003,52.2836888160001,0
                8.77485625100007,52.246659498,0
                8.71672134800002,52.262447765,0
                8.66380780800006,52.336359644,0
                8.51057359600003,52.3494045850001,0
                8.41015979000002,52.3757145980001,0
                8.25428949600007,52.383473264,0
                8.14329749800004,52.4203388930001,0
                8.01383035100002,52.4413344100001,0
                7.92400038200003,52.4518053580001,0
                7.86587959100007,52.4543849940001,0
                7.83953288800006,52.3883136250001,0
                7.75236440000003,52.3802953140001,0
                7.65990399400005,52.380196535,0
                7.63884921000005,52.306205633,0
                7.74192731900007,52.258764634,0
                7.80270959200004,52.2376957380001,0
                7.86876685100003,52.2245576650001,0
                7.94276339800007,52.1982194290001,0
                8.03785988600004,52.2036044810001,0
                8.13565172100004,52.1587995630001,0
                8.25456889800006,52.1219424020001,0
                8.35763571800004,52.085068306,0
                8.42635728000005,52.050799248,0
                8.51884873100005,52.0218390420001,0
                8.58227555200006,51.9981312420001,0
                8.64569108400002,51.9849903460001,0
                8.68272040300008,51.9427622430001,0
                8.72241966900003,51.8741197040001,0
                8.70399249900004,51.813340253,0
                8.63006933000003,51.7709936160001,0
                8.41351554100004,51.707360771,0
                8.29732193600006,51.6676107050001,0
                8.13355468700007,51.648943645,0
                7.93282020800007,51.614386719,0
                7.80339257400004,51.598398074,0
                7.65018940500005,51.5823840290001,0
                7.53137100700008,51.526780785,0
                7.42042698700004,51.5187370730001,0
                7.27778507800002,51.50801777,0
                7.14306552500005,51.4999486570001,0
                6.99512887500003,51.499790612,0
                6.89213261000003,51.47062156,0
                6.76533541200007,51.4652026410001,0
                6.73109551700003,51.369183245,0
                6.75934542300007,51.3022896270001,0
                6.80519554600005,51.2459817270001,0
                6.87219829100007,51.172084898,0
                6.94624187500006,51.1017178970001,0
                6.98504739600003,51.045402471,0
                7.02385291700006,50.9890870450001,0
                7.05916247700003,50.9081117480001,0
                7.12260905400007,50.8659118680001,0
                7.10856876800005,50.8201069,0
                7.04519745100004,50.7918607570001,0
                6.97478529400007,50.760084787,0
                6.90784087500003,50.779385947,0
                6.83918046100007,50.7564176110001,0
                6.74763637900003,50.7228579120001,0
                6.63316159100003,50.722735615,0
                6.55034423800004,50.7631536490001,0
                6.48338476800006,50.7965440130001,0
                6.40938445800003,50.8264045510001,0
                6.34948652300005,50.8439520860001,0
                6.24379490900003,50.864973004,0
                6.10995687200005,50.856024258,0
                6.05717503600005,50.806655597,0
                6.02377150100006,50.75202418,0
                5.93579299400005,50.6779617810001,0
                5.88472903400003,50.669101465,0
                5.85304902000007,50.6496949410001,0
                5.79319624100003,50.624974863,0
                5.73864761000004,50.5808877710001,0
                5.70874191700005,50.549155076,0
                5.65068603700007,50.490975017,0
                5.56971073900007,50.4556654560001,0
                5.50986736800007,50.4221396250001,0
                5.43941381800005,50.429108967,0
                5.35051616500004,50.391149215,0
                5.26073417400005,50.3567108220001,0
                5.17092960500003,50.3434062370001,0
                5.04679671100007,50.316856333,0
                4.96490320800007,50.3167688440001,0
                4.85926239500003,50.2902386960001,0
                4.76682174500007,50.2716478360001,0
                4.67439520600004,50.2398483470001,0
                4.58458217000003,50.2344689400001,0
                4.51063077900005,50.2185395610001,0
                4.42345664700002,50.2158047020001,0
                4.32836862600004,50.2024944730001,0
                4.24649487900007,50.183914902,0
                4.16196247300007,50.181182864,0
                4.11707853300004,50.1573593530001,0
                4.03786626800007,50.120290524,0
                3.97185981000007,50.085877532,0
                4.02478463900007,50.001398748,0
                4.03013018000007,49.9432864230001,0
                4.08828201600005,49.9116478020001,0
                4.16493722300004,49.8694620320001,0
                4.17822205200002,49.7981495450001,0
                4.21789874200005,49.750640812,0
                4.31041841400003,49.695263347,0
                4.36067894000007,49.6319155480001,0
                4.33963262100002,49.5499994680001,0
                4.41626525000004,49.5289475050001,0
                4.51928973800005,49.531699298,0
                4.55896078200004,49.4894740170001,0
                4.61980232100007,49.4129288780001,0
                4.65952698900003,49.3205108060001,0
                4.68600351400005,49.2650627850001,0
                4.71774938000004,49.2228290370001,0
                4.74952064700005,49.1568197570001,0
                4.79716766800004,49.067051877,0
                4.78141609100004,48.9745745380001,0
                4.82108431300003,48.934990983,0
                4.87391883100003,48.9350474280001,0
                4.91623160100005,48.8928249690001,0
                4.95327503100003,48.837388237,0
                4.88726575000004,48.8056169710001,0
                4.76839655200007,48.7975647920001,0
                4.66801661300002,48.7921740960001,0
                4.57820922200005,48.781511236,0
                4.54658471100004,48.71015077,0
                4.49378970500004,48.673110164,0
                4.46477587600003,48.6308115050001,0
                4.44373802400003,48.5409702470001,0
                4.41477499600006,48.4511205220001,0
                4.36461042700006,48.424649641,0
                4.28004697600005,48.4509765880001,0
                4.18238778500006,48.371620389,0
                4.14811308200007,48.3081822780001,0
                4.13234739400002,48.228913569,0
                4.05574863200007,48.2182648200001,0
                3.97120493800003,48.2260996860001,0
                3.92634075300003,48.183784094,0
                3.80749695500003,48.151956383,0
                3.74940720800004,48.1254770350001,0
                3.74948623100005,48.0515087100001,0
                3.67291851400006,48.0118009770001,0
                3.66507518100002,47.9351824600001,0
                3.58053430800004,47.9403756,0
                3.53034998300006,47.9323968,0
                3.52249818300004,47.8637034600001,0
                3.45912216200003,47.839860193,0
                3.40091388100006,47.924333333,0
                3.34800316300004,47.995603487,0
                3.25023672800006,48.0166328720001,0
                3.17362103200003,48.0218344780001,0
                3.16819364700007,48.156556854,0
                3.13641673500007,48.227849586,0
                3.07026069900007,48.3334480660001,0
                2.98567749300003,48.3782670950001,0
                2.94872719700004,48.346526872,0
                2.93825342700006,48.2593386290001,0
                2.85373795500004,48.240756236,0
                2.84850248100003,48.195841252,0
                2.82742229600007,48.145625882,0
                2.78258915700007,48.0742513060001,0
                2.77481355700007,47.9342313670001,0
                2.79871044600003,47.820662553,0
                2.86483826000006,47.7414813330001,0
                2.85437860200005,47.6410844600001,0
                2.79634247700005,47.5644123210001,0
                2.78323262600003,47.471937804,0
                2.75159400400003,47.4137859670001,0
                2.68025611700006,47.424276671,0
                2.59311302900005,47.392482826,0
                2.51121106000005,47.400320515,0
                2.40027550600007,47.3843516250001,0
                2.31052173800003,47.323495974,0
                2.24452656900007,47.278516079,0
                2.19172591700004,47.2467589230001,0
                2.12305233300003,47.2361186410001,0
                2.03851992700004,47.233386604,0
                1.97247678000002,47.2333160480001,0
                1.93286782600006,47.2174233590001,0
                1.86948898200006,47.1962218190001,0
                1.75595968100004,47.1353407670001,0
                1.66361216400003,47.0295729530001,0
                1.55536067000003,46.973980999,0
                1.44443076000005,46.9527286570001,0
                1.35993786600005,46.913012458,0
                1.34152198400005,46.8416661030001,0
                1.37325938400005,46.8073575340001,0
                1.43404165700002,46.786288638,0
                1.47637136100002,46.7282158240001,0
                1.45527706500008,46.691209083,0
                1.45004441300006,46.6436523730001,0
                1.39726634100003,46.5907614110001,0
                1.34180985300003,46.5722100630001,0
                1.26260041000006,46.5324995070001,0
                1.18600447000006,46.519209033,0
                1.11735628600007,46.484793219,0
                1.05133571700003,46.4635888560001,0
                0.980074029000036,46.40275296,0
                0.874413461000074,46.3947148930001,0
                0.808387247000041,46.378793982,0
                0.760909559000027,46.3100583080001,0
                0.660523975000046,46.309951063,0
                0.55749666600002,46.309840996,0
                0.509954067000024,46.301865019,0
                0.454534268000032,46.2489712340001,0
                0.380574409000076,46.2409670330001,0
                0.301316988000053,46.2461658180001,0
                0.243275219000054,46.1747771300001,0
                0.222220434000064,46.1007862280001,0
                0.29622262700002,46.06916454,0
                0.341148900000064,46.053362162,0
                0.375550603000022,45.9979226080001,0
                0.388832611000055,45.9292518460001,0
                0.388914456000066,45.8526417960001,0
                0.404835367000032,45.7866155820001,0
                0.418145597000034,45.691527561,0
                0.476311544000055,45.6466803100001,0
                0.452620679000063,45.567403133,0
                0.452660189000028,45.5304189710001,0
                0.479128249000041,45.482896128,0
                0.529326685000058,45.477666298,0
                0.566282625000042,45.5041230680001,0
                0.60588593500006,45.525299209,0
                0.664018016000057,45.5121526680001,0
                0.695761060000052,45.4725606470001,0
                0.756551800000068,45.443566574,0
                0.825236673000063,45.4436399510001,0
                0.915080753000041,45.4199603750001,0
                0.967957604000048,45.3803909310001,0
                1.01032681900006,45.2853339550001,0
                1.04737871500004,45.221972045,0
                1.11607205500007,45.2141202450001,0
                1.19532383200004,45.2142049130001,0
                1.26665889700007,45.206355935,0
                1.33800242900003,45.1905817800001,0
                1.37765936200003,45.1615651290001,0
                1.40673528000002,45.1457458180001,0
                1.48334533100007,45.1458276640001,0
                1.51506297500003,45.1300111740001,0
                1.57323456700004,45.0798804720001,0
                1.62346404700003,45.045591658,0
                1.68689651400007,45.0166004070001,0
                1.77938796400002,44.9876402,0
                1.79529758600006,44.93218089,0
                1.70288233600007,44.8898144980001,0
                1.64744560400004,44.852771069,0
                1.73467335800007,44.805313137,0
                1.83509280900006,44.773719671,0
                1.91439538600002,44.7262532720001,0
                1.99103365800005,44.699917858,0
                2.02014626600004,44.6497561100001,0
                2.02814482100007,44.581079704,0
                2.04409395500005,44.488636232,0
                2.02563291800004,44.4595574910001,0
                1.99661626700004,44.4199005580001,0
                1.94122186800007,44.3432312410001,0
                1.88847484000007,44.261281293,0
                1.84625802600004,44.213685072,0
                1.81725830900007,44.158177784,0
                1.88068512900003,44.1344699840001,0
                1.96522318000007,44.13191857,0
                2.06565391900006,44.0897582000001,0
                2.07101074900004,44.0210789720001,0
                2.08165103100004,43.952405388,0
                2.07910526100005,43.862583886,0
                2.07651715800006,43.8123882720001,0
                2.11617126900006,43.7860133470001,0
                2.14262521600006,43.7516991320001,0
                2.15855741600006,43.675106015,0
                2.19823692700004,43.6249555570001,0
                2.12433633600006,43.561475113,0
                2.00541069300004,43.6062574520001,0
                1.87588710200004,43.680087487,0
                1.77809808800004,43.7222506790001,0
                1.59575409100006,43.7828156410001,0
                1.44772430800003,43.8698345490001,0
                1.36839915300004,43.938434756,0
                1.27057909500007,44.0096569310001,0
                1.19388155500008,44.09146859,0
                1.14894117000006,44.1204795960001,0
                1.06970068300006,44.1098280250001,0
                1.02217783900005,44.083359967,0
                0.911222530000032,44.0858831580001,0
                0.768521354000029,44.1306400980001,0
                0.631114919000026,44.164835779,0
                0.551846209000075,44.180601466,0
                0.483113358000026,44.2254374280001,0
                0.366849197000022,44.251730509,0
                0.284952872000019,44.2542847460001,0
                0.300882250000029,44.180333354,0
                0.303577598000061,44.1301433850001,0
                0.293101006000029,44.045596867,0
                0.290515725000034,43.992759527,0
                0.324951296000052,43.9056192620001,0
                0.346299592000037,43.704870672,0
                0.33589355600003,43.5542810090001,0
                0.328115135000075,43.4169027950001,0
                0.370473060000052,43.3324127230001,0
                0.428630541000075,43.29549065,0
                0.502646844000026,43.250660333,0
                0.579282294000052,43.2269666450001,0
                0.655912101000069,43.208556408,0
                0.695571856000072,43.1768980310001,0
                0.714131671000075,43.1135163650001,0
                0.780186106000031,43.1030200170001,0
                0.851529639000034,43.0872458630001,0
                0.917564320000054,43.0952415960001,0
                0.957125296000072,43.1560436250001,0
                1.04429660600005,43.1614202100001,0
                1.08123561300005,43.203727336,0
                1.19486087000007,43.1747897070001,0
                1.22132046300004,43.135192041,0
                1.34549004600007,43.1273995080001,0
                1.43003938500004,43.11428119,0
                1.51991451100002,43.061542629,0
                1.59392234600006,43.024637489,0
                1.72867858900003,42.9983641640001,0
                1.83171718700004,42.9879073280001,0
                1.95326197800006,42.9642616180001,0
                2.08009022100003,42.940621552,0
                2.05550937200007,42.870149187,0
                2.12599867000006,42.8297179840001,0
                2.19289981500003,42.8509232870001,0
                2.24753311300003,42.8157586020001,0
                2.26345308300006,42.750612964,0
                2.20188054600004,42.6871456900001,0
                2.12797054700007,42.6324709990001,0
                2.15623550500004,42.551488175,0
                2.26187443700007,42.5797794740001,0
                2.34109799100003,42.606281401,0
                2.43090726400004,42.61518311,0
                2.48905345500003,42.5888279390001,0
                2.52256799900005,42.539551471,0
                2.44868622200005,42.4584595220001,0
                2.41878993600005,42.4179210730001,0
                2.41005379900002,42.3527490930001,0
                2.37133482600007,42.3280515920001,0
                2.27095300600007,42.3244220460001,0
                2.16707898800007,42.2926103280001,0
                2.05788765100004,42.292493676,0
                1.91347894700004,42.2870559420001,0
                1.81133221300007,42.2869468150001,0
                1.73562155300004,42.269254405,0
                1.71983328600004,42.211119502,0
                1.68817585000005,42.170579172,0
                1.60893159900007,42.1634499030001,0
                1.53317390200004,42.189786258,0
                1.46627087600007,42.170342104,0
                1.38881599900003,42.1367974570001,0
                1.34481921900004,42.1068108600001,0
                1.25328830700005,42.0609231080001,0
                1.18459026400006,42.0731777830001,0
                1.09654966700003,42.0572333540001,0
                0.999678859000028,42.064174474,0
                1.06823202800007,42.187528394,0
                1.03121023600005,42.222711894,0
                0.958950379000044,42.2719469690001,0
                0.904324608000024,42.3000670530001,0
                0.784553197000037,42.312267166,0
                0.729957529000046,42.312208839,0
                0.629538078000053,42.3438023050001,0
                0.555618672000037,42.297933367,0
                0.504562238000062,42.2820284480001,0
                0.451686328000051,42.3207173170001,0
                0.441051691000041,42.38410745,0
                0.404054358000053,42.3963959920001,0
                0.365288348000036,42.415727256,0
                0.286027165000064,42.4244483410001,0
                0.196208485000056,42.4243523850001,0
                0.0993376760000615,42.431293506,0
                0.0340942000000268,42.5069533660001,0
                -0.0169998629999668,42.526271459,0
                -0.0538908919999699,42.4390549940001,0
                -0.13045578699996,42.3967055350001,0
                -0.238729858999932,42.3622473880001,0
                -0.31001976899995,42.32782875,0
                -0.365518590999955,42.3489032900001,0
                -0.45270401099998,42.3567353350001,0
                -0.513494751999929,42.385729407,0
                -0.455458626999928,42.4624015470001,0
                -0.492538744999933,42.5521807160001,0
                -0.595546298999977,42.5335785680001,0
                -0.693273222999949,42.5176237900001,0
                -0.823604951999926,42.523648587,0
                -0.908158994999951,42.5411697810001,0
                -0.943461028999934,42.6151004760001,0
                -1.05445114599996,42.6502049540001,0
                -1.15574458699996,42.6756334520001,0
                -1.21650428299995,42.6755685410001,0
                -1.30630885099993,42.6622639550001,0
                -1.35651010899994,42.6701355110001,0
                -1.34340872599995,42.770535205,0
                -1.38051988799998,42.889373359,0
                -1.44922451699995,42.9077920620001,0
                -1.50195461199996,42.8099917590001,0
                -1.49396734599998,42.751882257,0
                -1.49916330699995,42.66998311,0
                -1.49913790799997,42.646207577,0
                -1.55988631399993,42.635575762,0
                -1.64445823099993,42.6698278870001,0
                -1.72637431199996,42.6908742040001,0
                -1.83203205799992,42.680194412,0
                -1.94563191599997,42.6853565070001,0
                -2.07508212799996,42.6905016700001,0
                -2.13579948999995,42.65081087,0
                -2.24146288099996,42.645414529,0
                -2.33920673899996,42.6453101060001,0
                -2.41315813099993,42.6293807280001,0
                -2.51616003999993,42.6054951290001,0
                -2.62446797899997,42.60273769,0
                -2.74334564299994,42.6026106900001,0
                -2.83846188699994,42.615717719,0
                -2.94151459599993,42.639383185,0
                -3.09473751999997,42.6418612210001,0
                -3.23475463699998,42.6469950950001,0
                -3.36160545599995,42.6917689680001,0
                -3.45409408499995,42.7180874480001,0
                -3.55451917999994,42.7549643660001,0
                -3.70253202999993,42.826132919,0
                -3.81875385799998,42.812800112,0
                -3.90855560399996,42.7968538000001,0
                -3.99837146199997,42.7941161190001,0
                -4.07498151199997,42.7940342730001,0
                -4.17536991899993,42.7965687550001,0
                -4.24936928799997,42.8255487170001,0
                -4.35245868599998,42.883556619,0
                -4.43171046299994,42.883471953,0
                -4.52677872799995,42.8516696410001,0
                -4.61656918599994,42.825156426,0
                -4.68260951099995,42.8224441450001,0
                -4.80942081999996,42.8302338550001,0
                -4.91508985599995,42.830120965,0
                -5.01811998699998,42.832652624,0
                -5.12643357099995,42.8351786380001,0
                -5.20040471799996,42.8377413420001,0
                -5.33250512299998,42.85080886,0
                -5.41704035099997,42.850718548,0
                -5.54116477899993,42.816243467,0
                -5.65738942899998,42.8055523850001,0
                -5.75777501199997,42.8054451400001,0
                -5.87401659599993,42.8106044130001,0
                -6.01935385299993,42.8500750790001,0
                -6.08799357099997,42.807734086,0
                -6.17512819099994,42.768015065,0
                -6.25700193799997,42.7494354940001,0
                -6.33096179599994,42.7414312940001,0
                -6.42870565299995,42.7413268710001,0
                -6.51326345999996,42.762370366,0
                -6.61898047299997,42.8071668170001,0
                -6.72200778299998,42.8070567500001,0
                -6.81179541899996,42.7779018090001,0
                -6.89364376499998,42.735546706,0
                -6.97810561599994,42.666771522,0
                -7.05463099899993,42.5874379000001,0
                -7.10738931699996,42.516054857,0
                -7.20775796599997,42.5000972560001,0
                -7.27910149899998,42.515871411,0
                -7.32405881699998,42.560732773,0
                -7.37168608299993,42.6320085720001,0
                -7.43779131999997,42.6900559860001,0
                -7.53817690299996,42.6899487410001,0
                -7.59362210199993,42.660830489,0
                -7.67280896699998,42.5999861270001,0
                -7.75992383199997,42.5417750230001,0
                -7.83910223099997,42.4730054830001,0
                -7.75974320899996,42.372704567,0
                -7.64614335199997,42.367542471,0
                -7.54841360499995,42.380855524,0
                -7.49559602099993,42.3967623240001,0
                -7.40047413399998,42.378371842,0
                -7.33965234899995,42.3203187840001,0
                -7.38978869599993,42.2674306440001,0
                -7.38970967299997,42.193462319,0
                -7.36057730999994,42.1248084910001,0
                -7.38165749499996,42.0745931210001,0
                -7.45296151599996,42.053383114,0
                -7.52164638999994,42.0533097360001,0
                -7.60623241799993,42.1007704900001,0
                -7.66435038699996,42.1007084010001,0
                -7.76737769699997,42.100598334,0
                -7.88361363599995,42.100474155,0
                -7.96547044899995,42.06604423,0
                -8.01030641199998,41.9973113790001,0
                -7.98911333699994,41.941857713,0
                -7.92568933799993,41.9207916400001,0
                -7.74341025199993,41.9209863740001,0
                -7.67731912699998,41.8761475900001,0
                -7.65611476399994,41.81012702,0
                -7.60586270499994,41.754704399,0
                -7.60316171199997,41.6992309780001,0
                -7.66387342899998,41.654256726,0
                -7.74921303299993,41.582838876,0
                -7.74201038599995,41.4349097520001,0
                -7.81940317399994,41.3432471360001,0
                -7.85629890599995,41.2604335460001,0
                -7.90910520199998,41.233959843,0
                -8.02002946699997,41.207424051,0
                -8.17850479699996,41.180837458,0
                -8.38455941599995,41.180617323,0
                -8.44258142999996,41.090736554,0
                -8.40025737099995,41.037947192,0
                -8.29458833499996,41.0380600820001,0
                -8.18364149299993,41.0434620670001,0
                -8.09911755399997,41.054119282,0
                -7.94591438599997,41.0701333270001,0
                -7.82970102499996,41.091391312,0
                -7.75041538099993,41.0597752690001,0
                -7.73445213599996,40.954123167,0
                -7.62865892199994,40.838000117,0
                -7.61269567799997,40.7323480150001,0
                -7.66012256599993,40.616061276,0
                -7.75516260799998,40.557841706,0
                -7.91357584999997,40.4731371440001,0
                -8.06672257299994,40.4042885810001,0
                -8.19878628999993,40.3830136620001,0
                -8.31497142799998,40.335338418,0
                -8.47869069999996,40.2717620190001,0
                -8.48409268599994,40.382708861,0
                -8.53702880299994,40.4777545480001,0
                -8.53717555999998,40.6151242940001,0
                -8.61650635899997,40.6890079510001,0
                -8.69580329099995,40.7311908990001,0
                -8.78027130199996,40.6681828700001,0
                -8.86452948899995,40.6680928540001,0
                -9.08672451499996,40.667266634,0
                -9.31922213299993,40.666402104,0
                -9.53577156799997,40.6655968760001,0
                -9.80523921799994,40.6645948760001,0
                -10.074719995,40.6635928260001,0
                -10.354656457,40.6625518980001,0
                -10.787979315,40.6609406100001,0
                -11.03629925,40.6600172460001,0
                -11.326885901,40.658936715,0
                -11.554057671,40.6580919900001,0
                -11.7495583209999,40.657365031,0
                -11.9502714349999,40.6566186900001,0
                -12.3201929209999,40.655243157,0
                -12.5315289979999,40.6544573150001,0
                -12.753488079,40.653631972,0
                -12.9436487429999,40.65292487,0
                -13.1549424529999,40.652139187,0
                -13.355726047,40.6513925840001,0
                -13.5670759129999,40.6506066910001,0
                -13.772380051,40.649843278,0
                -13.7152618339999,40.7577520020001,0
                -13.665414175,40.8486862390001,0
                -13.622496054,40.924754894,0
                -13.560185621,41.0312376620001,0
                -13.5151041939999,41.1049328830001,0
                -13.460015244,41.1903315010001,0
                -13.4175356339999,41.2518005530001,0
                -13.421293662,41.350910104,0
                -13.424182049,41.4270848460001,0
                -13.499362522,41.5403636080001,0
                -13.5364045809999,41.601892922,0
                -13.578148659,41.6755499000001,0
                -13.620973315,41.756221248,0
                -13.6657561809999,41.84681822,0
                -13.7152589469999,41.955750032,0
                -13.7643357589999,42.0751473350001,0
                -13.800672404,42.1730576360001,0
                -13.8412937759999,42.295580876,0
                -13.872263915,42.402023537,0
                -13.895380846,42.4922078170001,0
                -13.9162440279999,42.585304852,0
                -13.936618541,42.6932954710001,0
                -13.9532927249999,42.8045905060001,0
                -13.96399371,42.8992702910001,0
                -13.971582144,42.995971281,0
                -13.975545817,43.0849067790001,0
                -13.976574655,43.1753120160001,0
                -13.9742939019999,43.271622914,0
                -13.968358434,43.3693610340001,0
                -13.9612919039999,43.4443268790001,0
                -13.9519059209999,43.520014464,0
                -13.940105548,43.5963815150001,0
                -13.925795847,43.67338576,0
                -13.8989712119999,43.7917748940001,0
                -13.8657724139999,43.9113942970001,0
                -13.844816905,43.977228187,0
                -13.821803116,44.0433605280001,0
                -13.796676342,44.109766961,0
                -13.7693818779999,44.1764231290001,0
                -13.7197005849999,44.286387356,0
                -13.663780861,44.396851692,0
                -13.6036432139999,44.5038790720001,0
                -13.537245878,44.6111748690001,0
                -13.4954917119999,44.6739150710001,0
                -13.4514851939999,44.7366943260001,0
                -13.40976531,44.793415614,0
                -13.3661404599999,44.850138723,0
                -13.3205786299999,44.906849397,0
                -13.273047802,44.9635333800001,0
                -13.208110029,45.0373267190001,0
                -13.1397043119999,45.1110190090001,0
                -13.0535468859999,45.198673254,0
                -12.962242736,45.2860857810001,0
                -12.863942272,45.3747178840001,0
                -12.7687363639999,45.4558135620001,0
                -12.6793029949999,45.5282206750001,0
                -12.603561821,45.5869639840001,0
                -12.5359083229999,45.63760031,0
                -12.4662500059999,45.6880582380001,0
                -12.402812124,45.7326239320001,0
                -12.3377626559999,45.777033198,0
                -12.2509964019999,45.834365953,0
                -12.161454775,45.891406235,0
                -12.053237967,45.957677603,0
                -11.944799761,46.021382843,0
                -11.8386822329999,46.08130727,0
                -11.772028656,46.117802231,0
                -11.7040996859999,46.1541352680001,0
                -11.6376422389999,46.1888768590001,0
                -11.5699890179999,46.2234605520001,0
                -11.501393546,46.2577522130001,0
                -11.4315927829999,46.291878909,0
                -11.364540582,46.3239612150001,0
                -11.2963967749999,46.3558891600001,0
                -11.209433662,46.3956834960001,0
                -11.1207280679999,46.43522304,0
                -11.0430660009999,46.469005103,0
                -10.9268143969999,46.5181836690001,0
                -10.811236155,46.5655064360001,0
                -10.699369873,46.609895701,0
                -10.6082633089999,46.6450682240001,0
                -10.507870005,46.6828521790001,0
                -10.41460311,46.717075381,0
                -10.3147142789999,46.7528270780001,0
                -10.2514921329999,46.7749898160001,0
                -10.187586691,46.7970362250001,0
                -10.096872231,46.8277339210001,0
                -10.0253291189999,46.851463525,0
                -9.95295925699997,46.875048576,0
                -9.84465160499997,46.9095824190001,0
                -9.78233087499996,46.9290504350001,0
                -9.82216196499996,47.012398884,0
                -9.88255978599994,47.138784194,0
                -9.94165414999998,47.2624419570001,0
                -9.97952547699998,47.3416895080001,0
                -9.99703640299998,47.4271804740001,0
                -10.011812638,47.499320277,0
                -9.95374329099997,47.6389076780001,0
                -9.86653206199998,47.848546492,0
                -9.79534569499998,48.019664655,0
                -9.74237584999997,48.146993847,0
                -9.62339760499998,48.1809790500001,0
                -9.37078011899996,48.2531372540001,0
                -9.10699961599994,48.328484087,0
                -8.79785190599995,48.4167897070001,0
                -8.48802979399994,48.505287964,0
                -8.18726456199994,48.5911991950001,0
                -8.03233215199998,48.6354544230001,0
                -7.83835122299996,48.690863554,0
                -7.55923804299994,48.7705900460001,0
                -7.21727523399994,48.8682690420001,0
                -6.93955205099996,48.9475984920001,0
                -6.73297568799995,49.0066054100001,0
                -6.61717638599993,49.0396825730001,0
                -6.34918390699994,49.1162325240001,0
                -6.17542246699998,49.1658661170001,0
                -6.00686431499997,49.2140134310001,0
                -5.83292338099994,49.263698296,0
                -5.66188518999996,49.269281506,0
                -5.47634142899994,49.2753382220001,0
                -5.34703011599993,49.302949577,0
                -5.17337735799993,49.340028992,0
                -4.88112587599994,49.402432344,0
                -4.68100842999996,49.4451626630001,0
                -4.50464210899997,49.524163936,0
                -4.42951429899995,49.516768235,0
                -4.23140962199994,49.559885568,0
                -4.06561863599995,49.5959698520001,0
                -3.89280713299996,49.605431089,0
                -3.71661069599998,49.6150776480001,0
                -3.50966592099996,49.6861588730001,0
                -3.28372300099994,49.763765564,0
                -3.07155477499992,49.836640936,0
                -2.93664357699993,50.02062168,0
                -2.81631788499993,50.052208304,0
                -2.65013320399993,50.095833342,0
                -2.45899375699997,50.1460092410001,0
                -2.19006738599995,50.2166049370001,0
                -1.99083572999996,50.2129718200001,0
                -1.75285735899996,50.2086321310001,0
                -1.44642366999994,50.2030441160001,0
                -1.09763435799994,50.1966837190001,0
                -0.875807541999961,50.192638565,0
                -0.636297997999975,50.1882709540001,0
                -0.508343013999934,50.23804347,0
                -0.384831868999925,50.2860874,0
                -0.221283207999932,50.295874956,0
                -0.0660834789999285,50.3051628710001,0
                0.135851149000075,50.343716853,0
                0.354575665000027,50.3854764110001,0
                0.581011794000062,50.4287082960001,0
                0.786235979000026,50.5851151740001,0
                0.975189684000043,50.7291218820001,0
                1.10185889000007,50.8256598950001,0
                1.15674540200007,50.96687595,0
                1.35306299900003,51.0559244190001,0
                1.58807054900007,51.1625224140001,0
                1.72093595900003,51.250795257,0
                1.86154963200005,51.3442158760001,0
                1.99296042300006,51.5681881570001,0
                2.10161686300006,51.624599135,0
                2.23994729100002,51.7760855070001,0
                2.33764792500006,51.8872242680001,0
                2.44627473900005,52.010792038,0
                2.56250104600002,52.143004563,0
                2.71916870100006,52.3096079490001,0
                2.87017825500004,52.4701944020001,0
                2.98567918700007,52.593020306,0
                3.06840079900007,52.8490777160001,0
                3.00033199000006,53.0981763730001,0
                2.93424649800005,53.3400170530001,0
                2.88380221900007,53.5246185230001,0
                2.80916912900005,53.797739246,0
                2.78681764200007,53.879534789,0
                2.73246086800003,54.078454079,0
                2.67835090100004,54.2764701790001,0
                2.63164631600006,54.4473861930001,0
                2.71046992400005,54.626731932,0
                2.78106222000002,54.787349132,0
                2.86566821600007,54.9798514180001,0
                2.98997247900007,55.262678355,0
                3.09465806900005,55.500867328,0
                3.18790241500005,55.7130242750001,0
                3.27203166900006,55.9044418380001,0
                3.20574208000005,56.0360660010001,0
                3.15114558100004,56.1444724470001,0
                3.28751517600006,56.18372265,0
                3.45349290700005,56.231494732,0
                3.78824746000004,56.3278445380001,0
                3.98842284500006,56.385459466,0
                4.18091991900008,56.4408644050001,0
                4.38874176900003,56.500680156,0
                4.64120626000005,56.573345052,0
                5.06036513900006,56.6939883000001,0
                5.38883935900003,56.7885304860001,0
                5.72850629400006,56.8862941850001,0
                5.89380108400007,56.933869702,0
                6.10930215000008,56.9958957010001,0
                6.42801495200007,57.087628334,0
                6.49776027600007,57.10770254,0
                6.78160972700005,57.189400764,0
                7.07871678800007,57.2749146900001,0
                7.14808900900005,57.2948816640001,0
                7.33118012700004,57.347580199,0
                7.63176745000004,57.4340960970001,0
                7.81868304700004,57.487893544,0
                7.95328170600004,57.526633787,0
                8.06327827300004,57.55829349,0
                8.23226292100003,57.6069321580001,0
                8.47813612100003,57.677698805,0
                8.50217031400007,57.6846163440001,0
                8.72751166900002,57.7494745650001,0
                8.85313961300005,57.8197826840001,0
                8.88647071400004,57.8384366340001,0
                8.91115637400003,57.852251897,0
                9.01904586700005,57.9126323180001,0
                9.17530494100004,58.0000831080001,0
                9.29973768800005,58.0697220380001,0
                9.43970038400005,58.1275490450001,0
                9.51714320300005,58.1595457670001,0
                9.55390826300004,58.174736151,0
                9.58609117500004,58.1880324100001,0
                9.66546492300006,58.220826188,0
                9.78790819800003,58.271415388,0
                9.91757431100007,58.324987783,0
                10.053326359,58.291192435,0
                10.115781414,58.2756434200001,0
                10.211242677,58.2518777270001,0
                10.28471526,58.233586835,0
                10.3094797640001,58.2274219710001,0
                10.374105835,58.2113327860001,0
                10.4305060290001,58.1972916930001,0
                10.5131229830001,58.145764732,0
                10.5237225870001,58.1391539890001,0
                10.6382476210001,58.0677280400001,0
                10.7865061050001,57.9752595830001,0
                10.899154283,57.9050014680001,0
                10.9374979130001,57.8810869060001,0
                11.0309748550001,57.7700290990001,0
                11.139872643,57.640650753,0
                11.20698194,57.560920336,0
                11.311080798,57.4372435540001,0
                11.4008056230001,57.3306435860001,0
                11.4452697510001,57.277817693,0
                11.502719944,57.209565427,0
                11.57858186,57.119434276,0
                11.6008603920001,57.0929647890001,0
                11.6996670090001,56.975573947,0
                11.786368716,56.872567437,0
                11.8878661590001,56.7519804190001,0
                11.99671784,56.6226572740001,0
              </coordinates>
            </LinearRing>
          </outerBoundaryIs>
        </Polygon>
      </Placemark>
    </Document>
  </Document>
</kml>
