<?xml version="1.0" encoding="UTF-8"?>
<kml xmlns="http://www.opengis.net/kml/2.2">
  <Document id="root_doc">
    <Schema id="Bioregions_PA11.schema">
      <SimpleField name="OBJECTID" type="float"/>
      <SimpleField name="Shape_Leng" type="float"/>
      <SimpleField name="Shape_Area" type="float"/>
      <SimpleField name="Bioregions" type="string"/>
    </Schema>
    <Document id="Bioregions_PA11">
      <name>Bioregions_PA11</name>
      <Placemark id="Bioregions_PA11.1">
        <ExtendedData>
          <SchemaData schemaUrl="#Bioregions_PA11.schema">
            <SimpleData name="OBJECTID">169</SimpleData>
            <SimpleData name="Shape_Leng">181.72281125100</SimpleData>
            <SimpleData name="Shape_Area">160.17770105600</SimpleData>
            <SimpleData name="Bioregions">PA11</SimpleData>
          </SchemaData>
        </ExtendedData>
        <Polygon>
          <outerBoundaryIs>
            <LinearRing>
              <coordinates>
                21.2075225140001,61.079512778,0
                21.358506751,61.0250307370001,0
                21.4196297290001,60.939826768,0
                21.5920971240001,60.8882401480001,0
                21.796455167,60.832099434,0
                21.965545494,60.8111465860001,0
                22.212147895,60.776186787,0
                22.331962898,60.7199580450001,0
                22.529267394,60.670858111,0
                22.747768513,60.5583780540001,0
                22.931018608,60.4740375630001,0
                22.9944671150001,60.4247923360001,0
                22.8326260050001,60.255549204,0
                22.88202927,60.171068011,0
                23.0088978160001,60.10780078,0
                23.023087687,60.0162359440001,0
                22.8423250050001,59.95927606,0
                22.7361114770001,59.9258039220001,0
                22.609270757,59.8858340940001,0
                22.6023361490001,59.7558142440001,0
                22.596012149,59.6374452680001,0
                22.73566492,59.6319457320001,0
                22.932595394,59.624189255,0
                23.1790517040001,59.614481373,0
                23.3984222830001,59.6058417740001,0
                23.6369742320001,59.661988369,0
                23.8332972970001,59.708198844,0
                24.0147074330001,59.750897863,0
                24.245976958,59.8053324380001,0
                24.4952922300001,59.864014824,0
                24.6951694840001,59.9110606,0
                24.85769113,59.949311622,0
                25.0879414880001,59.954271754,0
                25.3339328000001,59.950993216,0
                25.545224924,59.948176968,0
                25.6720001960001,59.9464890530001,0
                25.8734515680001,59.9438043120001,0
                25.95155427,59.994456036,0
                26.038346232,60.0507520290001,0
                26.145558367,60.0586020760001,0
                26.265963588,60.0674168350001,0
                26.4310191650001,59.9637078270001,0
                26.5486907150001,59.889772398,0
                26.6594506960001,59.7956987520001,0
                26.7367308980001,59.730061053,0
                26.8509924740001,59.7089832010001,0
                26.9737585980001,59.6863407600001,0
                27.1367979,59.7031770940001,0
                27.305847194,59.72063374,0
                27.481631453,59.797686427,0
                27.7280536210001,59.905701638,0
                27.9013834620001,59.981675099,0
                28.0880346380001,59.99002691,0
                28.292826856,59.9991906660001,0
                28.375906484,60.0139968180001,0
                28.563071538,60.047353861,0
                28.6991981460001,60.0319389370001,0
                28.854334712,60.1045325850001,0
                29.0248743860001,60.1249091060001,0
                29.166064883,60.1208955500001,0
                29.334991352,60.1160961570001,0
                29.441811962,60.1130606400001,0
                29.619643997,60.1687300500001,0
                29.7685539020001,60.1519131630001,0
                29.818387892,60.0416237310001,0
                29.920163847,60.026337035,0
                30.0610519700001,60.0051776770001,0
                30.201179478,59.9841320400001,0
                30.30193467,60.0152069120001,0
                30.423471256,59.9942032610001,0
                30.497485845,59.952013057,0
                30.61375608,59.9204370320001,0
                30.7246887100001,59.9364068100001,0
                30.8462344600001,59.9154031680001,0
                30.9097354030001,59.8256525190001,0
                30.8781175760001,59.7463669960001,0
                30.819993749,59.751587129,0
                30.709023732,59.762035322,0
                30.608627321,59.772494813,0
                30.4818377980001,59.7617926130001,0
                30.3920227630001,59.7564144340001,0
                30.3127700480001,59.761611993,0
                30.265238885,59.740427722,0
                30.175480297,59.6822135790001,0
                30.149137985,59.6135004400001,0
                30.323548981,59.5608530360001,0
                30.34481121,59.4446392500001,0
                30.23386377,59.4339539750001,0
                30.1493976310001,59.370460968,0
                30.0648919770001,59.343954968,0
                30.0119759290001,59.4231501790001,0
                30.0329919280001,59.5288400950001,0
                29.958943474,59.602730503,0
                29.8532863570001,59.597333108,0
                29.742327629,59.597214567,0
                29.6842658890001,59.544318806,0
                29.594482597,59.5178048770001,0
                29.409577015,59.496473844,0
                29.314467408,59.5069389820001,0
                29.187649661,59.522654763,0
                29.1031496530001,59.4908642500001,0
                29.0503711980001,59.4326896150001,0
                28.907724785,59.4272527030001,0
                28.7386739670001,59.411223126,0
                28.574833058,59.4585995940001,0
                28.490299183,59.4585092840001,0
                28.4375129590001,59.4161836150001,0
                28.3212878790001,59.4054927020001,0
                28.2103630180001,59.373673959,0
                28.13114417,59.3471713150001,0
                28.0466441610001,59.315380802,0
                27.983222239,59.3311643110001,0
                27.8881916550001,59.2676600190001,0
                27.827487578,59.209476916,0
                27.9966294010001,59.148898251,0
                28.0019832420001,59.0775778600001,0
                28.060157872,59.0248039860001,0
                28.1844299300001,58.9219104000001,0
                28.242598914,58.8744210390001,0
                28.2849053630001,58.8374814790001,0
                28.3641757090001,58.824358305,0
                28.4328414020001,58.8402829280001,0
                28.4750660060001,58.8799539090001,0
                28.5014083180001,58.9486670480001,0
                28.567409793,58.988363432,0
                28.644049088,58.9593861820001,0
                28.776020992,59.0678380410001,0
                28.8236537560001,58.9939194130001,0
                28.9451882170001,58.983482505,0
                29.156551124,58.9572925900001,0
                29.219984335,58.9309423460001,0
                29.1619790410001,58.825210622,0
                29.0774924470001,58.772286631,0
                28.9455043070001,58.687609362,0
                28.787119535,58.576488172,0
                28.729069085,58.513023386,0
                28.538891506,58.4864044930001,0
                28.31169641,58.486161774,0
                28.306509082,58.4016199700001,0
                28.412260028,58.327765722,0
                28.512712885,58.2644702690001,0
                28.5128822180001,58.1059669640001,0
                28.396685362,58.068858069,0
                28.380935714,57.973740526,0
                28.4391329210001,57.899833184,0
                28.576481243,57.9158311830001,0
                28.724369305,57.9635406800001,0
                28.7982766490001,58.021735597,0
                28.7981468250001,58.1432564790001,0
                28.930228797,58.1486798130001,0
                29.0146949360001,58.21217282,0
                29.0119770950001,58.286137142,0
                28.940584395,58.3441791210001,0
                28.914103793,58.4049101950001,0
                28.9615891030001,58.460438062,0
                29.0910435440001,58.455291844,0
                29.199328887,58.479184425,0
                29.2732729200001,58.503038029,0
                29.304921791,58.5532644580001,0
                29.384157574,58.5639158550001,0
                29.357643103,58.6563494230001,0
                29.2915597840001,58.693263582,0
                29.309953895,58.7831017230001,0
                29.412955955,58.8122708880001,0
                29.481613184,58.8361188430001,0
                29.500010117,58.923315873,0
                29.547493301,58.9894104840001,0
                29.5262818730001,59.0580728200001,0
                29.4654514900001,59.1266928310001,0
                29.5023638920001,59.190132743,0
                29.618603082,59.187615812,0
                29.692592269,59.1692024770001,0
                29.7111592310001,59.105821835,0
                29.74556828,59.042455826,0
                29.811685466,58.973841464,0
                29.8777603190001,58.944852928,0
                29.843480399,58.8787724220001,0
                29.785381968,58.860220267,0
                29.772266195,58.778311106,0
                29.835701531,58.7413941180001,0
                29.938695124,58.7784889070001,0
                30.0020316810001,58.834033708,0
                30.0627329370001,58.894857921,0
                30.13928192,58.9504168380001,0
                30.226432038,58.9716434360001,0
                30.308293227,59.003431129,0
                30.3874901930001,59.0589928750001,0
                30.4693683150001,59.0749293220001,0
                30.604060883,59.1067757480001,0
                30.609403436,59.0460198000001,0
                30.583061124,58.9773066610001,0
                30.4985808710001,58.9270237900001,0
                30.390306814,58.892566764,0
                30.2767487780001,58.855460689,0
                30.1711339940001,58.810437468,0
                30.144763459,58.76814231,0
                30.115761875,58.709993076,0
                30.155432326,58.6704095860001,0
                30.213584376,58.638771471,0
                30.2849199350001,58.625639822,0
                30.324533941,58.638890003,0
                30.3958306860001,58.6706664100001,0
                30.451227509,58.73941059,0
                30.5409945650001,58.789699108,0
                30.6413768630001,58.7924497540001,0
                30.641447419,58.726405947,0
                30.6124747530001,58.6497643650001,0
                30.69440932,58.61286714,0
                30.7366847220001,58.604988962,0
                30.7209548320001,58.491376771,0
                30.8002047260001,58.488820321,0
                30.8926416470001,58.5100525670001,0
                30.9586487660001,58.544464438,0
                31.0589774420001,58.597407645,0
                31.138233676,58.597492317,0
                31.312534606,58.6478711450001,0
                31.3969555910001,58.7536310900001,0
                31.497278626,58.8118542280001,0
                31.608171745,58.864808721,0
                31.782520655,58.870277211,0
                31.898807821,58.8228522300001,0
                32.0098251210001,58.7595680640001,0
                32.0944528260001,58.6804067310001,0
                32.1843207850001,58.6276690080001,0
                32.300619243,58.569675003,0
                32.4062290790001,58.6279060790001,0
                32.554184874,58.6122128800001,0
                32.6599266590001,58.538358621,0
                32.7973180110001,58.522654136,0
                32.9293435370001,58.5809134340001,0
                33.0297173700001,58.5915874120001,0
                33.1089757300001,58.5811053400001,0
                33.2198949460001,58.618208596,0
                33.314942467,58.665859352,0
                33.4628135940001,58.7294200960001,0
                33.542026799,58.761204961,0
                33.600178849,58.7295668470001,0
                33.72703398,58.6874353850001,0
                33.7693855840001,58.6082288870001,0
                33.8487116800001,58.534344118,0
                33.9543610260001,58.555590479,0
                34.070614327,58.539865702,0
                34.208041672,58.4818942690001,0
                34.350693731,58.4820466680001,0
                34.4351916140001,58.524403926,0
                34.498525349,58.5825898370001,0
                34.657068167,58.5457744550001,0
                34.810372853,58.4719710110001,0
                34.831614631,58.366323949,0
                34.831744456,58.2448030690001,0
                34.8952792650001,58.1233522150001,0
                35.0814848050001,58.1642928590001,0
                35.262833223,58.204165576,0
                35.402373143,58.2348459410001,0
                35.4550577680001,58.3722722200001,0
                35.539535196,58.425198492,0
                35.661013213,58.467595257,0
                35.771911978,58.5152652370001,0
                35.687270858,58.6155600480001,0
                35.687095879,58.7793478670001,0
                35.7715337980001,58.8692565650001,0
                35.951101776,58.938133399,0
                36.056804049,58.9012615660001,0
                36.093889302,58.811482696,0
                36.0358162730001,58.769153669,0
                35.9883528450001,58.6845667010001,0
                36.0042887590001,58.6053319820001,0
                36.073022188,58.557853908,0
                36.1576181510001,58.499826033,0
                36.1841410870001,58.399469132,0
                36.184220107,58.3255019920001,0
                36.2318698070001,58.2357321170001,0
                36.337586887,58.193578072,0
                36.4169016910001,58.1302623280001,0
                36.380011869,58.045686656,0
                36.2584999860001,58.0349900950001,0
                36.1369859770001,58.0348602780001,0
                36.0524577470001,58.029485455,0
                35.973207157,58.0241185610001,0
                35.968038887,57.9131610580001,0
                36.11601726,57.8763343890001,0
                36.227038077,57.8183347450001,0
                36.3644259110001,57.797348028,0
                36.5282047310001,57.8080897450001,0
                36.654982966,57.8293586780001,0
                36.7025987960001,57.7712912970001,0
                36.776607739,57.7343856050001,0
                36.8611811230001,57.6974934900001,0
                36.8665603650001,57.6023962290001,0
                36.7926756000001,57.523065552,0
                36.650023542,57.522913153,0
                36.5390401110001,57.5544948250001,0
                36.290648391,57.61763223,0
                36.137369801,57.675584438,0
                36.031680943,57.6913227920001,0
                35.894310041,57.6964605530001,0
                35.7780172290001,57.7491700460001,0
                35.6987497060001,57.7596521090001,0
                35.5719488940001,57.759516644,0
                35.482077415,57.8069721360001,0
                35.349955934,57.8385312250001,0
                35.3815455370001,57.944234728,0
                35.4501491440001,58.018275245,0
                35.487048128,58.102850926,0
                35.2944458480001,58.064804429,0
                35.0661770140001,58.0197123900001,0
                34.895426021,57.9859823780001,0
                34.8744234380001,57.859156693,0
                34.8375505490001,57.7587320640001,0
                34.8217670340001,57.6953147240001,0
                34.763699651,57.647701184,0
                34.6897810200001,57.6000707110001,0
                34.700497866,57.4574276480001,0
                34.753434365,57.367665711,0
                34.7852800950001,57.2250475110001,0
                34.9015954880001,57.1512022590001,0
                35.0231412370001,57.1301986170001,0
                35.223905834,57.1356976180001,0
                35.403535902,57.1464562690001,0
                35.6042892130001,57.162519714,0
                35.7152387790001,57.162638245,0
                35.820910703,57.162751138,0
                35.937186581,57.125892891,0
                35.9848327600001,57.0308407850001,0
                36.079940241,57.0309423900001,0
                36.1645587840001,56.951781048,0
                36.286104532,56.9307774060001,0
                36.386512232,56.909751181,0
                36.5080431750001,56.8940297520001,0
                36.613686876,56.9205606260001,0
                36.7615805840001,56.96298561,0
                36.8566958370001,56.9472359600001,0
                36.941257932,56.9209105790001,0
                36.98883425,56.8998279140001,0
                37.1367279570001,56.942252899,0
                37.2053484960001,57.0004444590001,0
                37.252840147,57.058613446,0
                37.2791429500001,57.1643090100001,0
                37.326557703,57.2858806840001,0
                37.4480300750001,57.333561961,0
                37.522010794,57.323074251,0
                37.606409204,57.4499653730001,0
                37.7437892660001,57.444829912,0
                37.933923813,57.5031512900001,0
                38.0659267620001,57.582544055,0
                38.160926998,57.683030783,0
                38.261193586,57.7940898840001,0
                38.224068822,57.9208534690001,0
                38.223944644,58.037089838,0
                38.1815986820001,58.1110141140001,0
                38.3136298540001,58.1639888990001,0
                38.3980903510001,58.232764128,0
                38.5143662310001,58.195903591,0
                38.6781732740001,58.180227325,0
                38.7047018530001,58.0745882030001,0
                38.614977131,57.9846738570001,0
                38.5728117940001,57.889525802,0
                38.5623263750001,57.8155450850001,0
                38.472596007,57.730915252,0
                38.3934674670001,57.6198787340001,0
                38.3882992000001,57.5089189390001,0
                38.578538866,57.4774219390001,0
                38.8216212020001,57.435414645,0
                39.010092247,57.4127209960001,0
                39.122853709,57.3635284520001,0
                39.1863339560001,57.293149767,0
                39.292026821,57.2650854550001,0
                39.418851848,57.2511311870001,0
                39.552736307,57.216050968,0
                39.6725588350001,57.1527785000001,0
                39.771267531,57.0753914250001,0
                39.926259934,57.0685132740001,0
                40.095335209,57.061650168,0
                40.1939912220001,57.033576048,0
                40.2644405880001,57.026607577,0
                40.3630740240001,57.0196669250001,0
                40.468806156,56.9634231370001,0
                40.581552566,56.9283203360001,0
                40.729491427,56.9284783840001,0
                40.898536597,56.949794764,0
                40.89842371,57.055462106,0
                40.771494955,57.1750860180001,0
                40.7502289650001,57.2948205230001,0
                40.926314264,57.330231891,0
                41.088351049,57.316315241,0
                41.22928905,57.2741988240001,0
                41.3561274910001,57.2391110780001,0
                41.4055458080001,57.1405401420001,0
                41.321087194,57.070003409,0
                41.29306281,56.929080464,0
                41.6030083520001,56.9435013470001,0
                41.8847865160001,56.9508484040001,0
                42.1596269030001,56.85687052,0
                42.237247354,56.7328417040001,0
                42.392275752,56.6836943160001,0
                42.638787839,56.7332706820001,0
                42.8430856730001,56.733488939,0
                42.991022899,56.726600961,0
                43.188259664,56.740901433,0
                43.3361834730001,56.755149223,0
                43.4206571400001,56.8115962140001,0
                43.413490709,56.924302047,0
                43.32173772,57.086230523,0
                43.272319403,57.184801458,0
                43.27219146,57.3045608350001,0
                43.30027769,57.3961708360001,0
                43.4200851680001,57.3469858190001,0
                43.497678389,57.248444985,0
                43.638706701,57.121792402,0
                43.7726062130001,57.07262244,0
                43.9276287210001,57.0375648040001,0
                44.1178721520001,57.0025447950001,0
                44.2869549530001,56.988635672,0
                44.4771607530001,56.9888388750001,0
                44.5476025950001,56.9889141300001,0
                44.625237955,56.859504605,0
                44.723979768,56.742542089,0
                44.7874901180001,56.6439862080001,0
                44.8791828990001,56.5384144120001,0
                44.9849225570001,56.475126898,0
                45.1469593420001,56.461210249,0
                45.315996989,56.4895680640001,0
                45.4427166520001,56.574239704,0
                45.4496196760001,56.7080940600001,0
                45.308636517,56.7924797050001,0
                45.2662190630001,56.9333251050001,0
                45.4493111100001,56.9969234770001,0
                45.667669237,57.018290248,0
                45.879079184,56.9480696000001,0
                46.083580216,56.7580843490001,0
                46.231660436,56.6173495410001,0
                46.351477075,56.568166826,0
                46.4924451800001,56.4978709230001,0
                46.591101194,56.4697968020001,0
                46.7319848760001,56.469947313,0
                46.886932125,56.505336099,0
                46.8796302260001,56.7448450350001,0
                46.7949712830001,56.8618225960001,0
                46.689213699,56.9418913580001,0
                46.562375257,56.9769791030001,0
                46.38622386,57.0120141680001,0
                46.456492607,57.1741134470001,0
                46.4256134130001,57.263636499,0
                46.378763916,57.3994596740001,0
                46.2871689740001,57.413449289,0
                46.1462836540001,57.406255043,0
                45.9913305150001,57.3849560090001,0
                45.885575805,57.462333265,0
                45.7305307190001,57.5185243710001,0
                45.8431056680001,57.652491619,0
                45.9909767950001,57.7160523630001,0
                46.1740989480001,57.7514712500001,0
                46.293778483,57.8220456110001,0
                46.30775763,57.9277280090001,0
                46.4063459070001,57.9630565850001,0
                46.5542831320001,57.956170897,0
                46.7163441330001,57.9281645140001,0
                46.843197624,57.8789893160001,0
                46.969998436,57.879124781,0
                47.1601666070001,57.9145511950001,0
                47.322143184,57.9569912250001,0
                47.47715064,57.9360233310001,0
                47.5546987060001,57.879749433,0
                47.526614114,57.7951831680001,0
                47.4139413280001,57.7527958100001,0
                47.202659323,57.7032570820001,0
                46.9632384080001,57.6114213050001,0
                46.7519564030001,57.5618825760001,0
                46.6322693400001,57.4983542320001,0
                46.5337111650001,57.4348484610001,0
                46.5902131300001,57.301059551,0
                46.73821809,57.2307711660001,0
                46.8792087730001,57.1393417950001,0
                47.0342388070001,57.097240432,0
                47.1891844180001,57.1255854830001,0
                47.386406132,57.1539734080001,0
                47.5695207580001,57.1964383110001,0
                47.7456119460001,57.217759927,0
                47.9358177460001,57.21796313,0
                48.041564931,57.147629599,0
                48.0416477150001,57.070139451,0
                47.9360359980001,57.013669878,0
                47.767020931,56.964176303,0
                47.682502109,56.9499962510001,0
                47.527547333,56.9216534810001,0
                47.3091967330001,56.8932406930001,0
                47.126021898,56.9071347610001,0
                47.027486303,56.8224932300001,0
                47.0806744670001,56.6258111170001,0
                47.0841312590001,56.554859783,0
                47.2179780870001,56.555002775,0
                47.351772236,56.6044564320001,0
                47.4996358380001,56.6750609010001,0
                47.682803146,56.6682128510001,0
                47.8307629510001,56.6401914030001,0
                48.013870051,56.6897000320001,0
                48.1617110760001,56.7814379710001,0
                48.3237226200001,56.795700234,0
                48.5209714860001,56.7959109620001,0
                48.6548339830001,56.7819647490001,0
                48.788673902,56.789152345,0
                48.866084615,56.8640363740001,0
                48.908251518,56.958350743,0
                49.0420312300001,57.0218951580001,0
                49.2181462890001,57.0220833060001,0
                49.422409653,57.050479968,0
                49.5844279820001,57.0576976680001,0
                49.718185115,57.14237589,0
                49.844897646,57.227046585,0
                49.9293199850001,57.332805933,0
                49.893999136,57.4243481330001,0
                49.809381122,57.5017484480001,0
                49.703681982,57.529813968,0
                49.7176206680001,57.670721067,0
                49.9007652780001,57.685005946,0
                50.083970095,57.6429340070001,0
                50.2179078510001,57.5585417720001,0
                50.40116535,57.4671576160001,0
                50.5773406170001,57.410988946,0
                50.859132237,57.4042453820001,0
                51.0141210150001,57.3973663510001,0
                51.239525712,57.4187409890001,0
                51.4931238710001,57.4260565260001,0
                51.7255731710001,57.4474386900001,0
                51.8900940820001,57.4962383060001,0
                52.0354378380001,57.5393496620001,0
                52.2584216830001,57.590456299,0
                52.4368823350001,57.631358472,0
                52.63729606,57.650845132,0
                52.803164028,57.666972834,0
                52.9798390270001,57.6871649660001,0
                53.1764827980001,57.7096393240001,0
                53.4300583780001,57.738088668,0
                53.6625453090001,57.7242478200001,0
                53.9373224300001,57.68931832,0
                54.120482092,57.6895139960001,0
                54.2703062260001,57.689674057,0
                54.437489197,57.6898526640001,0
                54.6981319590001,57.6971757270001,0
                55.0080944630001,57.6975068690001,0
                55.1278225990001,57.7258132200001,0
                55.2474604240001,57.8386547980001,0
                55.3812326090001,57.9092438150001,0
                55.536198809,57.9234985910001,0
                55.6558441600001,58.0292955680001,0
                55.8036679200001,58.135122648,0
                55.909163859,58.2972613920001,0
                56.113374542,58.3749702710001,0
                56.2472144610001,58.3821578660001,0
                56.4373585170001,58.4387178860001,0
                56.5922193530001,58.551597095,0
                56.7401484760001,58.5587997420001,0
                56.852922322,58.5025633390001,0
                56.838968585,58.3757454450001,0
                56.6981216930001,58.3333273120001,0
                56.564372086,58.2416044880001,0
                56.46580786,58.1851423050001,0
                56.444756839,58.107629101,0
                56.564605391,58.0232218140001,0
                56.7548849130001,57.9529789910001,0
                56.937969315,58.02362069,0
                57.0647119500001,58.0801129760001,0
                57.2407969060001,58.1084795350001,0
                57.381734109,58.06636244,0
                57.614266194,58.010253978,0
                57.6778256600001,57.862385062,0
                57.748361995,57.777925092,0
                57.8611433670001,57.7146440870001,0
                57.8683234360001,57.5878487700001,0
                57.938935031,57.432942778,0
                58.044724482,57.3203420300001,0
                58.023726142,57.193516609,0
                58.059099673,57.0526621910001,0
                58.1507472380001,56.989358608,0
                58.326985585,56.8741437360001,0
                58.4890114390001,56.8743168330001,0
                58.65821449,56.750383997,0
                58.799159219,56.7012222990001,0
                58.8485767990001,56.602650548,0
                58.7994075760001,56.468750422,0
                58.699055989,56.4369422830001,0
                58.5616342540001,56.484346778,0
                58.4559300970001,56.5185760460001,0
                58.3158560950001,56.5765444900001,0
                58.167834225,56.65563819,0
                58.0938035340001,56.7136771900001,0
                58.0250684230001,56.7611549750001,0
                57.9517997070001,56.794364731,0
                57.9087753140001,56.813866186,0
                57.873113431,56.8280863670001,0
                57.8162762410001,56.850750625,0
                57.731741352,56.850660314,0
                57.663058424,56.850586992,0
                57.5484981440001,56.957444912,0
                57.5414153470001,56.9640515880001,0
                57.5564995140001,56.9867300220001,0
                57.604717588,57.0592221960001,0
                57.63104336,57.1437846310001,0
                57.6045030990001,57.25999267,0
                57.5198955070001,57.328587267,0
                57.452428146,57.3606244650001,0
                57.408882809,57.381302926,0
                57.301404652,57.399715665,0
                57.255635828,57.407556701,0
                57.0971041760001,57.433804987,0
                57.0373057310001,57.4721555630001,0
                57.0230844980001,57.4812760770001,0
                57.017755563,57.4865937270001,0
                56.9543271030001,57.5498873340001,0
                56.811674742,57.549735195,0
                56.6796272970001,57.5126107890001,0
                56.5476080770001,57.4490676180001,0
                56.505397245,57.3961883680001,0
                56.5055101350001,57.2905190330001,0
                56.5710942160001,57.2150070640001,0
                56.5742785730001,57.211340642,0
                56.6747259000001,57.1533297570001,0
                56.7592826900001,57.132286514,0
                56.817491133,57.0478126720001,0
                56.8112137420001,56.9682628090001,0
                56.807066714,56.9157158450001,0
                56.8125203380001,56.757217999,0
                56.8812667390001,56.699173353,0
                56.9816753580001,56.678146987,0
                57.145426409,56.710022436,0
                57.2510284320001,56.7735370660001,0
                57.351340522,56.842329195,0
                57.41997854,56.8846690830001,0
                57.5786333030001,56.742185514,0
                57.626271042,56.6629846330001,0
                57.6664831940001,56.612831553,0
                57.689758952,56.58380091,0
                57.703125346,56.5590403310001,0
                57.726814324,56.515155287,0
                57.764174939,56.4654545380001,0
                57.7903081090001,56.430688381,0
                57.8326828,56.3303474950001,0
                57.822172955,56.2775019010001,0
                57.126176285,56.082878829,0
                56.9876339510001,56.044138043,0
                56.7890519790001,56.039788828,0
                56.734035013,56.038584025,0
                56.5702287460001,56.0542600680001,0
                56.3905726840001,56.0752017130001,0
                56.2475693210001,56.08730454,0
                56.2056344430001,56.0908537620001,0
                56.1508598520001,56.082969383,0
                56.0946960650001,56.074885619,0
                55.893953814,56.0482533300001,0
                55.799029386,56.0045159150001,0
                55.698563924,55.958225842,0
                55.61544436,55.9378136670001,0
                55.460868863,55.8998538920001,0
                55.352791525,55.8833601160001,0
                55.2865437840001,55.8732501090001,0
                55.0910910040001,55.8413406810001,0
                54.9189886610001,55.8107801630001,0
                54.8216836610001,55.793501683,0
                54.7107325090001,55.793383116,0
                54.4887025260001,55.9093820940001,0
                54.364468313,55.942057022,0
                54.2086026330001,55.983052086,0
                54.0077531360001,56.056805034,0
                53.928874557,56.0739711430001,0
                53.8386397410001,56.093608687,0
                53.606205822,56.0616600100001,0
                53.447775719,55.9928062540001,0
                53.25176752,56.0134453000001,0
                53.1994234860001,56.0189571750001,0
                52.988055747,56.045148834,0
                52.9837412860001,56.0452930020001,0
                52.834831111,56.0502694310001,0
                52.708029389,56.0501334260001,0
                52.6763782100001,56.002548367,0
                52.708130167,55.9550310720001,0
                52.7398934120001,55.896946916,0
                52.607930966,55.7805697570001,0
                52.5075962980001,55.732911351,0
                52.4390169380001,55.70425111,0
                52.380846239,55.679941667,0
                52.1536709700001,55.6691321800001,0
                51.9264844140001,55.6688894700001,0
                51.8366533350001,55.679360251,0
                51.7784562860001,55.753266136,0
                51.5988427950001,55.731940503,0
                51.382243859,55.710575357,0
                51.3029909680001,55.710490688,0
                51.2845736250001,55.726333573,0
                51.1496323310001,55.8424141260001,0
                51.0782391980001,55.881975078,0
                51.05446985,55.8951463750001,0
                50.9728276230001,55.899355864,0
                50.853688248,55.905498698,0
                50.6687683430001,55.905301143,0
                50.541977622,55.894598865,0
                50.2778152180001,55.8837498930001,0
                50.082330708,55.8835410510001,0
                50.0029739880001,55.978559089,0
                49.9695428300001,55.99450324,0
                49.881391588,56.0365461690001,0
                49.7823990730001,56.1070964450001,0
                49.733344383,56.1420569320001,0
                49.5431842950001,56.0995866650001,0
                49.5102702550001,56.0863803280001,0
                49.4111542460001,56.0466118150001,0
                49.3607176850001,56.0185202050001,0
                49.268585869,55.9672065280001,0
                49.089623815,55.927236839,0
                49.030884718,55.9141182020001,0
                49.0065166160001,55.9135737080001,0
                48.782566624,55.9085703050001,0
                48.6740160620001,55.9022500820001,0
                48.597659836,55.8978047950001,0
                48.354531143,55.9820806120001,0
                48.1642361840001,56.066412874,0
                47.9791634250001,56.2088682310001,0
                47.9577393870001,56.218838442,0
                47.8998752350001,56.245767974,0
                47.6937961250001,56.26668139,0
                47.4349234840001,56.2505542970001,0
                47.3523108860001,56.2642325350001,0
                47.2446852630001,56.2820526350001,0
                47.1125979780001,56.281911522,0
                46.1967860440001,56.2932613390001,0
                45.8904768150001,56.3114964630001,0
                45.7318116070001,56.3209420920001,0
                45.497922601,56.2710679940001,0
                45.2669770540001,56.221821592,0
                44.8161344310001,56.207250388,0
                44.5201569050001,56.305558454,0
                44.4283745210001,56.32650105,0
                44.2435903800001,56.3686650380001,0
                43.9318627370001,56.3683320110001,0
                43.672962844,56.3786222090001,0
                43.503927907,56.3467408830001,0
                43.5015956890001,56.344403759,0
                43.4089237410001,56.251536946,0
                43.308657038,56.140477687,0
                43.2083283600001,56.0875349820001,0
                43.181947715,56.0833091970001,0
                42.9758952340001,56.050303625,0
                42.99059548,55.9976121400001,0
                43.002418172,55.9552290440001,0
                43.160983753,55.8972803550001,0
                43.174679675,55.8967471460001,0
                43.293078177,55.8921372140001,0
                43.381370685,55.8979292450001,0
                43.4568502230001,55.902880161,0
                43.5338108,55.917765203,0
                43.5941943770001,55.9294435250001,0
                43.6945005900001,56.003519924,0
                43.720212385,56.048630163,0
                43.757780848,56.114539693,0
                43.9162448280001,56.1516933280001,0
                43.9838020650001,56.1495862090001,0
                44.080038115,56.1465843120001,0
                44.1804628630001,56.1097069790001,0
                44.117182945,55.9934046990001,0
                44.1322331150001,55.868149945,0
                44.1438413240001,55.771527318,0
                44.1545825910001,55.6077513980001,0
                44.1580602550001,55.5631623370001,0
                44.1652948190001,55.470394045,0
                44.276431383,55.2961581850001,0
                44.408688001,55.13779593,0
                44.561957433,55.0956907990001,0
                44.8472734090001,55.085428822,0
                45.058608942,55.0856545990001,0
                45.1777190770001,55.0889168990001,0
                45.2593758990001,55.0911531720001,0
                45.534115436,55.0914466850001,0
                45.7190380850001,55.0916442430001,0
                45.7893874390001,55.08970937,0
                45.903964817,55.0865577180001,0
                46.0188960950001,55.0697818670001,0
                46.0836268830001,55.0603333230001,0
                46.1341739800001,55.0379332520001,0
                46.226351316,54.997083789,0
                46.230270891,54.9544617560001,0
                46.231694464,54.9389710660001,0
                46.1800165980001,54.91967923,0
                46.00459841,54.854194158,0
                45.8983534750001,54.8368483350001,0
                45.809142842,54.8222838040001,0
                45.7016999530001,54.827976737,0
                45.6136450980001,54.832642913,0
                45.2913693310001,54.8164475740001,0
                45.2691205950001,54.816851582,0
                45.0166253850001,54.8214371340001,0
                44.694309762,54.8475101390001,0
                44.574366663,54.866317033,0
                44.4935033780001,54.8789963570001,0
                44.2504514180001,54.88930357,0
                44.1417672370001,54.8779431950001,0
                44.0972494550001,54.8732900580001,0
                44.0804369160001,54.8665441100001,0
                43.9652189700001,54.8203138850001,0
                43.8013971550001,54.851840076,0
                43.5214276450001,54.803989926,0
                43.3993836440001,54.819604548,0
                43.3576162260001,54.8249484880001,0
                43.18322829,54.856462804,0
                43.014135933,54.8774159050001,0
                42.9137504650001,54.87730866,0
                42.7393681730001,54.903539831,0
                42.6853200680001,54.8590961260001,0
                42.5334926520001,54.734249478,0
                42.3909249750001,54.6548453950001,0
                42.2958482810001,54.6336102440001,0
                42.19534451,54.744455013,0
                42.1370354740001,54.818793725,0
                42.100109429,54.8658725490001,0
                41.967926849,54.9555500440001,0
                41.8674228460001,55.0663957020001,0
                41.7828310560001,55.1191395170001,0
                41.6666454140001,55.0714640740001,0
                41.6595310440001,55.0266851050001,0
                41.6456548,54.9393557270001,0
                41.7302912910001,54.844343715,0
                41.8043558480001,54.7546041310001,0
                41.7535450890001,54.696895307,0
                41.7251981680001,54.664700968,0
                41.5773840370001,54.54830666,0
                41.434844583,54.4424847760001,0
                41.345199382,54.27860292,0
                41.2924858700001,54.1675931460001,0
                41.2103728180001,54.147949812,0
                41.181563677,54.1410581320001,0
                41.1023614150001,54.1616285150001,0
                41.060008727,54.172628601,0
                41.049823851,54.2408773060001,0
                41.038725067,54.3152584060001,0
                41.034430527,54.4838645,0
                41.0332080370001,54.5318748060001,0
                41.0361192550001,54.55462713,0
                41.05416969,54.6956844540001,0
                41.1068494520001,54.838394958,0
                41.064401724,55.0074199480001,0
                41.0208222470001,55.0092676890001,0
                40.942875015,55.012572624,0
                40.924803877,54.956142334,0
                40.8954838110001,54.864585612,0
                40.89565879,54.700798976,0
                40.8676967540001,54.6643688940001,0
                40.842895017,54.632058011,0
                40.735133337,54.5960083750001,0
                40.73198419,54.594954914,0
                40.5999082370001,54.584247012,0
                40.3145753260001,54.610360014,0
                40.20866296,54.6648798160001,0
                40.1506964220001,54.6947193870001,0
                40.0769655030001,54.743759954,0
                39.9286370470001,54.8424187740001,0
                39.791162195,54.9373747220001,0
                39.632534649,55.053441649,0
                39.603308939,55.0648411980001,0
                39.5109635430001,55.100861996,0
                39.400395286,55.125309273,0
                39.3207179230001,55.1429270890001,0
                39.218397204,55.1404919030001,0
                39.0882503190001,55.1373948020001,0
                39.0138088080001,55.165425822,0
                38.8503972440001,55.2269593460001,0
                38.7076483750001,55.3166255520001,0
                38.517370349,55.3851072350001,0
                38.2530955,55.4799273350001,0
                38.126755744,55.5227864930001,0
                38.0046863520001,55.5641978350001,0
                37.8805440350001,55.6043124460001,0
                37.8091281370001,55.62738983,0
                37.7145065390001,55.63675004,0
                37.650606936,55.643071336,0
                37.4891412870001,55.603345157,0
                37.3917864860001,55.5793927550001,0
                37.1911004,55.4999262790001,0
                37.1983510740001,55.4908829030001,0
                37.254588749,55.420742499,0
                37.5293284100001,55.421035734,0
                37.5405519990001,55.4191774340001,0
                37.592737163,55.4105367240001,0
                37.7407149840001,55.3737101940001,0
                37.839554956,55.3566300080001,0
                37.862257674,55.352706739,0
                37.8879505310001,55.3472853280001,0
                38.03664682,55.31590815,0
                38.2533191160001,55.2685899370001,0
                38.401302582,55.2264791590001,0
                38.4119692410001,55.1313894560001,0
                38.3466908020001,55.1121125770001,0
                38.3221829780001,55.104875802,0
                38.100259759,55.12048966,0
                37.7427552440001,55.160727754,0
                37.635259492,55.172826811,0
                37.286517486,55.2041548600001,0
                37.1774096090001,55.2021890760001,0
                36.9748004940001,55.1985390720001,0
                36.826862186,55.1983810250001,0
                36.6947749,55.1982399120001,0
                36.6294661960001,55.1563417130001,0
                36.5627825870001,55.113562963,0
                36.5083399660001,55.018772643,0
                36.462578959,54.939101232,0
                36.415964278,54.763531592,0
                36.399435076,54.7012786770001,0
                36.3255850560001,54.590247408,0
                36.223842314,54.5623824730001,0
                36.1512817390001,54.5425098950001,0
                35.9768768690001,54.5898747890001,0
                35.7760494880001,54.6424946060001,0
                35.5858222630001,54.663425127,0
                35.4883711040001,54.638433197,0
                35.3375656050001,54.5997586730001,0
                35.2425227780001,54.546823192,0
                35.0946578470001,54.477980238,0
                35.032835866,54.467607844,0
                34.967879011,54.456710071,0
                34.872879432,54.3615067210001,0
                34.80659303,54.312788348,0
                34.7936884040001,54.3033041130001,0
                34.7937843600001,54.213485652,0
                34.7938916040001,54.113100414,0
                34.8000455540001,54.088596565,0
                34.809810326,54.0497150780001,0
                34.8245503370001,54.0445304780001,0
                34.8996631890001,54.018110521,0
                34.9895557460001,53.949521593,0
                35.100535725,53.9232229730001,0
                35.2167943490001,53.9022131420001,0
                35.3594754850001,53.8759483900001,0
                35.4000241740001,53.855728028,0
                35.4440552570001,53.833770809,0
                35.4470283420001,53.8182547150001,0
                35.4653089330001,53.722841219,0
                35.4725562040001,53.689191733,0
                35.4812339540001,53.648890007,0
                35.4611199280001,53.573124249,0
                35.460188363,53.5696156860001,0
                35.3704247700001,53.51668505,0
                35.3379616220001,53.508531964,0
                35.3070446450001,53.5007675190001,0
                35.2782064790001,53.5746802350001,0
                35.269955463,53.5958294640001,0
                35.257858422,53.605888689,0
                35.2065011970001,53.648596502,0
                35.1166808350001,53.648500379,0
                35.058640815,53.574469965,0
                35.0270356980001,53.5512412190001,0
                34.9794488800001,53.516267359,0
                34.9120045270001,53.493705124,0
                34.8685377690001,53.47916444,0
                34.710068144,53.447294522,0
                34.5410435200001,53.4048461690001,0
                34.3983883160001,53.404693766,0
                34.387669627,53.547335676,0
                34.3544257510001,53.663222203,0
                34.3346389270001,53.7322002340001,0
                34.2342028900001,53.7796443440001,0
                34.145065958,53.8633569730001,0
                34.1442925760001,53.8640832980001,0
                34.0702223750001,53.959106315,0
                33.9803858590001,53.9748602810001,0
                33.9237546900001,53.9105389200001,0
                33.901231619,53.884957377,0
                33.874899419,53.80567741,0
                33.829751528,53.7690497520001,0
                33.7640396130001,53.715740463,0
                33.6636938880001,53.6786486410001,0
                33.552783103,53.6415463910001,0
                33.4734472640001,53.5938292000001,0
                33.394381234,53.546274517,0
                33.3555636790001,53.5349600230001,0
                33.230642803,53.4985488740001,0
                33.1365609220001,53.4731104030001,0
                33.0933151410001,53.4614176060001,0
                33.0256346680001,53.435303805,0
                32.9559991310001,53.4084360420001,0
                32.8609562020001,53.355500496,0
                32.847298865,53.2730155930001,0
                32.8452068920001,53.260381034,0
                32.835224625,53.249662845,0
                32.771322393,53.1810502120001,0
                32.7938821860001,53.141670128,0
                32.8348438720001,53.07016573,0
                32.819083606,52.9856133330001,0
                32.7665733690001,52.973885721,0
                32.7240007440001,52.964377911,0
                32.7135034190001,52.9009651050001,0
                32.666001147,52.853363808,0
                32.551649927,52.8456171390001,0
                32.5075110230001,52.842627109,0
                32.4124211340001,52.8319586480001,0
                32.3948111880001,52.8143111050001,0
                32.3385309540001,52.757911146,0
                32.206505759,52.699651902,0
                32.1167476680001,52.641438673,0
                32.07983426,52.577997646,0
                32.058844467,52.5721426910001,0
                31.98476191,52.551478683,0
                31.8739750030001,52.58506671,0
                31.8632017030001,52.588332956,0
                31.8568922210001,52.595888024,0
                31.8103015740001,52.6516780760001,0
                31.7037360690001,52.707131503,0
                31.688711762,52.7149496980001,0
                31.6820424200001,52.7166094450001,0
                31.5830141860001,52.741253859,0
                31.5465335220001,52.9329639850001,0
                31.5458222030001,52.936702256,0
                31.5087281730001,53.0423313740001,0
                31.402989237,53.105620001,0
                31.3841632240001,53.1212737010001,0
                31.3395298930001,53.1583869510001,0
                31.3394452250001,53.2376386970001,0
                31.2231692290001,53.2744987890001,0
                31.138486142,53.264635739,0
                31.0858179780001,53.2585014860001,0
                30.969638957,53.2055432710001,0
                30.8671379310001,53.1920619110001,0
                30.8481347200001,53.189562536,0
                30.801444024,53.176539066,0
                30.753062017,53.1630438460001,0
                30.642135087,53.1417920540001,0
                30.6002107890001,53.2061348060001,0
                30.5733333470001,53.247387109,0
                30.5009513050001,53.300767949,0
                30.451720675,53.337075661,0
                30.447524752,53.390845831,0
                30.4463616780001,53.4057551340001,0
                30.3723309870001,53.4637941350001,0
                30.2560831760001,53.474236584,0
                30.221114711,53.455538501,0
                30.176879367,53.4318854040001,0
                30.1548321980001,53.4758579050001,0
                30.123929294,53.5374971590001,0
                30.036885554,53.5494086300001,0
                29.970687538,53.5584677570001,0
                29.9411876820001,53.577387,0
                29.896668113,53.605939332,0
                29.858733568,53.643793224,0
                29.827911016,53.67455076,0
                29.759158692,53.737878703,0
                29.6326403630001,53.7186437280001,0
                29.619169873,53.71659577,0
                29.526721373,53.7059301200001,0
                29.526833041,53.60026079,0
                29.426488669,53.563170164,0
                29.403495568,53.6155672020001,0
                29.389410447,53.6476650490001,0
                29.286446518,53.6288304990001,0
                29.273197859,53.6264070070001,0
                29.199127656,53.721430308,0
                29.1145589000001,53.7530405810001,0
                28.9930408540001,53.752910758,0
                28.9931480990001,53.6525252910001,0
                28.9375290620001,53.628618482,0
                28.882244138,53.6048559430001,0
                28.8449718530001,53.6179663340001,0
                28.792396108,53.636460728,0
                28.691920559,53.720888555,0
                28.544034046,53.7309284930001,0
                28.538685376,53.7312916110001,0
                28.364330604,53.7311053700001,0
                28.179411154,53.7309078150001,0
                28.0579296810001,53.6937938390001,0
                27.9575278820001,53.7095369960001,0
                27.8835477150001,53.720024687,0
                27.825484139,53.667128113,0
                27.7350097130001,53.656172767,0
                27.6934208220001,53.651136986,0
                27.6611570200001,53.7006534230001,0
                27.6246195210001,53.75673227,0
                27.608825074,53.8508840970001,0
                27.6033521250001,53.8835125480001,0
                27.576851375,53.9627360110001,0
                27.5307117840001,54.0057056590001,0
                27.497518029,54.0366197720001,0
                27.4129266080001,54.089364066,0
                27.317809181,54.105112971,0
                27.2016289800001,54.0521539750001,0
                27.2598316720001,53.972964318,0
                27.328561139,53.9307702510001,0
                27.402620051,53.8463140970001,0
                27.3762878520001,53.767033843,0
                27.312919406,53.735265525,0
                27.2442633160001,53.7087749950001,0
                27.207957806,53.6986484120001,0
                27.149187662,53.6822561110001,0
                27.0833817340001,53.696284033,0
                27.001221324,53.713798937,0
                26.8690945290001,53.750641542,0
                26.784509514,53.798102586,0
                26.7365755860001,53.830979615,0
                26.699908195,53.8561302420001,0
                26.6628744380001,53.903641356,0
                26.662772799,53.998744093,0
                26.620426405,54.072666419,0
                26.5094631260001,54.083115133,0
                26.4616536980001,54.087617041,0
                26.398496627,54.0935645750001,0
                26.2664827200001,54.024737697,0
                26.1978732850001,53.9559798830001,0
                26.174696435,53.976794521,0
                26.144989944,54.0034743250001,0
                26.14219496,54.0581759770001,0
                26.1395918970001,54.1091374580001,0
                26.097121251,54.2992963770001,0
                26.0921707320001,54.3190101220001,0
                26.0759003540001,54.3838092030001,0
                25.999298659,54.4165404920001,0
                25.9648926190001,54.4312419350001,0
                25.949566433,54.4319553020001,0
                25.8539361140001,54.4364065020001,0
                25.748266356,54.436293612,0
                25.6836263170001,54.440533868,0
                25.6690113500001,54.4414927080001,0
                25.5686261130001,54.4413854630001,0
                25.5107649180001,54.4943091600001,0
                25.505160087,54.499435718,0
                25.471512041,54.50064587,0
                25.3625016840001,54.50456645,0
                25.2726317030001,54.552021655,0
                25.1617194580001,54.514918822,0
                25.139901863,54.5263174840001,0
                25.050707792,54.572917874,0
                24.956367331,54.625196288,0
                24.9555454540001,54.6256517350001,0
                24.791656317,54.72057836,0
                24.8117004650001,54.811229881,0
                24.8126896590001,54.815703168,0
                24.828830231,54.818747542,0
                24.8972075400001,54.8316441520001,0
                24.8812271400001,54.95314641,0
                24.85943946,54.953825979,0
                24.7174379850001,54.9582556330001,0
                24.626474826,54.989632348,0
                24.5800142910001,55.0056589820001,0
                24.4584487990001,55.0477971760001,0
                24.438833801,55.099937165,0
                24.4266610670001,55.1322978600001,0
                24.3843036480001,55.216788636,0
                24.27334648,55.2166700970001,0
                24.223998995,55.173807944,0
                24.1941709010001,55.147900803,0
                24.0039041050001,55.2058154540001,0
                23.8347848780001,55.253186188,0
                23.7525574480001,55.2566725770001,0
                23.7132572990001,55.2583391040001,0
                23.5546917180001,55.3162877930001,0
                23.477102911,55.326323846,0
                23.4331523910001,55.3320088850001,0
                23.33805312,55.3319072880001,0
                23.1055072190001,55.400343838,0
                23.012201975,55.4082405560001,0
                22.920570508,55.4159959250001,0
                22.7408405040001,55.50033948,0
                22.6140388480001,55.5002041400001,0
                22.573966725,55.4934810830001,0
                22.5506507690001,55.4895694150001,0
                22.402753078,55.4524270680001,0
                22.373809936,55.4516345070001,0
                22.201989284,55.446929991,0
                22.0910671870001,55.415109768,0
                22.0071999630001,55.4120248930001,0
                21.9431401910001,55.409668836,0
                21.784625535,55.420066278,0
                21.653131396,55.455453445,0
                21.589078176,55.4726915420001,0
                21.4991912630001,55.535997325,0
                21.430405464,55.6310257480001,0
                21.431865955,55.632343092,0
                21.4831882840001,55.6786333050001,0
                21.4883991950001,55.747323835,0
                21.3351700310001,55.7577269350001,0
                21.197741255,55.810415397,0
                21.1501049440001,55.8896160730001,0
                21.1975776560001,55.9636349030001,0
                21.1552255450001,56.0428414930001,0
                21.054817498,56.063867971,0
                21.012519947,56.036434942,0
                20.9650596550001,56.0056538310001,0
                20.9016789500001,55.9897366920001,0
                20.8019968420001,56.0860822870001,0
                20.757843501,56.128755513,0
                20.5897673900001,56.1276208150001,0
                20.4154504210001,56.1264448100001,0
                20.290454004,56.1256002270001,0
                20.24639002,56.1253026910001,0
                20.1785322280001,56.124844744,0
                20.019179852,56.123769801,0
                19.8685945180001,56.122752636,0
                19.7972826380001,56.122271165,0
                19.559535726,56.1206661890001,0
                19.3957554990001,56.1195607970001,0
                19.3388307600001,56.119176682,0
                19.2637036410001,56.1186700960001,0
                19.173828423,56.1180633060001,0
                19.068193738,56.1173502930001,0
                19.033635673,56.1171165870001,0
                18.993426733,56.1168450050001,0
                18.9839087780001,56.0948343790001,0
                18.9512104030001,56.01922226,0
                18.892994942,55.9882710960001,0
                18.822792049,55.9509483370001,0
                18.761067812,55.955464277,0
                18.6834503920001,55.9611431880001,0
                18.5936981080001,55.9677086470001,0
                18.550520039,55.970867356,0
                18.3973467280001,55.9820729040001,0
                18.289714648,55.989947354,0
                18.259977298,55.9921231540001,0
                18.203334802,55.9747776580001,0
                18.141871521,55.9559565060001,0
                18.0311623970001,55.9220562420001,0
                18.020416401,55.9187657670001,0
                17.980319964,55.9064876320001,0
                17.8495732110001,55.8664511910001,0
                17.680050126,55.814541127,0
                17.6720150090001,55.8120806790001,0
                17.4847927120001,55.754751593,0
                17.3435330900001,55.711495261,0
                17.3057648490001,55.699930065,0
                17.2753994920001,55.690631872,0
                17.1189499220001,55.642726108,0
                16.9948828500001,55.604734051,0
                16.9495860970001,55.5908634640001,0
                16.7932418680001,55.542988979,0
                16.6606471960001,55.5023863820001,0
                16.557782606,55.4708883070001,0
                16.5213329270001,55.45972736,0
                16.403017404,55.423497712,0
                16.299701827,55.448479111,0
                16.2854583770001,55.4519231560001,0
                16.124112231,55.4909370720001,0
                15.904821371,55.5439626770001,0
                15.751757082,55.580974284,0
                15.70033349,55.5934090530001,0
                15.6469635920001,55.606315097,0
                15.579663102,55.6225877090001,0
                15.516282565,55.637913117,0
                15.384251595,55.6698388560001,0
                15.2358961890001,55.7057121060001,0
                15.132592533,55.730691129,0
                15.024160056,55.756910781,0
                14.9522684950001,55.77429462,0
                14.926434009,55.7805416580001,0
                14.836021805,55.8972562050001,0
                14.83013056,55.904861075,0
                14.771898428,55.9800336210001,0
                14.718345879,56.0491671990001,0
                14.699512466,56.073480884,0
                14.661773935,56.1222015750001,0
                14.612385907,56.1925934980001,0
                14.601318942,56.211358741,0
                14.577095796,56.2524356430001,0
                14.496073241,56.2629159580001,0
                14.4374315100001,56.2557445190001,0
                14.379853176,56.2487035730001,0
                14.3472586300001,56.241144552,0
                14.2882949780001,56.2274708800001,0
                14.2108313850001,56.202732467,0
                14.1418524320001,56.174103303,0
                14.1087271760001,56.160355172,0
                14.048860715,56.1497244890001,0
                14.0401019810001,56.146429331,0
                13.9925246240001,56.1285305490001,0
                13.9321415370001,56.1030292950001,0
                13.925632395,56.100280384,0
                13.8305539030001,56.079045222,0
                13.770627796,56.1247706550001,0
                13.73184998,56.1529084760001,0
                13.6965601000001,56.2162717300001,0
                13.619041182,56.2408452510001,0
                13.5380186260001,56.251325566,0
                13.494792229,56.2587956450001,0
                13.4569899360001,56.2653283930001,0
                13.453518952,56.26594435,0
                13.3583464000001,56.282834236,0
                13.3084009190001,56.292768176,0
                13.2702731580001,56.3003521190001,0
                13.199808347,56.314366464,0
                13.179213931,56.318678769,0
                13.1328703450001,56.3283833290001,0
                13.0342041500001,56.367023504,0
                12.9108554150001,56.4302929670001,0
                12.861657388,56.4644407700001,0
                12.8297850600001,56.4865643300001,0
                12.8297210910001,56.546442159,0
                12.7891836050001,56.5804562000001,0
                12.6377102970001,56.5885224300001,0
                12.4322490700001,56.5994634130001,0
                12.339658338,56.60439431,0
                12.2472900220001,56.6093139000001,0
                12.093652428,56.6174947800001,0
                11.99671784,56.6226572740001,0
                11.8878661590001,56.7519804190001,0
                11.786368716,56.872567437,0
                11.6996670090001,56.975573947,0
                11.6008603920001,57.0929647890001,0
                11.57858186,57.119434276,0
                11.502719944,57.209565427,0
                11.4452697510001,57.277817693,0
                11.4008056230001,57.3306435860001,0
                11.311080798,57.4372435540001,0
                11.20698194,57.560920336,0
                11.139872643,57.640650753,0
                11.0309748550001,57.7700290990001,0
                10.9374979130001,57.8810869060001,0
                10.899154283,57.9050014680001,0
                10.7865061050001,57.9752595830001,0
                10.6382476210001,58.0677280400001,0
                10.5237225870001,58.1391539890001,0
                10.5131229830001,58.145764732,0
                10.4305060290001,58.1972916930001,0
                10.374105835,58.2113327860001,0
                10.3094797640001,58.2274219710001,0
                10.28471526,58.233586835,0
                10.211242677,58.2518777270001,0
                10.115781414,58.2756434200001,0
                10.053326359,58.291192435,0
                9.91757431100007,58.324987783,0
                9.78790819800003,58.271415388,0
                9.66546492300006,58.220826188,0
                9.58609117500004,58.1880324100001,0
                9.55390826300004,58.174736151,0
                9.51714320300005,58.1595457670001,0
                9.43970038400005,58.1275490450001,0
                9.29973768800005,58.0697220380001,0
                9.17530494100004,58.0000831080001,0
                9.01904586700005,57.9126323180001,0
                8.91115637400003,57.852251897,0
                8.88647071400004,57.8384366340001,0
                8.85313961300005,57.8197826840001,0
                8.72751166900002,57.7494745650001,0
                8.50217031400007,57.6846163440001,0
                8.47813612100003,57.677698805,0
                8.23226292100003,57.6069321580001,0
                8.06327827300004,57.55829349,0
                7.95328170600004,57.526633787,0
                7.81868304700004,57.487893544,0
                7.63176745000004,57.4340960970001,0
                7.33118012700004,57.347580199,0
                7.14808900900005,57.2948816640001,0
                7.07871678800007,57.2749146900001,0
                6.78160972700005,57.189400764,0
                6.49776027600007,57.10770254,0
                6.49310938600007,57.119997922,0
                6.23992514000003,57.8453424370001,0
                6.54669209700006,58.3044053500001,0
                6.65764288600008,58.304523939,0
                6.70904000300004,58.2888791080001,0
                6.75277462000003,58.2755666520001,0
                6.76549526300005,58.2736531020001,0
                6.83996759300004,58.2624503010001,0
                6.89941054600007,58.285534172,0
                6.92182779600006,58.2942395950001,0
                6.94379535600007,58.3129526490001,0
                6.97461318100005,58.3392047620001,0
                7.01681853600007,58.3973679420001,0
                7.01978729900003,58.4349770140001,0
                7.02203300600007,58.4634172280001,0
                7.00613118100006,58.5109516480001,0
                6.95324821800006,58.558444842,0
                6.92942652500005,58.6006882660001,0
                6.92562620800004,58.653079474,0
                6.92406202300003,58.674650274,0
                6.93219905900003,58.6797856970001,0
                6.99534210300004,58.7196355070001,0
                7.03415549900006,58.697049608,0
                7.05877990200003,58.6827195000001,0
                7.07220652400002,58.640921179,0
                7.07998660400006,58.616698763,0
                7.14606136300006,58.5877102480001,0
                7.17433263900006,58.4988033500001,0
                7.17452079000003,58.3226872930001,0
                7.23796340700005,58.287531819,0
                7.33649147800003,58.379217075,0
                7.36455349200003,58.4849168100001,0
                7.46322455500007,58.442755237,0
                7.50559685700006,58.3441744840001,0
                7.59722190400004,58.302005384,0
                7.69581018200006,58.3373339600001,0
                7.66045968400005,58.4500096830001,0
                7.67444635400005,58.5486483560001,0
                7.78716429500003,58.548768776,0
                7.87874418800004,58.548866613,0
                7.98445962900007,58.499668833,0
                8.08307801300003,58.506817923,0
                8.11817851800004,58.619568911,0
                8.18147531900007,58.7209036680001,0
                8.28714724400004,58.7210165610001,0
                8.39990400100004,58.6762266310001,0
                8.49848193100007,58.7212423350001,0
                8.61815676300006,58.7962193110001,0
                8.70967644700005,58.8526738290001,0
                8.82235675800007,58.8880174590001,0
                8.93507470000003,58.8881378790001,0
                9.05476176300004,58.9516662240001,0
                9.15328983300003,59.0433514800001,0
                9.23077769100007,59.0434342630001,0
                9.32229737600005,59.0998887800001,0
                9.33631414900003,59.1703502570001,0
                9.47016097700003,59.17049325,0
                9.58996092800004,59.1283542510001,0
                9.70984530100003,59.015768838,0
                9.84369213000002,59.0159118300001,0
                9.97750133100004,59.0512757440001,0
                10.132446943,59.079620794,0
                10.2521732700001,59.1149719530001,0
                10.3436929550001,59.1714264710001,0
                10.3646939020001,59.291206129,0
                10.4068404220001,59.403966935,0
                10.4559727540001,59.5730896580001,0
                10.4840213520001,59.6999228710001,0
                10.462717732,59.854880586,0
                10.5471236650001,59.974730272,0
                10.7091545600001,59.9749033750001,0
                10.7092900280001,59.8481002720001,0
                10.681218851,59.7424005280001,0
                10.70950828,59.643807021,0
                10.751858005,59.566359736,0
                10.836467138,59.4960059140001,0
                10.921001012,59.496096225,0
                10.956967014,59.6220559970001,0
                10.978065552,59.6590632950001,0
                11.025574138,59.7013810350001,0
                11.131279233,59.6618680920001,0
                11.1947209090001,59.6275945150001,0
                11.26869034,59.6276735380001,0
                11.3215132560001,59.635653313,0
                11.3478471010001,59.7122920750001,0
                11.337212102,59.7783245970001,0
                11.363545946,59.8549633590001,0
                11.334412414,59.9288994600001,0
                11.284169993,59.975517681,0
                11.2154462180001,60.0053829940001,0
                11.299924345,60.06623261,0
                11.4663786720001,60.042635831,0
                11.516622034,59.9951380030001,0
                11.516695412,59.926453085,0
                11.530000278,59.8313642900001,0
                11.540629632,59.7706162810001,0
                11.5618833940001,59.6623281180001,0
                11.5751381530001,59.622716408,0
                11.635923382,59.596363335,0
                11.720445967,59.6070203790001,0
                11.7758773520001,59.6519899890001,0
                11.799535689,59.7629672460001,0
                11.7650412780001,59.897659274,0
                11.857427398,59.9664429700001,0
                11.920778764,60.0167032680001,0
                11.9709289910001,60.0563827180001,0
                12.0580995600001,60.06704259,0
                12.1347388560001,60.038065341,0
                12.1691422590001,59.979983845,0
                12.1798111260001,59.88225112,0
                12.1402846070001,59.7871081760001,0
                12.1218679190001,59.718403504,0
                12.1668703290001,59.6365564330001,0
                12.201251153,59.5996106960001,0
                12.203943596,59.549420954,0
                12.1300221440001,59.5044315920001,0
                12.101032543,59.443641256,0
                12.1776831280001,59.404097273,0
                12.2860220960001,59.3777950030001,0
                12.3996104820001,59.377916353,0
                12.4709156930001,59.401767137,0
                12.507839382,59.454642607,0
                12.502468607,59.5418142450001,0
                12.454838667,59.6130894710001,0
                12.5340553890001,59.650158859,0
                12.6529559800001,59.6265089870001,0
                12.750755903,59.5764208510001,0
                12.8274093090001,59.534235757,0
                12.9779982810001,59.5238298880001,0
                13.1312091410001,59.529275796,0
                13.2844235170001,59.5400062260001,0
                13.4138575040001,59.5454290230001,0
                13.588212056,59.545615291,0
                13.7097239390001,59.5563118520001,0
                13.8444475540001,59.559096895,0
                13.934268231,59.5591928540001,0
                14.0294201720001,59.5091018890001,0
                14.092878781,59.458977066,0
                14.12995205,59.3718392960001,0
                14.222456703,59.3296711360001,0
                14.3043799810001,59.303340645,0
                14.4364845280001,59.2876328020001,0
                14.550082076,59.2877541620001,0
                14.700637181,59.309048498,0
                14.793071281,59.3329218550001,0
                14.938331115,59.362136165,0
                15.0994146690001,59.4257110250001,0
                15.2340846600001,59.478688629,0
                15.308031514,59.4999011210001,0
                15.426867191,59.5370128340001,0
                15.5589124730001,59.576779774,0
                15.6988833780001,59.6165551810001,0
                15.801873453,59.648365448,0
                15.915445601,59.672263677,0
                16.0105100530001,59.704065477,0
                16.097617836,59.764917901,0
                16.139843136,59.8125145160001,0
                16.1740687390001,59.920861949,0
                16.1977524750001,60.0080646270001,0
                16.2293893620001,60.0609321580001,0
                16.268958211,60.1164515670001,0
                16.3296305490001,60.1957681280001,0
                16.3877064000001,60.235456044,0
                16.437805827,60.3226869430001,0
                16.377014956,60.3543222370001,0
                16.2871942780001,60.354226279,0
                16.202699915,60.3171512530001,0
                16.136695619,60.280095982,0
                16.039000115,60.2324423960001,0
                15.9413109560001,60.187427643,0
                15.862063189,60.1794173470001,0
                15.801238449,60.242755136,0
                15.8222798480001,60.324670471,0
                15.9305313260001,60.3802632570001,0
                16.033530564,60.4120735330001,0
                16.1153861060001,60.4491457390001,0
                16.281733193,60.5259317920001,0
                16.384757135,60.5260418550001,0
                16.4666183210001,60.5578318400001,0
                16.548513375,60.5579193310001,0
                16.6515373170001,60.5580293940001,0
                16.7518913960001,60.5871934400001,0
                16.8205288670001,60.6295360440001,0
                16.963107548,60.698373362,0
                17.048530192,60.6984646220001,0
                17.1541534420001,60.7355622200001,0
                17.25345765,60.7954518600001,0
                17.326921708,60.8397535400001,0
                17.4195873200001,60.895641202,0
                17.5354679760001,60.8513585520001,0
                17.6602033,60.803692917,0
                17.751857366,60.7686660790001,0
                17.868837978,60.723965417,0
                17.9903213320001,60.6927545930001,0
                18.170837067,60.646380917,0
                18.367749163,60.5957916450001,0
                18.5118153130001,60.558779836,0
                18.6043094660001,60.535016999,0
                18.7276350020001,60.5033339810001,0
                18.7705301670001,60.4385018620001,0
                18.838094186,60.336381487,0
                18.9424153640001,60.3486722980001,0
                19.048999413,60.3612312400001,0
                19.1804401480001,60.4265565530001,0
                19.28082706,60.4764463920001,0
                19.4158223690001,60.516516557,0
                19.6092747320001,60.5739389650001,0
                19.781431486,60.5815583190001,0
                20.0067103700001,60.5915319440001,0
                20.1575550110001,60.6162579740001,0
                20.323734987,60.6865132180001,0
                20.5119593370001,60.766087451,0
                20.657999891,60.8278297590001,0
                20.7547180340001,60.898370426,0
                20.884441569,60.9929798040001,0
                20.961860035,61.049439873,0
                21.070764082,61.1288652280001,0
                21.2075225140001,61.079512778,0
              </coordinates>
            </LinearRing>
          </outerBoundaryIs>
        </Polygon>
      </Placemark>
    </Document>
  </Document>
</kml>
