<?xml version="1.0" encoding="UTF-8"?>
<kml xmlns="http://www.opengis.net/kml/2.2">
  <Document id="root_doc">
    <Schema id="Bioregions_PA13.schema">
      <SimpleField name="OBJECTID" type="float"/>
      <SimpleField name="Shape_Leng" type="float"/>
      <SimpleField name="Shape_Area" type="float"/>
      <SimpleField name="Bioregions" type="string"/>
    </Schema>
    <Document id="Bioregions_PA13">
      <name>Bioregions_PA13</name>
      <Placemark id="Bioregions_PA13.1">
        <ExtendedData>
          <SchemaData schemaUrl="#Bioregions_PA13.schema">
            <SimpleData name="OBJECTID">145</SimpleData>
            <SimpleData name="Shape_Leng">34.83402539540</SimpleData>
            <SimpleData name="Shape_Area">23.63161179180</SimpleData>
            <SimpleData name="Bioregions">PA13</SimpleData>
          </SchemaData>
        </ExtendedData>
        <Polygon>
          <outerBoundaryIs>
            <LinearRing>
              <coordinates>
                16.047521777,48.138615477,0
                16.107412187,48.1281125450001,0
                16.118043061,48.0682447130001,0
                16.072392376,47.937870651,0
                15.9984880220001,47.8779125080001,0
                15.949175805,47.8778598270001,0
                15.9140431050001,47.7932869680001,0
                15.804915739,47.733291196,0
                15.808509536,47.666371236,0
                15.914219965,47.6277388130001,0
                16.0023188870001,47.5890875740001,0
                16.0974247820001,47.585666874,0
                16.1820164550001,47.532922668,0
                16.1820729,47.48008815,0
                16.0799863730001,47.423622204,0
                15.998932053,47.4622809690001,0
                15.9214752940001,47.4304974730001,0
                15.8757230090001,47.395225542,0
                15.828250966,47.321206418,0
                15.7807074250001,47.314111015,0
                15.73848873,47.268275944,0
                15.668053995,47.25763378,0
                15.60458484,47.320967468,0
                15.5200797160001,47.292698747,0
                15.428529989,47.2644225010001,0
                15.421575698,47.179879746,0
                15.3229663170001,47.165685178,0
                15.2384009850001,47.1937732760001,0
                15.167985065,47.1655196070001,0
                15.0623310820001,47.151317512,0
                15.0835401480001,47.080894067,0
                15.1400023310001,46.9823298410001,0
                15.1119142320001,46.8977645090001,0
                15.104967468,46.8061771530001,0
                15.1402807910001,46.721679554,0
                15.295269569,46.7148005230001,0
                15.422079937,46.7078913880001,0
                15.429222377,46.6163190830001,0
                15.499736134,46.552992922,0
                15.450506703,46.4754496140001,0
                15.3730988630001,46.3978762020001,0
                15.3238844840001,46.30624369,0
                15.232334757,46.2779674430001,0
                15.1618962590001,46.2708475810001,0
                14.9927956990001,46.2988453680001,0
                14.8871191370001,46.30577708,0
                14.7110642860001,46.2492321120001,0
                14.563074955,46.2983862840001,0
                14.379877664,46.333413621,0
                14.245977537,46.3825828440001,0
                14.0909586560001,46.4176402850001,0
                13.950036504,46.445668175,0
                13.78797302,46.48071809,0
                13.576627424,46.487536913,0
                13.442779978,46.48739392,0
                13.2737471520001,46.4519902860001,0
                13.1822049510001,46.4166694360001,0
                13.14000507,46.353222859,0
                13.104849792,46.289783808,0
                13.2105940870001,46.219450674,0
                13.2811153710001,46.1490799100001,0
                13.3727403570001,46.106910133,0
                13.526062059,46.011971691,0
                13.47966001,45.986127864,0
                13.4310163710001,45.9590355730001,0
                13.370318766,45.9008526920001,0
                13.3443312860001,45.8583222090001,0
                13.305709371,45.7951145120001,0
                13.2793306950001,45.713209197,0
                13.2970459750001,45.6150128670001,0
                13.2217419140001,45.571498293,0
                13.115429158,45.5100652950001,0
                13.063959938,45.4520771970001,0
                12.9881256360001,45.366638036,0
                12.956661877,45.314700368,0
                12.9165049160001,45.2484127110001,0
                12.9466462180001,45.148554592,0
                12.9787350140001,45.0422444280001,0
                12.9881051410001,44.9675656470001,0
                13.0038926450001,44.8417411300001,0
                13.0206577700001,44.7081250910001,0
                13.0397613910001,44.5558715220001,0
                12.918072937,44.475661249,0
                12.823854064,44.4135574000001,0
                12.725950471,44.3490247870001,0
                12.617038226,44.2772358830001,0
                12.521608374,44.2143338230001,0
                12.414442797,44.143696226,0
                12.3507835990001,44.1156389540001,0
                12.2309699690001,44.142885774,0
                12.061840245,44.1981813940001,0
                11.9614433730001,44.2086410520001,0
                11.784343316,44.30619582,0
                11.6574727400001,44.369461775,0
                11.5411944680001,44.4089634850001,0
                11.3878586550001,44.517110556,0
                11.287427915,44.5592709260001,0
                11.1262657030001,44.574949125,0
                10.943975328,44.585321293,0
                10.8197549440001,44.6406648920001,0
                10.68233722,44.685427476,0
                10.515852045,44.7380841930001,0
                10.3810929800001,44.766999244,0
                10.2674649,44.7985785990001,0
                10.1723345460001,44.8248942560001,0
                10.077201369,44.8538516410001,0
                9.95297816300007,44.9118369650001,0
                9.77064263300002,44.964476749,0
                9.63851964900005,44.9986780740001,0
                9.49584951800006,45.0143760280001,0
                9.37957406800007,45.0512360130001,0
                9.24480371500005,45.090717967,0
                9.12856213100002,45.095877241,0
                8.98064805900003,45.0745853880001,0
                8.90144990500005,45.024307929,0
                8.82224328400002,44.9819556480001,0
                8.75360921200007,44.934331204,0
                8.72460384900006,44.8841073670001,0
                8.66649999100002,44.8708366490001,0
                8.57667284400003,44.8786658710001,0
                8.51322062300005,44.9261492030001,0
                8.39964052100004,44.912819217,0
                8.25435124200004,44.907380543,0
                8.22786342700005,44.973395468,0
                8.29384166300002,45.0342257190001,0
                8.29373159600004,45.137253028,0
                8.18013738300004,45.1371316730001,0
                8.10617470200003,45.131769198,0
                8.01371429600005,45.13167042,0
                7.90012008300005,45.1315490640001,0
                7.87640663900004,45.073405694,0
                7.83950149900005,44.9993978580001,0
                7.76555293000007,44.9808267540001,0
                7.71538271700007,44.9596393250001,0
                7.69699223600003,44.8645174370001,0
                7.71817119900004,44.8222724010001,0
                7.76312287200005,44.78269449,0
                7.71565929600007,44.700750188,0
                7.70749907900006,44.6604709790001,0
                7.58889972800006,44.660108257,0
                7.50961032100003,44.6952466020001,0
                7.44877442500007,44.76650829,0
                7.41171124000005,44.8404371030001,0
                7.42305429700002,44.93819319,0
                7.43031171200005,45.053093747,0
                7.30363492000004,45.044221421,0
                7.23473818400004,44.819114207,0
                7.29029909500002,44.7399216970001,0
                7.34320981300004,44.6686515430001,0
                7.37498390100006,44.600000536,0
                7.37507985800005,44.510181856,0
                7.42001459700003,44.486454301,0
                7.53620538000007,44.5288460940001,0
                7.74754909600006,44.5237884210001,0
                7.85590501300004,44.4816365180001,0
                7.96421577500007,44.48175223,0
                8.03816434400005,44.500323333,0
                8.12534129700003,44.500416467,0
                8.16764277800007,44.4687609120001,0
                8.16245810500004,44.3762948610001,0
                8.11493808400007,44.3471850770001,0
                8.05154512900003,44.339192166,0
                7.99608299700003,44.325924269,0
                7.95651637600002,44.2704056920001,0
                7.89579054600006,44.23864007,0
                7.84299554000006,44.201599463,0
                7.65807472900002,44.2014019060001,0
                7.68457665500006,44.122178352,0
                7.68461898800007,44.0825524640001,0
                7.55523086400007,44.0295796570001,0
                7.53926762000003,44.1352317590001,0
                7.45470416900002,44.161558707,0
                7.39751945600005,44.112185342,0
                7.32001754200007,44.1226694590001,0
                7.21788021500004,44.11375458,0
                7.16850026400004,44.1771033200001,0
                7.09275950000006,44.187589319,0
                7.05223234100004,44.2069187010001,0
                6.97122505800007,44.201548701,0
                6.93960525100005,44.1257853590001,0
                6.89910819500005,44.116936331,0
                6.83746980600006,44.1151093290001,0
                6.79160086800005,44.1890287350001,0
                6.71060299300007,44.1748529810001,0
                6.65430261900002,44.121958256,0
                6.59618841200006,44.1183738660001,0
                6.54509811200006,44.1341696580001,0
                6.49223537200004,44.1605304720001,0
                6.42180628200003,44.144604857,0
                6.35134332500007,44.1603799530001,0
                6.37593169800004,44.2238077150001,0
                6.41460551500006,44.290772831,0
                6.36522556500006,44.3541215700001,0
                6.31936039000004,44.4245186750001,0
                6.29462525900004,44.498460659,0
                6.30861098200006,44.595338993,0
                6.24695189700003,44.6128846460001,0
                6.16239597200007,44.6321669910001,0
                6.05671941000003,44.639098705,0
                5.98098617200003,44.6425401020001,0
                5.88764519100005,44.6424403830001,0
                5.79780581400007,44.661717083,0
                5.73973488200005,44.6176262290001,0
                5.67634098700006,44.6105138930001,0
                5.60761472100006,44.649185828,0
                5.52483311700007,44.656142001,0
                5.39626912500006,44.656004652,0
                5.39089159800005,44.7440565370001,0
                5.36443670900007,44.7792513260001,0
                5.31856965300005,44.851409582,0
                5.26044415700005,44.8583920950001,0
                5.18293095400003,44.8794431170001,0
                5.11252256000006,44.8441448460001,0
                5.02450454200005,44.8070666090001,0
                4.96636587600005,44.8263771750001,0
                4.96450876900008,44.9161939750001,0
                5.00140262000002,45.0007687140001,0
                5.03125939500006,45.0782913250001,0
                5.07883303800003,45.0572083180001,0
                5.20563588100003,45.057343786,0
                5.25318130300008,45.0626780380001,0
                5.29534167200006,45.163108777,0
                5.34813667800006,45.200149384,0
                5.40618691400005,45.2636128940001,0
                5.47483792100007,45.2953869830001,0
                5.55939572600005,45.2743434870001,0
                5.60177058600004,45.1740030600001,0
                5.67042159100004,45.205777148,0
                5.74435040500003,45.2428403330001,0
                5.81297318900005,45.301031681,0
                5.89208949900006,45.4279191910001,0
                5.93954460900005,45.5177886710001,0
                5.89715846000007,45.628696002,0
                5.88645044500004,45.7607710080001,0
                5.93396200000007,45.7978059700001,0
                5.99198401300004,45.8876867390001,0
                6.05005682700005,45.9300164430001,0
                6.09756599400004,45.969286084,0
                6.06047133000004,46.07268093,0
                6.03395247000003,46.1677548390001,0
                6.09204221700003,46.1942341870001,0
                6.19246731200008,46.15735727,0
                6.27703640800007,46.1257468700001,0
                6.36686073300007,46.120559375,0
                6.41965009400008,46.162883434,0
                6.30857342900003,46.279000839,0
                6.30851698400005,46.3318353560001,0
                6.46167499600006,46.390117015,0
                6.55673197200002,46.4324862300001,0
                6.68882391100004,46.42734389,0
                6.77334785000005,46.4380011050001,0
                6.80493002700007,46.5489874580001,0
                6.84182199700007,46.635323349,0
                6.95446790100004,46.698845185,0
                7.08123311300005,46.7342036650001,0
                7.15167913700003,46.7342789250001,0
                7.23620684000002,46.741413838,0
                7.32068186000004,46.7978609690001,0
                7.41226921700007,46.7909142030001,0
                7.48272276600005,46.7839448600001,0
                7.54611666100004,46.791057197,0
                7.63765886300007,46.826378047,0
                7.70809736000007,46.833497908,0
                7.79259872100005,46.8652889300001,0
                7.84888780600005,46.928750559,0
                7.90874058600002,46.9534706380001,0
                7.95802269900003,46.9817017290001,0
                7.99673414500006,47.0134438330001,0
                8.04602378400006,47.0346303210001,0
                8.11646228100005,47.041750183,0
                8.19394161800005,47.0523998720001,0
                8.24321620500007,47.087675566,0
                8.32070683000006,47.087758351,0
                8.38409320000005,47.1019152900001,0
                8.45802389500005,47.1372173250001,0
                8.51435437300006,47.16193364,0
                8.60237427300007,47.197250726,0
                8.67986113600006,47.200855813,0
                8.75382946000008,47.200934836,0
                8.82076070900007,47.1939617300001,0
                8.89120673200006,47.19403699,0
                8.95458181300006,47.2187608310001,0
                8.97215192600004,47.2575249600001,0
                9.05666833900005,47.2752267770001,0
                9.10598808200007,47.268234856,0
                9.15876615500002,47.321125819,0
                9.21863022300005,47.3352789940001,0
                9.28201659200005,47.3494359320001,0
                9.36651795400007,47.3812269540001,0
                9.44578948600002,47.36281954,0
                9.48016014400002,47.3364389700001,0
                9.52768581100003,47.3602653030001,0
                9.59061261800002,47.413167108,0
                9.64380321600004,47.471341969,0
                9.70982660700002,47.489904606,0
                9.74154425200004,47.4740881180001,0
                9.77854534700003,47.4582772730001,0
                9.82346033100004,47.4530418000001,0
                9.87627227100006,47.4742320510001,0
                9.89734681100003,47.5297308730001,0
                9.94488941100008,47.5377068510001,0
                10.04262198,47.5483781770001,0
                10.1456351780001,47.5616968730001,0
                10.230156295,47.5749958150001,0
                10.298838346,47.577710919,0
                10.3622284790001,47.588345556,0
                10.4493884990001,47.604289044,0
                10.5286543870001,47.591165082,0
                10.5735834820001,47.5727209790001,0
                10.6528155030001,47.591297728,0
                10.7373281540001,47.612521846,0
                10.8271468340001,47.612617802,0
                10.940729758,47.623306062,0
                10.990936661,47.6101510550001,0
                11.078096682,47.6260945440001,0
                11.167870207,47.668458114,0
                11.247099405,47.6896765880001,0
                11.323644544,47.7505181280001,0
                11.429279712,47.782331728,0
                11.5006034900001,47.785049654,0
                11.566643814,47.787761936,0
                11.6643735600001,47.801074988,0
                11.725133256,47.8011399000001,0
                11.7806095,47.801199167,0
                11.841369195,47.801264078,0
                11.891573276,47.7907507960001,0
                11.9523527270001,47.772323627,0
                12.002545519,47.77237725,0
                12.050068362,47.7988453080001,0
                12.113450028,47.8174051240001,0
                12.19269616,47.822773242,0
                12.2402500490001,47.8201823160001,0
                12.2746037740001,47.809652101,0
                12.3274552240001,47.7938581920001,0
                12.404037053,47.8203572950001,0
                12.470046333,47.852128561,0
                12.5175973990001,47.8521793620001,0
                12.6074245460001,47.844350139,0
                12.654989723,47.8311923110001,0
                12.7183996110001,47.823334866,0
                12.7870760170001,47.8313334220001,0
                12.858405438,47.828767897,0
                12.916565742,47.789204097,0
                12.97203634,47.794546817,0
                13.016900525,47.8368624080001,0
                13.088215835,47.8475055120001,0
                13.159519856,47.8687155200001,0
                13.2308464550001,47.86879172,0
                13.2889728910001,47.860928631,0
                13.362941216,47.861007654,0
                13.447462333,47.8743065950001,0
                13.5134941910001,47.8849440550001,0
                13.571606516,47.8902895950001,0
                13.653491552,47.8983022620001,0
                13.7300790240001,47.919517914,0
                13.8119527710001,47.9380974850001,0
                13.8938406290001,47.943468426,0
                13.9572674500001,47.9197606270001,0
                14.031269642,47.8881389380001,0
                14.092029337,47.8882038500001,0
                14.147454781,47.935814183,0
                14.229336995,47.946468575,0
                14.2953857860001,47.94125568,0
                14.364110171,47.9043448950001,0
                14.448656687,47.893868303,0
                14.517347205,47.888658229,0
                14.5965989810001,47.888742897,0
                14.6652640990001,47.907308356,0
                14.7128010540001,47.9205677850001,0
                14.731253623,47.957571704,0
                14.7444142750001,48.0024951550001,0
                14.8130793920001,48.0210606140001,0
                14.9160813020001,48.044946214,0
                14.9979832710001,48.0371085250001,0
                15.048187351,48.0265952450001,0
                15.114176876,48.0768585920001,0
                15.1749139940001,48.098057311,0
                15.270016126,48.098158912,0
                15.317567191,48.098209712,0
                15.3413370800001,48.1035185640001,0
                15.402085486,48.114150378,0
                15.444375678,48.0930617270001,0
                15.4787463370001,48.0666811570001,0
                15.5342225810001,48.066740424,0
                15.60554918,48.0668166250001,0
                15.6742368750001,48.064248277,0
                15.753409629,48.1383012680001,0
                15.7736549200001,48.1818052560001,0
                15.8678467880001,48.1736465770001,0
                15.98054161,48.1913784980001,0
                16.047521777,48.138615477,0
              </coordinates>
            </LinearRing>
          </outerBoundaryIs>
        </Polygon>
      </Placemark>
    </Document>
  </Document>
</kml>
