<?xml version="1.0" encoding="UTF-8"?>
<kml xmlns="http://www.opengis.net/kml/2.2">
  <Document id="root_doc">
    <Schema id="Bioregions_PA14.schema">
      <SimpleField name="OBJECTID" type="float"/>
      <SimpleField name="Shape_Leng" type="float"/>
      <SimpleField name="Shape_Area" type="float"/>
      <SimpleField name="Bioregions" type="string"/>
    </Schema>
    <Document id="Bioregions_PA14">
      <name>Bioregions_PA14</name>
      <Placemark id="Bioregions_PA14.1">
        <ExtendedData>
          <SchemaData schemaUrl="#Bioregions_PA14.schema">
            <SimpleData name="OBJECTID">151</SimpleData>
            <SimpleData name="Shape_Leng">40.72785878610</SimpleData>
            <SimpleData name="Shape_Area">51.53913110690</SimpleData>
            <SimpleData name="Bioregions">PA14</SimpleData>
          </SchemaData>
        </ExtendedData>
        <Polygon>
          <outerBoundaryIs>
            <LinearRing>
              <coordinates>
                21.5444849290001,50.2314538780001,0
                21.655445883,50.2236472340001,0
                21.6898137200001,50.1999083900001,0
                21.766451993,50.1735729760001,0
                21.848345495,50.1736604660001,0
                21.9143858200001,50.1763727470001,0
                21.946142976,50.1235720970001,0
                22.0121833000001,50.126284378,0
                22.1107945630001,50.138717795,0
                22.216493703,50.1106522750001,0
                22.3221853160001,50.0896313580001,0
                22.4419811860001,50.0545362870001,0
                22.4843315850001,49.977090817,0
                22.554875447,49.8855862460001,0
                22.6887605210001,49.850506228,0
                22.822592914,49.864738425,0
                22.928171638,49.9493865430001,0
                23.0338632510001,49.9283656260001,0
                23.118421058,49.9073221300001,0
                23.224135248,49.8651674050001,0
                23.322797311,49.830049757,0
                23.4072572800001,49.900586092,0
                23.4917699310001,49.92181021,0
                23.6045889320001,49.8233061930001,0
                23.6469694350001,49.7176823130001,0
                23.7244901650001,49.6895866890001,0
                23.8725547560001,49.569986494,0
                23.9712092930001,49.5419134480001,0
                24.076965595,49.460341688,0
                24.1756608060001,49.3941950510001,0
                24.253204114,49.34496562,0
                24.4223648820001,49.2606110150001,0
                24.5069452660001,49.218433712,0
                24.6337932650001,49.1763015650001,0
                24.7324628530001,49.134139314,0
                24.7853350010001,49.0989727480001,0
                24.8188307290001,49.0673077860001,0
                24.8716708910001,49.0620807780001,0
                24.931572589,49.0410109420001,0
                24.9527365000001,49.01285511,0
                24.991511917,48.984718093,0
                25.0672432740001,48.983037847,0
                25.114826325,48.953149087,0
                25.148301356,48.940856781,0
                25.2117065410001,48.937402213,0
                25.2663116160001,48.928654787,0
                25.373785077,48.8882630940001,0
                25.4346012170001,48.8354934880001,0
                25.4769365650001,48.7721372230001,0
                25.54302769,48.727298439,0
                25.5853348150001,48.690359432,0
                25.635612274,48.6111612770001,0
                25.6858502220001,48.568947286,0
                25.759852413,48.5373255970001,0
                25.8391549900001,48.4898591990001,0
                25.9369552920001,48.4371291040001,0
                26.0268191280001,48.394957446,0
                26.114041238,48.3527829650001,0
                26.203888141,48.326461662,0
                26.2039671630001,48.2524933380001,0
                26.1247859430001,48.1863655230001,0
                26.040287403,48.151932775,0
                25.9716335740001,48.122800413,0
                25.8686401320001,48.090989635,0
                25.7920357260001,48.0856243380001,0
                25.728682282,48.0406472650001,0
                25.7393197420001,47.9746154060001,0
                25.805419333,47.921851444,0
                25.8767910890001,47.8796600310001,0
                25.9138599180001,47.8004477650001,0
                25.9139502290001,47.7159125370001,0
                25.90609843,47.6472191980001,0
                25.9140998080001,47.575901065,0
                25.9775379180001,47.541626362,0
                26.064754384,47.504735334,0
                26.122925975,47.4546046310001,0
                26.189022745,47.4044823950001,0
                26.2049549450001,47.327889278,0
                26.2288038560001,47.2592298050001,0
                26.2737752850001,47.2011598140001,0
                26.273848663,47.1324749400001,0
                26.229007057,47.069025541,0
                26.205299258,47.0055987200001,0
                26.287237916,46.9634185950001,0
                26.3295393970001,46.9317630400001,0
                26.382452937,46.8578511600001,0
                26.408943574,46.789194509,0
                26.432795308,46.7178933110001,0
                26.4619333150001,46.64395603,0
                26.43823116,46.5752457570001,0
                26.398633494,46.5487861650001,0
                26.335246183,46.535509802,0
                26.2956569850001,46.5011250320001,0
                26.324786525,46.4351129290001,0
                26.3987802500001,46.411416419,0
                26.4754382790001,46.3665889230001,0
                26.515126256,46.308513288,0
                26.5468749450001,46.263637814,0
                26.5891792480001,46.2293405340001,0
                26.63414221,46.1791957200001,0
                26.668558025,46.1105475360001,0
                26.6210859810001,46.0365284110001,0
                26.549759383,46.036452211,0
                26.467863058,46.0390064470001,0
                26.4811535320001,45.9624105080001,0
                26.5234832360001,45.904337694,0
                26.5657790720001,45.8779655910001,0
                26.626538768,45.8780305020001,0
                26.716315115,45.917752347,0
                26.7797391130001,45.896686274,0
                26.758709729,45.798919837,0
                26.7270823960001,45.7302010970001,0
                26.647923753,45.642939476,0
                26.566061296,45.6137930030001,0
                26.5080082370001,45.552971218,0
                26.447310632,45.494788337,0
                26.413002061,45.463050937,0
                26.3602239890001,45.4101599750001,0
                26.2730357460001,45.420633745,0
                26.1911394200001,45.4231879810001,0
                26.0881403340001,45.3966606560001,0
                25.987734994,45.415045492,0
                25.9084973290001,45.401752195,0
                25.8742226270001,45.338314085,0
                25.842584005,45.2801622480001,0
                25.776552146,45.2695247890001,0
                25.694644533,45.2826459290001,0
                25.6365632530001,45.2482414040001,0
                25.562617506,45.227028574,0
                25.470174033,45.21107944,0
                25.3962141750001,45.20307524,0
                25.3301710280001,45.2030046840001,0
                25.2588444290001,45.202928485,0
                25.1769481040001,45.2054827210001,0
                25.110882379,45.2265459720001,0
                25.050122684,45.2264810610001,0
                25.0051456100001,45.2898345040001,0
                24.9417075000001,45.324109207,0
                24.8651030940001,45.3187439110001,0
                24.7647372660001,45.3001445840001,0
                24.6802133260001,45.289487369,0
                24.582469469,45.289382946,0
                24.5217013060001,45.2972432120001,0
                24.437191478,45.2733773680001,0
                24.3684642710001,45.312929878,0
                24.29712074,45.3287040340001,0
                24.2284189330001,45.34448101,0
                24.196794423,45.273120545,0
                24.217973386,45.230875509,0
                24.0753427650001,45.2095893010001,0
                23.9749346040001,45.230615863,0
                23.8639934060001,45.2199304260001,0
                23.7451157410001,45.2198034250001,0
                23.644713224,45.235546535,0
                23.565441692,45.25395395,0
                23.465064575,45.2459215270001,0
                23.359389895,45.25109209,0
                23.2880604740001,45.2536576150001,0
                23.243232979,45.1769995870001,0
                23.1904577280001,45.1214668980001,0
                23.1112257070001,45.1028901500001,0
                23.042571879,45.073757787,0
                23.018861257,45.0129726920001,0
                22.97399425,44.973298825,0
                22.9000456810001,44.954727722,0
                22.8181832240001,44.925581247,0
                22.725748218,44.901706936,0
                22.630679952,44.8699046250001,0
                22.519786733,44.8143098470001,0
                22.4590580820001,44.7851859510001,0
                22.382481898,44.7534033960001,0
                22.308550262,44.7189819370001,0
                22.247835723,44.676649411,0
                22.168708124,44.560328806,0
                22.0842124070001,44.5232543320001,0
                21.9970128750001,44.544295005,0
                21.941477364,44.599711982,0
                21.888580758,44.6577735070001,0
                21.8066646780001,44.6788198240001,0
                21.737971338,44.686671624,0
                21.6507774500001,44.702428846,0
                21.553022303,44.712891326,0
                21.4948732890001,44.7418882220001,0
                21.436698875,44.7946606510001,0
                21.373283343,44.8078015460001,0
                21.3125038920001,44.8262287160001,0
                21.2728300260001,44.8710957220001,0
                21.2569119360001,44.9344802110001,0
                21.217255003,44.9634968620001,0
                21.1564868410001,44.9713571280001,0
                21.1169653760001,44.8735709360001,0
                21.0509419840001,44.8550083000001,0
                20.96644909,44.8152921000001,0
                20.863450002,44.7887647740001,0
                20.7815706110001,44.7754686550001,0
                20.710238368,44.7806759060001,0
                20.630958369,44.8070084980001,0
                20.5516586150001,44.8518331710001,0
                20.456559305,44.849089845,0
                20.3297818630001,44.825178845,0
                20.2479702050001,44.748481305,0
                20.216348517,44.6744791130001,0
                20.2243696510001,44.5846689000001,0
                20.242957688,44.4948699760001,0
                20.2139833700001,44.415587154,0
                20.187693112,44.296681268,0
                20.1321971130001,44.315114082,0
                20.031757907,44.3651996290001,0
                19.989470537,44.3836465540001,0
                20.0131755140001,44.449715101,0
                20.044752046,44.565984907,0
                20.0605262010001,44.637328439,0
                20.002385654,44.6584001570001,0
                19.9204921510001,44.6583126670001,0
                19.8359145900001,44.6978482440001,0
                19.7592706720001,44.72946711,0
                19.6985166210001,44.724118747,0
                19.627195666,44.7187590950001,0
                19.5690748750001,44.721338732,0
                19.497751098,44.7186208050001,0
                19.4000241740001,44.7026660270001,0
                19.3234762120001,44.644466213,0
                19.2495699770001,44.5862692210001,0
                19.143895297,44.5914397830001,0
                19.064702788,44.5358788730001,0
                19.001366278,44.475051444,0
                19.0093563670001,44.4143002160001,0
                19.0120771150001,44.3403347130001,0
                19.0570344330001,44.2954733510001,0
                19.1310196910001,44.2797020180001,0
                19.218238979,44.240169263,0
                19.247351586,44.190007517,0
                19.3345680510001,44.153116487,0
                19.4085956430001,44.0977192660001,0
                19.387532392,44.0316535420001,0
                19.3452958230001,44.0025494010001,0
                19.2158202090001,44.0314700960001,0
                19.1206588100001,44.0868447400001,0
                19.104771767,44.1211702430001,0
                19.020202672,44.152780642,0
                18.951492398,44.1764827970001,0
                18.8642702880001,44.2186572780001,0
                18.887975265,44.2847258240001,0
                18.8747186580001,44.329621054,0
                18.858842903,44.353379653,0
                18.835025036,44.3929801410001,0
                18.735481457,44.428977424,0
                18.608678615,44.428841956,0
                18.531187989,44.4287591710001,0
                18.4396081580001,44.428661334,0
                18.319849918,44.4285333930001,0
                18.242276507,44.505941233,0
                18.150628942,44.569244816,0
                18.073138316,44.5691620310001,0
                17.9744913050001,44.590190475,0
                17.8617626160001,44.604159264,0
                17.777280069,44.5547567360001,0
                17.713841018,44.589912014,0
                17.6433347870001,44.6461935730001,0
                17.558709247,44.73063849,0
                17.4389585330001,44.7234659470001,0
                17.319162663,44.758561017,0
                17.2558214490001,44.702136464,0
                17.1853754250001,44.7020612050001,0
                17.1078848,44.7019784190001,0
                16.9740448810001,44.6947908230001,0
                16.86139145,44.6383135900001,0
                16.805109891,44.567807358,0
                16.7347316020001,44.504330677,0
                16.67133018,44.5042629440001,0
                16.6219351780001,44.5817008880001,0
                16.565480522,44.6732205110001,0
                16.5019887890001,44.7576880060001,0
                16.361013956,44.8350281130001,0
                16.276433572,44.877205415,0
                16.213032151,44.8771376820001,0
                16.1214598460001,44.8699952420001,0
                16.044044479,44.7994664330001,0
                16.079380381,44.693835027,0
                16.0865830280001,44.5459059040001,0
                15.9950031980001,44.5458080660001,0
                15.9174373120001,44.616171304,0
                15.8538703200001,44.7710848230001,0
                15.7973780340001,44.8978274570001,0
                15.68450635,45.0456436910001,0
                15.52944984,45.1159241440001,0
                15.395554416,45.160690491,0
                15.2687167660001,45.1931363090001,0
                15.1629498930001,45.2846032510001,0
                15.134651069,45.3972867840001,0
                15.071174388,45.4676650750001,0
                14.986586478,45.516886979,0
                14.845686905,45.5237810620001,0
                14.775255933,45.509616598,0
                14.6977653070001,45.5095338130001,0
                14.6976674690001,45.6011136440001,0
                14.739837247,45.6927386300001,0
                14.6340402700001,45.812383981,0
                14.563503935,45.8968439500001,0
                14.4929675990001,45.981303918,0
                14.3943093,46.012899266,0
                14.288640264,46.0127863760001,0
                14.204010962,46.100753594,0
                14.077208119,46.1006181270001,0
                13.9785460570001,46.1357357750001,0
                14.0347975120001,46.234420416,0
                13.992409482,46.347088898,0
                13.950036504,46.445668175,0
                14.0909586560001,46.4176402850001,0
                14.245977537,46.3825828440001,0
                14.379877664,46.333413621,0
                14.563074955,46.2983862840001,0
                14.7110642860001,46.2492321120001,0
                14.8871191370001,46.30577708,0
                14.9927956990001,46.2988453680001,0
                15.1618962590001,46.2708475810001,0
                15.232334757,46.2779674430001,0
                15.3238844840001,46.30624369,0
                15.3730988630001,46.3978762020001,0
                15.450506703,46.4754496140001,0
                15.499736134,46.552992922,0
                15.429222377,46.6163190830001,0
                15.422079937,46.7078913880001,0
                15.295269569,46.7148005230001,0
                15.1402807910001,46.721679554,0
                15.104967468,46.8061771530001,0
                15.1119142320001,46.8977645090001,0
                15.1400023310001,46.9823298410001,0
                15.0835401480001,47.080894067,0
                15.0623310820001,47.151317512,0
                15.167985065,47.1655196070001,0
                15.2384009850001,47.1937732760001,0
                15.3229663170001,47.165685178,0
                15.421575698,47.179879746,0
                15.428529989,47.2644225010001,0
                15.5200797160001,47.292698747,0
                15.60458484,47.320967468,0
                15.668053995,47.25763378,0
                15.73848873,47.268275944,0
                15.7807074250001,47.314111015,0
                15.828250966,47.321206418,0
                15.8757230090001,47.395225542,0
                15.9214752940001,47.4304974730001,0
                15.998932053,47.4622809690001,0
                16.0799863730001,47.423622204,0
                16.1820729,47.48008815,0
                16.1820164550001,47.532922668,0
                16.0974247820001,47.585666874,0
                16.0023188870001,47.5890875740001,0
                15.914219965,47.6277388130001,0
                15.808509536,47.666371236,0
                15.804915739,47.733291196,0
                15.9140431050001,47.7932869680001,0
                15.949175805,47.8778598270001,0
                15.9984880220001,47.8779125080001,0
                16.072392376,47.937870651,0
                16.118043061,48.0682447130001,0
                16.107412187,48.1281125450001,0
                16.047521777,48.138615477,0
                15.98054161,48.1913784980001,0
                15.8678467880001,48.1736465770001,0
                15.7736549200001,48.1818052560001,0
                15.790309124,48.217592557,0
                15.827242486,48.2651831330001,0
                15.7532007830001,48.3337889840001,0
                15.6263922970001,48.338936969,0
                15.5523618830001,48.396975915,0
                15.531149053,48.4709216620001,0
                15.6368011550001,48.486884907,0
                15.7107694800001,48.4869639300001,0
                15.763536264,48.5504217960001,0
                15.7422782790001,48.666635156,0
                15.7580665450001,48.724770059,0
                15.8320179360001,48.740699437,0
                15.89538549,48.7724678810001,0
                15.9164289870001,48.8570256880001,0
                15.9797796080001,48.904644487,0
                16.0219681990001,48.9786579670001,0
                16.1276372340001,48.9787708580001,0
                16.2227111440001,49.005289716,0
                16.286078698,49.0370581610001,0
                16.354729704,49.0688322500001,0
                16.4207135840001,49.124379049,0
                16.457680813,49.140268915,0
                16.47614185,49.1693476560001,0
                16.489305324,49.2116293810001,0
                16.5342005520001,49.224885989,0
                16.592256433,49.283066047,0
                16.594796559,49.378171002,0
                16.5841504100001,49.45233689,0
                16.5603186550001,49.5049371550001,0
                16.636903305,49.5287945330001,0
                16.7346161190001,49.5579579400001,0
                16.8112318140001,49.552756333,0
                16.829763406,49.5157919260001,0
                16.8298057390001,49.476166038,0
                16.7954884800001,49.452562669,0
                16.7843253080001,49.431738269,0
                16.7401112380001,49.3598341430001,0
                16.8009048000001,49.328198344,0
                16.8880591760001,49.3494252850001,0
                16.988408071,49.3838749660001,0
                17.080862833,49.3892571960001,0
                17.1759564970001,49.3972839740001,0
                17.1811804590001,49.452974715,0
                17.1995796300001,49.539962572,0
                17.294684584,49.537422447,0
                17.355447102,49.534845632,0
                17.4267341890001,49.5719059950001,0
                17.537675388,49.5825914320001,0
                17.635413601,49.5879793070001,0
                17.735796362,49.590728277,0
                17.81768422,49.5960992180001,0
                17.923322211,49.625271092,0
                18.034243654,49.6544486110001,0
                18.118764771,49.667747552,0
                18.213844324,49.688982959,0
                18.28781265,49.6890619820001,0
                18.3670305590001,49.7208473600001,0
                18.446273869,49.7288572040001,0
                18.5123170160001,49.7289277610001,0
                18.549275779,49.752742805,0
                18.565035822,49.837294967,0
                18.6363200870001,49.8769970550001,0
                18.7182164120001,49.874442818,0
                18.7762976920001,49.908847344,0
                18.83965678,49.9485409660001,0
                18.937400638,49.948645389,0
                19.0087215930001,49.9540050410001,0
                19.0668367390001,49.956708855,0
                19.1303002500001,49.89865862,0
                19.180445064,49.943621583,0
                19.257007136,49.9886127670001,0
                19.346822995,49.991350449,0
                19.4075657560001,50.0072657150001,0
                19.4973816150001,50.010003397,0
                19.584561391,50.0074548060001,0
                19.687594345,50.0022814210001,0
                19.80647201,50.002408421,0
                19.930624659,50.010466244,0
                20.023082243,50.0132067480001,0
                20.0944088420001,50.013282949,0
                20.1974192180001,50.0292433710001,0
                20.3004070160001,50.0663376000001,0
                20.416606266,50.100804215,0
                20.522275302,50.1009171050001,0
                20.630611463,50.077257284,0
                20.7204640100001,50.0456525290001,0
                20.786532557,50.021947552,0
                20.8604924150001,50.029951752,0
                20.923891014,50.0326612110001,0
                21.0190100790001,50.0169124560001,0
                21.103548131,50.0143610420001,0
                21.1669495510001,50.014428776,0
                21.291071156,50.0515455830001,0
                21.338577066,50.093863997,0
                21.3913607850001,50.1414715080001,0
                21.4652218640001,50.2419361140001,0
                21.5444849290001,50.2314538780001,0
              </coordinates>
            </LinearRing>
          </outerBoundaryIs>
        </Polygon>
      </Placemark>
    </Document>
  </Document>
</kml>
