<?xml version="1.0" encoding="UTF-8"?>
<kml xmlns="http://www.opengis.net/kml/2.2">
  <Document id="root_doc">
    <Schema id="Bioregions_PA15.schema">
      <SimpleField name="OBJECTID" type="float"/>
      <SimpleField name="Shape_Leng" type="float"/>
      <SimpleField name="Shape_Area" type="float"/>
      <SimpleField name="Bioregions" type="string"/>
    </Schema>
    <Document id="Bioregions_PA15">
      <name>Bioregions_PA15</name>
      <Placemark id="Bioregions_PA15.1">
        <ExtendedData>
          <SchemaData schemaUrl="#Bioregions_PA15.schema">
            <SimpleData name="OBJECTID">143</SimpleData>
            <SimpleData name="Shape_Leng">49.78413095030</SimpleData>
            <SimpleData name="Shape_Area">34.93612472710</SimpleData>
            <SimpleData name="Bioregions">PA15</SimpleData>
          </SchemaData>
        </ExtendedData>
        <Polygon>
          <outerBoundaryIs>
            <LinearRing>
              <coordinates>
                13.78797302,46.48071809,0
                13.950036504,46.445668175,0
                13.992409482,46.347088898,0
                14.0347975120001,46.234420416,0
                13.9785460570001,46.1357357750001,0
                14.077208119,46.1006181270001,0
                14.204010962,46.100753594,0
                14.288640264,46.0127863760001,0
                14.3943093,46.012899266,0
                14.4929675990001,45.981303918,0
                14.563503935,45.8968439500001,0
                14.6340402700001,45.812383981,0
                14.739837247,45.6927386300001,0
                14.6976674690001,45.6011136440001,0
                14.6977653070001,45.5095338130001,0
                14.775255933,45.509616598,0
                14.845686905,45.5237810620001,0
                14.986586478,45.516886979,0
                15.071174388,45.4676650750001,0
                15.134651069,45.3972867840001,0
                15.1629498930001,45.2846032510001,0
                15.2687167660001,45.1931363090001,0
                15.395554416,45.160690491,0
                15.52944984,45.1159241440001,0
                15.68450635,45.0456436910001,0
                15.7973780340001,44.8978274570001,0
                15.8538703200001,44.7710848230001,0
                15.9174373120001,44.616171304,0
                15.9950031980001,44.5458080660001,0
                16.0865830280001,44.5459059040001,0
                16.079380381,44.693835027,0
                16.044044479,44.7994664330001,0
                16.1214598460001,44.8699952420001,0
                16.213032151,44.8771376820001,0
                16.276433572,44.877205415,0
                16.361013956,44.8350281130001,0
                16.5019887890001,44.7576880060001,0
                16.565480522,44.6732205110001,0
                16.6219351780001,44.5817008880001,0
                16.67133018,44.5042629440001,0
                16.7347316020001,44.504330677,0
                16.805109891,44.567807358,0
                16.86139145,44.6383135900001,0
                16.9740448810001,44.6947908230001,0
                17.1078848,44.7019784190001,0
                17.1853754250001,44.7020612050001,0
                17.2558214490001,44.702136464,0
                17.319162663,44.758561017,0
                17.4389585330001,44.7234659470001,0
                17.558709247,44.73063849,0
                17.6433347870001,44.6461935730001,0
                17.713841018,44.589912014,0
                17.777280069,44.5547567360001,0
                17.8617626160001,44.604159264,0
                17.9744913050001,44.590190475,0
                18.073138316,44.5691620310001,0
                18.150628942,44.569244816,0
                18.242276507,44.505941233,0
                18.319849918,44.4285333930001,0
                18.4396081580001,44.428661334,0
                18.531187989,44.4287591710001,0
                18.608678615,44.428841956,0
                18.735481457,44.428977424,0
                18.835025036,44.3929801410001,0
                18.858842903,44.353379653,0
                18.8747186580001,44.329621054,0
                18.887975265,44.2847258240001,0
                18.8642702880001,44.2186572780001,0
                18.951492398,44.1764827970001,0
                19.020202672,44.152780642,0
                19.104771767,44.1211702430001,0
                19.1206588100001,44.0868447400001,0
                19.2158202090001,44.0314700960001,0
                19.3452958230001,44.0025494010001,0
                19.387532392,44.0316535420001,0
                19.4085956430001,44.0977192660001,0
                19.3345680510001,44.153116487,0
                19.247351586,44.190007517,0
                19.218238979,44.240169263,0
                19.1310196910001,44.2797020180001,0
                19.0570344330001,44.2954733510001,0
                19.0120771150001,44.3403347130001,0
                19.0093563670001,44.4143002160001,0
                19.001366278,44.475051444,0
                19.064702788,44.5358788730001,0
                19.143895297,44.5914397830001,0
                19.2495699770001,44.5862692210001,0
                19.3234762120001,44.644466213,0
                19.4000241740001,44.7026660270001,0
                19.497751098,44.7186208050001,0
                19.5690748750001,44.721338732,0
                19.627195666,44.7187590950001,0
                19.6985166210001,44.724118747,0
                19.7592706720001,44.72946711,0
                19.8359145900001,44.6978482440001,0
                19.9204921510001,44.6583126670001,0
                20.002385654,44.6584001570001,0
                20.0605262010001,44.637328439,0
                20.044752046,44.565984907,0
                20.0131755140001,44.449715101,0
                19.989470537,44.3836465540001,0
                20.031757907,44.3651996290001,0
                20.1321971130001,44.315114082,0
                20.187693112,44.296681268,0
                20.2139833700001,44.415587154,0
                20.242957688,44.4948699760001,0
                20.2243696510001,44.5846689000001,0
                20.216348517,44.6744791130001,0
                20.2479702050001,44.748481305,0
                20.3297818630001,44.825178845,0
                20.456559305,44.849089845,0
                20.5516586150001,44.8518331710001,0
                20.630958369,44.8070084980001,0
                20.710238368,44.7806759060001,0
                20.7815706110001,44.7754686550001,0
                20.863450002,44.7887647740001,0
                20.96644909,44.8152921000001,0
                21.0509419840001,44.8550083000001,0
                21.1169653760001,44.8735709360001,0
                21.1564868410001,44.9713571280001,0
                21.217255003,44.9634968620001,0
                21.2569119360001,44.9344802110001,0
                21.2728300260001,44.8710957220001,0
                21.3125038920001,44.8262287160001,0
                21.373283343,44.8078015460001,0
                21.436698875,44.7946606510001,0
                21.4948732890001,44.7418882220001,0
                21.553022303,44.712891326,0
                21.6507774500001,44.702428846,0
                21.737971338,44.686671624,0
                21.8066646780001,44.6788198240001,0
                21.888580758,44.6577735070001,0
                21.941477364,44.599711982,0
                21.9970128750001,44.544295005,0
                22.0842124070001,44.5232543320001,0
                22.168708124,44.560328806,0
                22.247835723,44.676649411,0
                22.308550262,44.7189819370001,0
                22.382481898,44.7534033960001,0
                22.4590580820001,44.7851859510001,0
                22.519786733,44.8143098470001,0
                22.630679952,44.8699046250001,0
                22.725748218,44.901706936,0
                22.8181832240001,44.925581247,0
                22.9000456810001,44.954727722,0
                22.97399425,44.973298825,0
                23.018861257,45.0129726920001,0
                23.042571879,45.073757787,0
                23.1112257070001,45.1028901500001,0
                23.1904577280001,45.1214668980001,0
                23.243232979,45.1769995870001,0
                23.2880604740001,45.2536576150001,0
                23.359389895,45.25109209,0
                23.465064575,45.2459215270001,0
                23.565441692,45.25395395,0
                23.644713224,45.235546535,0
                23.7451157410001,45.2198034250001,0
                23.8639934060001,45.2199304260001,0
                23.9749346040001,45.230615863,0
                24.0753427650001,45.2095893010001,0
                24.217973386,45.230875509,0
                24.2497390080001,45.1701496800001,0
                24.2498293190001,45.0856144520001,0
                24.2631000380001,45.027510593,0
                24.376680139,45.0408405790001,0
                24.4902799980001,45.035678483,0
                24.5035930490001,44.9379487370001,0
                24.5063250860001,44.8534163310001,0
                24.5380935310001,44.790048776,0
                24.596214322,44.7874691390001,0
                24.6384819370001,44.7875142950001,0
                24.7044883950001,44.821927288,0
                24.7862944080001,44.9039082790001,0
                24.8787830370001,44.8775897990001,0
                24.9739021020001,44.8618410440001,0
                25.103405937,44.80650309,0
                25.209142706,44.743214558,0
                25.3227990080001,44.685217944,0
                25.457614517,44.6034683760001,0
                25.5395672870001,44.548079622,0
                25.6267865740001,44.5085468670001,0
                25.7377955060001,44.455830883,0
                25.827662165,44.411017499,0
                25.9175231780001,44.371487567,0
                25.9862447400001,44.337218508,0
                26.0840365760001,44.2924135910001,0
                26.152752494,44.263427984,0
                26.2293653670001,44.2608681030001,0
                26.324464676,44.26361143,0
                26.4063440670001,44.2769075480001,0
                26.4803321480001,44.25849449,0
                26.5859983610001,44.261249105,0
                26.6678946860001,44.2586948680001,0
                26.747146463,44.258779535,0
                26.8210639870001,44.306409624,0
                26.892387763,44.30912755,0
                27.201622092,44.1668045540001,0
                27.434150415,44.1142183920001,0
                27.5504032870001,44.0984922160001,0
                27.6403517900001,43.9770687810001,0
                27.735623257,43.8186668280001,0
                27.709296309,43.7341033770001,0
                27.6511952720001,43.7181909330001,0
                27.5560987860001,43.7128058810001,0
                27.582612,43.623015423,0
                27.6725153470001,43.543859603,0
                27.8574361600001,43.544057159,0
                28.1532755910001,43.57607396,0
                28.2590405830001,43.4863681690001,0
                28.2062512210001,43.444044111,0
                28.0082693900001,43.380196986,0
                27.815010611,43.113699594,0
                27.8259659730001,42.939929254,0
                27.820716341,42.7445578350001,0
                27.7055029970001,42.339266465,0
                27.9065225210001,42.107009078,0
                27.705740065,42.117361492,0
                27.6636192070001,41.9799465890001,0
                27.568562231,41.937577375,0
                27.568708987,41.8002076290001,0
                27.7801712360001,41.684197469,0
                27.917653871,41.5786751900001,0
                28.0235712630001,41.346316202,0
                28.2137755270001,41.3465194020001,0
                28.340589659,41.336087966,0
                28.6364855350001,41.315270249,0
                28.8795130280001,41.326096798,0
                29.0838667040001,41.2699582320001,0
                29.009943535,41.227611596,0
                28.9782766910001,41.195877018,0
                28.9501810680001,41.118356288,0
                28.91148091,41.0760472810001,0
                28.8903884960001,41.03727939,0
                28.7917791150001,41.023084823,0
                28.7002030470001,41.0194646840001,0
                28.626234722,41.0193856610001,0
                28.5416994940001,41.0192953490001,0
                28.4677085910001,41.0403501340001,0
                28.3866467460001,41.086053501,0
                28.259817562,41.1105741420001,0
                28.122447816,41.110427385,0
                28.013271531,41.096221529,0
                27.9076702300001,41.032707218,0
                27.8196127000001,41.032613143,0
                27.7561698860001,41.0712907230001,0
                27.6117480120001,41.078181043,0
                27.4497673130001,41.035740332,0
                27.404090287,40.9300223770001,0
                27.3689237200001,40.87715023,0
                27.2915196430001,40.7960545170001,0
                27.2176039990001,40.746663278,0
                27.1401133740001,40.7465804930001,0
                27.0907936310001,40.753572413,0
                26.949897821,40.7569441960001,0
                26.833639304,40.7779538250001,0
                26.8088778330001,40.876551916,0
                26.6398073760001,40.8763712940001,0
                26.5130045330001,40.876235826,0
                26.3826681,40.8866634990001,0
                26.301591203,40.9464560710001,0
                26.23106992,41.0168268350001,0
                26.146512113,41.0378703310001,0
                26.05138364,41.062424838,0
                25.980937618,41.0623495790001,0
                25.875268582,41.062236689,0
                25.8188666070001,41.1044440960001,0
                25.6954656510001,41.2170260290001,0
                25.5861952920001,41.290877702,0
                25.469966878,41.283708921,0
                25.329097409,41.262424595,0
                25.2410398800001,41.26233052,0
                25.149460049,41.262232683,0
                25.0684395960001,41.269190737,0
                24.969807637,41.276129976,0
                24.8500493970001,41.276002035,0
                24.7478989000001,41.279415209,0
                24.6281293700001,41.289854172,0
                24.568272829,41.2686563940001,0
                24.568359377,41.187643467,0
                24.501469522,41.15587126,0
                24.409889691,41.155773422,0
                24.328880526,41.1521645730001,0
                24.2302372790001,41.1696707140001,0
                24.135086228,41.2153590300001,0
                24.0293946140001,41.236379947,0
                23.95542629,41.236300924,0
                23.885002844,41.2150918580001,0
                23.8075460850001,41.183308362,0
                23.733596575,41.1656178330001,0
                23.6525836480001,41.165531285,0
                23.5609774760001,41.190089556,0
                23.4763970920001,41.2322668580001,0
                23.342474388,41.302569889,0
                23.2261782410001,41.3588025290001,0
                23.1028149150001,41.436161451,0
                22.9688771580001,41.520553686,0
                22.8208765380001,41.5802747610001,0
                22.704572865,41.6435520040001,0
                22.5917952570001,41.703310709,0
                22.500147692,41.766614293,0
                22.376829522,41.8017056,0
                22.257059993,41.8121445620001,0
                22.204274394,41.766298202,0
                22.2044136230001,41.635973059,0
                22.2291638070001,41.54794187,0
                22.299764112,41.4036027810001,0
                22.3703719440001,41.25221909,0
                22.426860467,41.128998756,0
                22.426954542,41.0409412270001,0
                22.4200830360001,40.8789078470001,0
                22.413181427,40.745052876,0
                22.4133432350001,40.5935939250001,0
                22.381729073,40.5125471310001,0
                22.300701094,40.5265497870001,0
                22.2302550700001,40.5264745280001,0
                22.1563017980001,40.5123063,0
                22.1034409390001,40.536905964,0
                22.0681351420001,40.6143589610001,0
                22.036385513,40.660115009,0
                22.0152027870001,40.7058823460001,0
                21.9939749050001,40.7939172980001,0
                22.0255363850001,40.924276309,0
                21.93390011,40.9770129890001,0
                21.8705777110001,40.9029769300001,0
                21.817769534,40.8782643770001,0
                21.747338563,40.8640999130001,0
                21.6804675220001,40.8147162000001,0
                21.6029957110001,40.797021908,0
                21.5325685020001,40.779335143,0
                21.458611467,40.768689217,0
                21.3811133150001,40.775651033,0
                21.289461987,40.842476919,0
                21.282315784,40.9375715240001,0
                21.2575618390001,41.029125014,0
                21.1976338000001,41.0748509590001,0
                21.13422109,41.0853501290001,0
                21.0743193920001,41.106419965,0
                21.049557921,41.2050180570001,0
                21.0142671740001,41.268381849,0
                20.968413288,41.32821205,0
                20.8908436400001,41.40209759,0
                20.827389537,41.451342073,0
                20.7357570250001,41.5005564510001,0
                20.6229869420001,41.5532705530001,0
                20.531346904,41.609529535,0
                20.439669236,41.701011528,0
                20.3796734640001,41.810138894,0
                20.3549007030001,41.91930389,0
                20.35482168,41.993272215,0
                20.3863982130001,42.109542021,0
                20.4144938360001,42.1870627500001,0
                20.414380947,42.2927317850001,0
                20.37554156,42.3807479220001,0
                20.294442084,42.4616743010001,0
                20.1781835670001,42.4826839300001,0
                20.1113012370001,42.44386712,0
                20.01975151,42.415590874,0
                19.9669960160001,42.341566104,0
                19.843741815,42.316778292,0
                19.748767625,42.196918451,0
                19.6114279830001,42.168593285,0
                19.54093304,42.2143079410001,0
                19.516182858,42.3023391300001,0
                19.4597319640001,42.390336452,0
                19.371644331,42.4184207860001,0
                19.301123047,42.48879155,0
                19.301028973,42.5768490790001,0
                19.170677488,42.601365958,0
                19.0790600280001,42.6364911320001,0
                18.9768606120001,42.685694223,0
                18.9556703600001,42.7385061630001,0
                18.9556063900001,42.7983852830001,0
                18.8780367410001,42.8722708220001,0
                18.7653644960001,42.8334050930001,0
                18.6350544040001,42.819176659,0
                18.539944747,42.8261196600001,0
                18.444838852,42.8295403600001,0
                18.4201225360001,42.8858708390001,0
                18.420017172,42.9844952720001,0
                18.4128935470001,43.0584560710001,0
                18.286053075,43.093543615,0
                18.1979616790001,43.125150252,0
                18.1063743230001,43.132097016,0
                18.000686472,43.149595633,0
                17.9477917460001,43.205896007,0
                17.856110315,43.3009003010001,0
                17.8207894660001,43.3924425020001,0
                17.7995502950001,43.4910443570001,0
                17.669266545,43.452159814,0
                17.5953132720001,43.4379915870001,0
                17.401537788,43.4835745390001,0
                17.295861227,43.4905062510001,0
                17.204251292,43.5185868230001,0
                17.1821654130001,43.5854870270001,0
                17.0791183480001,43.6038690410001,0
                17.0525345780001,43.7597026460001,0
                16.946747009,43.870542244,0
                16.846235365,43.988432088,0
                16.6824699970001,43.968003878,0
                16.719519071,43.9072836940001,0
                16.796213788,43.828113762,0
                16.8306013810001,43.785882837,0
                16.867653277,43.7225209270001,0
                16.904693884,43.6697259210001,0
                16.949665313,43.61165593,0
                16.9735029350001,43.5535633600001,0
                16.8070685600001,43.5586690110001,0
                16.756785457,43.6431506170001,0
                16.6430247320001,43.7988910880001,0
                16.561063496,43.86220502,0
                16.5161852000001,43.8330980580001,0
                16.5109666600001,43.772332718,0
                16.4264540090001,43.7511085990001,0
                16.3313236560001,43.7774242570001,0
                16.262573871,43.838110575,0
                16.220238523,43.9014668400001,0
                16.2254683530001,43.951665276,0
                16.2914691660001,43.991361721,0
                16.3072800100001,44.028362816,0
                16.222685515,44.0837487480001,0
                16.1539244420001,44.1550019690001,0
                16.06409165,44.1681146430001,0
                15.9927029630001,44.2261564120001,0
                15.8976205860001,44.2075627300001,0
                15.778720343,44.2285695370001,0
                15.67300333,44.273365987,0
                15.562031087,44.291739534,0
                15.4298968150001,44.336507763,0
                15.347963801,44.373404436,0
                15.248844047,44.424812257,0
                15.169542881,44.470957793,0
                15.095518112,44.5237132880001,0
                15.0479218900001,44.565930102,0
                14.9712455160001,44.6279288160001,0
                14.8813337030001,44.7150098130001,0
                14.852208396,44.7770593280001,0
                14.8402444290001,44.8483732270001,0
                14.8546963100001,44.9210362100001,0
                14.8731206570001,44.9844573880001,0
                14.86776665,45.05049489,0
                14.763287243,45.1732236650001,0
                14.636379979,45.2708320560001,0
                14.5359266610001,45.3341262320001,0
                14.406388959,45.421164897,0
                14.2953997830001,45.4553888,0
                14.2028970430001,45.494915909,0
                14.126303926,45.4789837100001,0
                14.14221637,45.420882674,0
                14.1000701130001,45.307243305,0
                14.0154699720001,45.367912689,0
                13.912391863,45.415353688,0
                13.859472678,45.494549019,0
                13.846151159,45.600203944,0
                13.891026632,45.631952632,0
                13.972920135,45.632040121,0
                14.073333941,45.605730108,0
                14.136730658,45.6102007170001,0
                14.165749191,45.6480965000001,0
                14.19471222,45.737946224,0
                14.1629522430001,45.7933886010001,0
                14.086381703,45.756322594,0
                14.004479734,45.764160282,0
                13.933122091,45.793143066,0
                13.872269261,45.8802551090001,0
                13.861623336,45.954212146,0
                13.6978109300001,45.9778127000001,0
                13.615880739,46.012067647,0
                13.526062059,46.011971691,0
                13.3727403570001,46.106910133,0
                13.2811153710001,46.1490799100001,0
                13.2105940870001,46.219450674,0
                13.104849792,46.289783808,0
                13.14000507,46.353222859,0
                13.1822049510001,46.4166694360001,0
                13.2737471520001,46.4519902860001,0
                13.442779978,46.48739392,0
                13.576627424,46.487536913,0
                13.78797302,46.48071809,0
              </coordinates>
            </LinearRing>
          </outerBoundaryIs>
        </Polygon>
      </Placemark>
    </Document>
  </Document>
</kml>
