<?xml version="1.0" encoding="UTF-8"?>
<kml xmlns="http://www.opengis.net/kml/2.2">
  <Document id="root_doc">
    <Schema id="Bioregions_PA16.schema">
      <SimpleField name="OBJECTID" type="float"/>
      <SimpleField name="Shape_Leng" type="float"/>
      <SimpleField name="Shape_Area" type="float"/>
      <SimpleField name="Bioregions" type="string"/>
    </Schema>
    <Document id="Bioregions_PA16">
      <name>Bioregions_PA16</name>
      <Placemark id="Bioregions_PA16.1">
        <ExtendedData>
          <SchemaData schemaUrl="#Bioregions_PA16.schema">
            <SimpleData name="OBJECTID">160</SimpleData>
            <SimpleData name="Shape_Leng">109.01347971800</SimpleData>
            <SimpleData name="Shape_Area">132.67790491900</SimpleData>
            <SimpleData name="Bioregions">PA16</SimpleData>
          </SchemaData>
        </ExtendedData>
        <Polygon>
          <outerBoundaryIs>
            <LinearRing>
              <coordinates>
                55.6928506720001,53.062884771,0
                55.5766598880001,53.020492979,0
                55.509777559,52.9816761690001,0
                55.4816631200001,52.9217669450001,0
                55.471190291,52.833698127,0
                55.495929184,52.756233841,0
                55.555845935,52.7210748000001,0
                55.6580302990001,52.6859609150001,0
                55.746087828,52.6860549890001,0
                55.8411974850001,52.6791119870001,0
                55.911684902,52.6404419340001,0
                55.9962991530001,52.5665639210001,0
                56.0457204960001,52.464469868,0
                56.0916007230001,52.379983559,0
                56.1304250580001,52.306056626,0
                56.1762638920001,52.26031563,0
                56.250258558,52.2357385450001,0
                56.2995820630001,52.225224322,0
                56.3665358900001,52.197117409,0
                56.412374723,52.151376413,0
                56.479381231,52.0739572840001,0
                56.546395266,51.9894935520001,0
                56.645113773,51.9015413860001,0
                56.726183145,51.848793416,0
                56.8107936330001,51.7784377040001,0
                56.89184419,51.743301242,0
                56.997558381,51.7011465160001,0
                57.110305886,51.6695662210001,0
                57.2195235630001,51.6450267660001,0
                57.307603671,51.623987033,0
                57.4132915210001,51.606488417,0
                57.504852536,51.624197759,0
                57.7029161250001,51.686049698,0
                57.776907028,51.664994913,0
                57.8852347230001,51.6492602690001,0
                57.9461298860001,51.522522339,0
                58.0520190550001,51.316580609,0
                58.0943544030001,51.2532243430001,0
                58.157755824,51.253292077,0
                58.2370047790001,51.2560184700001,0
                58.2951566150001,51.2243798480001,0
                58.337446807,51.2032911970001,0
                58.4034955990001,51.1980783010001,0
                58.4748306640001,51.190229324,0
                58.517151901,51.1400816880001,0
                58.5040335830001,51.055532348,0
                58.504123894,50.97099712,0
                58.4830549980001,50.9102148470001,0
                58.4567506290001,50.8045175890001,0
                58.3538390320001,50.696096761,0
                58.2561770180001,50.6193822870001,0
                58.1505700720001,50.5611514290001,0
                58.0581096660001,50.5610526510001,0
                57.989399393,50.584754805,0
                57.941828571,50.603196086,0
                57.854677017,50.57932742,0
                57.8071005510001,50.603052152,0
                57.7409981370001,50.65845784,0
                57.680184819,50.70858572,0
                57.6326168200001,50.724385275,0
                57.5612761100001,50.737517704,0
                57.4846914600001,50.7136603260001,0
                57.4107739350001,50.6660302380001,0
                57.344790054,50.6104834390001,0
                57.318477219,50.512711359,0
                57.3132530340001,50.4572294710001,0
                57.284219449,50.4334228930001,0
                57.244633073,50.396396397,0
                57.178592748,50.393684115,0
                57.1125270220001,50.414747366,0
                57.0120539490001,50.4965336240001,0
                56.9195173430001,50.567761445,0
                56.8084943000001,50.6336860580001,0
                56.7291691460001,50.7022862640001,0
                56.6709975530001,50.752416967,0
                56.591700621,50.7945999140001,0
                56.5467602370001,50.8236109210001,0
                56.4806493550001,50.8869417860001,0
                56.3907262530001,50.984589688,0
                56.2982460920001,51.0029829910001,0
                56.2004570780001,51.0451461820001,0
                56.0709504210001,51.1031258620001,0
                55.9626255480001,51.1162187800001,0
                55.7988216090001,51.131894156,0
                55.6878409,51.158192882,0
                55.582112597,51.213556236,0
                55.486996354,51.2266632650001,0
                55.418314304,51.2239481610001,0
                55.320570446,51.223843738,0
                55.257183136,51.210567375,0
                55.1831837670001,51.239547337,0
                55.1117809670001,51.310797736,0
                55.056284969,51.32923055,0
                54.98227431,51.3687774160001,0
                54.9347063110001,51.3845769710001,0
                54.8237425350001,51.3950253410001,0
                54.7180734990001,51.394912451,0
                54.62826893,51.3816078660001,0
                54.548943776,51.4502080720001,0
                54.422098599,51.489698493,0
                54.30056792,51.5001355730001,0
                54.1420446110001,51.518458321,0
                53.9544736070001,51.52618312,0
                53.83031249,51.526050475,0
                53.716723921,51.5206456670001,0
                53.600493627,51.5152380370001,0
                53.521222095,51.533645451,0
                53.4419590300001,51.5441276870001,0
                53.3891019340001,51.56520505,0
                53.3177414680001,51.5968295600001,0
                53.254342869,51.594120101,0
                53.1856721070001,51.5808380930001,0
                53.0509412650001,51.5833358850001,0
                52.945286341,51.5700143670001,0
                52.8686734680001,51.572574247,0
                52.728653529,51.580349847,0
                52.644132412,51.567050905,0
                52.55964234,51.5246929800001,0
                52.4619323480001,51.4928878470001,0
                52.3906170380001,51.4822447430001,0
                52.3219321660001,51.4821713650001,0
                52.263788796,51.5058848090001,0
                52.1924565520001,51.5110920600001,0
                52.1211440650001,51.49780723,0
                52.0498315770001,51.4845224000001,0
                51.954740734,51.473853897,0
                51.896650987,51.4473745490001,0
                51.8306642850001,51.3944694750001,0
                51.7619878780001,51.386470919,0
                51.6563301320001,51.3757911260001,0
                51.566556608,51.3334275560001,0
                51.468857905,51.2910555190001,0
                51.402885315,51.2249418170001,0
                51.3395488040001,51.164114388,0
                51.323769005,51.0980543060001,0
                51.323816983,51.053144967,0
                51.236710584,50.9870086860001,0
                51.1892498300001,50.902422658,0
                51.1867125270001,50.804675978,0
                51.1286538250001,50.7491376450001,0
                51.1260911210001,50.6751664970001,0
                51.128778003,50.632901706,0
                51.1393985290001,50.5827202030001,0
                51.1262689220001,50.5087377670001,0
                51.089383538,50.4162378500001,0
                51.1238106420001,50.3370227620001,0
                51.18461267,50.2974617850001,0
                51.237497988,50.2499671640001,0
                51.2877302910001,50.213036624,0
                51.3194676910001,50.1787280550001,0
                51.32460645,50.101623665,0
                51.325015641,50.0954839620001,0
                51.330206751,50.017594064,0
                51.3911787850001,49.97298133,0
                51.4491775490001,49.9305441110001,0
                51.4518982980001,49.8565786090001,0
                51.462518823,49.8063971060001,0
                51.5254590050001,49.7607251540001,0
                51.530790853,49.756856149,0
                51.5788450740001,49.7219860550001,0
                51.610613519,49.658618501,0
                51.6793745910001,49.58736528,0
                51.7401653320001,49.5583712070001,0
                51.7719111980001,49.516137459,0
                51.7983877240001,49.460689438,0
                51.877695945,49.407939588,0
                51.93057844,49.3630866920001,0
                51.986122418,49.299744538,0
                52.0205410550001,49.2284546280001,0
                52.041720866,49.1862095440001,0
                52.019470158,49.152344058,0
                52.011539446,49.14027329,0
                51.970508431,49.077822616,0
                51.9520874090001,49.0117598360001,0
                51.9499862860001,49.002892155,0
                51.9389416770001,48.956269078,0
                51.915263919,48.8637839510001,0
                51.879031839,48.853174575,0
                51.8518797410001,48.84522381,0
                51.850572755,48.8460060940001,0
                51.8122266190001,48.868957268,0
                51.796279639,48.9587587940001,0
                51.7961752160001,49.056502767,0
                51.788128348,49.1700884370001,0
                51.7774504010001,49.2757457750001,0
                51.7324882300001,49.3257896900001,0
                51.708684959,49.352282754,0
                51.6676799150001,49.357586633,0
                51.647919223,49.3601425620001,0
                51.638400969,49.343790374,0
                51.6294574680001,49.328422505,0
                51.629513913,49.275587912,0
                51.626932181,49.220108925,0
                51.6217353800001,49.1382096770001,0
                51.5824307400001,49.096944255,0
                51.5663229470001,49.0800328550001,0
                51.5401374370001,49.078367918,0
                51.524059429,49.077345635,0
                51.5066506360001,49.076815094,0
                51.4342417560001,49.074608132,0
                51.368156485,49.0923930960001,0
                51.336468159,49.100920929,0
                51.2890858380001,49.1310935750001,0
                51.2122217190001,49.1800399680001,0
                51.176928569,49.1882357470001,0
                51.1329527070001,49.198447446,0
                51.08989389,49.2098803310001,0
                51.053676017,49.2194964760001,0
                50.9506173670001,49.2510867410001,0
                50.855504554,49.2589104630001,0
                50.8045109720001,49.241851812,0
                50.7842054220001,49.235058775,0
                50.783019499,49.2218635340001,0
                50.778982856,49.1769352570001,0
                50.7632169450001,49.097666577,0
                50.713046789,49.0764792320001,0
                50.6258737210001,49.0737445280001,0
                50.5341292310001,49.077522774,0
                50.498486696,49.0789905990001,0
                50.4382998740001,49.08146908,0
                50.3971803950001,49.0874716750001,0
                50.348470606,49.094581916,0
                50.298264358,49.1077365360001,0
                50.208896827,49.114649908,0
                50.163522142,49.118160032,0
                50.071035609,49.141836186,0
                49.9626966370001,49.1681382740001,0
                49.8279331160001,49.2023367950001,0
                49.67731575,49.2391596460001,0
                49.623218991,49.263340982,0
                49.524023393,49.307681035,0
                49.3866299000001,49.328668287,0
                49.313851463,49.3194918400001,0
                49.2598447550001,49.312682029,0
                49.2142149860001,49.308217391,0
                49.177959076,49.304669749,0
                49.014179761,49.2965694810001,0
                48.879460604,49.288500545,0
                48.832899323,49.2808987710001,0
                48.781737439,49.272545366,0
                48.5836234440001,49.2564835320001,0
                48.5444348560001,49.249909417,0
                48.48853582,49.240531692,0
                48.480070794,49.2407644850001,0
                48.3960716870001,49.2430742500001,0
                48.337962589,49.265353674,0
                48.3273602840001,49.269418548,0
                48.266570218,49.2984126490001,0
                48.236633107,49.3054226830001,0
                48.2216467390001,49.3089316240001,0
                48.156947529,49.3245435040001,0
                48.134450239,49.3299719830001,0
                48.0684208700001,49.3166925900001,0
                47.9786381270001,49.2822544630001,0
                47.923203345,49.2425693050001,0
                47.8700307120001,49.2270702710001,0
                47.8413379730001,49.218706753,0
                47.7726505420001,49.2186331440001,0
                47.7198109180001,49.223860313,0
                47.688083417,49.247601279,0
                47.5615490210001,49.279092145,0
                47.5612483570001,49.2791669710001,0
                47.5582471960001,49.2802471190001,0
                47.4661105390001,49.3134078040001,0
                47.424834413,49.338965859,0
                47.389445896,49.3608773610001,0
                47.353468666,49.3675312180001,0
                47.2758327760001,49.381889399,0
                47.1992417070001,49.3659575550001,0
                47.157039513,49.3051521460001,0
                47.2020421220001,49.215381661,0
                47.236417583,49.183718018,0
                47.283996055,49.1599931440001,0
                47.2977160410001,49.1508662570001,0
                47.3236472470001,49.133617901,0
                47.3426938010001,49.120462805,0
                47.358018832,49.109879549,0
                47.3844744260001,49.0729231920001,0
                47.392445095,49.0306636930001,0
                47.388627307,49.005682398,0
                47.387196316,48.9963158670001,0
                47.379904169,48.9837840110001,0
                47.368739114,48.96459551,0
                47.3238284120001,48.961905404,0
                47.263045333,48.9856161710001,0
                47.1890507790001,49.0093128250001,0
                47.104510921,49.014505903,0
                47.0305490040001,49.0091436050001,0
                47.0034226290001,49.000069142,0
                46.9592500750001,48.9852916180001,0
                46.9170224790001,48.948262744,0
                46.9121540450001,48.8866076360001,0
                46.9118070850001,48.882213558,0
                46.8748654400001,48.845190228,0
                46.8326322010001,48.813443884,0
                46.7976469280001,48.7763251900001,0
                46.787770041,48.765845271,0
                46.7914093960001,48.7520765090001,0
                46.8010345750001,48.7156669020001,0
                46.8137501100001,48.691882374,0
                46.8222081530001,48.6760633540001,0
                46.8565898200001,48.6391157410001,0
                46.8652950210001,48.6205154260001,0
                46.8751279080001,48.599509664,0
                46.856950613,48.556215986,0
                46.8540447760001,48.5492943130001,0
                46.8547373710001,48.542782523,0
                46.859384128,48.4991074930001,0
                46.885851012,48.45158436,0
                46.9017528360001,48.40404994,0
                46.909746082,48.3406568890001,0
                46.9056570550001,48.2993410080001,0
                46.9045169120001,48.287817117,0
                46.8411586880001,48.2454816520001,0
                46.7724749380001,48.2454082770001,0
                46.7090763140001,48.245340544,0
                46.658877042,48.25057035,0
                46.6232577700001,48.275655741,0
                46.613931553,48.2822235240001,0
                46.5636881340001,48.329720396,0
                46.556411084,48.3448420440001,0
                46.542509201,48.3737263040001,0
                46.4606163130001,48.373638854,0
                46.4247276720001,48.365624048,0
                46.3813813250001,48.3559431990001,0
                46.331247858,48.300413125,0
                46.3004685270001,48.251411401,0
                46.286416204,48.2290388270001,0
                46.262699018,48.17353674,0
                46.262584141,48.171308288,0
                46.260113011,48.1233411210001,0
                46.2340457390001,48.0985263850001,0
                46.207329235,48.0730921040001,0
                46.1730209450001,48.0413548320001,0
                46.0991059670001,47.9910827890001,0
                45.964457365,47.9169705400001,0
                45.941815838,47.907777896,0
                45.853554209,47.871942544,0
                45.7373546370001,47.8374759110001,0
                45.686787936,47.825659656,0
                45.623787405,47.810937573,0
                45.5724667150001,47.8030716800001,0
                45.502290546,47.792315504,0
                45.359648647,47.781596419,0
                45.282113983,47.7910060610001,0
                45.23018482,47.7973082,0
                45.1504766900001,47.805062395,0
                45.0690249720001,47.8129862110001,0
                45.0135463890001,47.8129269410001,0
                44.9343066060001,47.804917625,0
                44.8075282630001,47.778364692,0
                44.7388887920001,47.7360238100001,0
                44.7114670780001,47.7157730010001,0
                44.688735497,47.6989856690001,0
                44.6817181710001,47.694296869,0
                44.6174587670001,47.65135881,0
                44.5726124120001,47.5931928100001,0
                44.568277548,47.5241202400001,0
                44.5648197680001,47.4690232940001,0
                44.575465079,47.3950662680001,0
                44.591374925,47.33960675,0
                44.5914454800001,47.273563724,0
                44.575676747,47.1969366160001,0
                44.5414164360001,47.120290041,0
                44.531008657,47.083712803,0
                44.5203641620001,47.046299289,0
                44.520477052,46.9406298050001,0
                44.5206012290001,46.824394403,0
                44.5365651440001,46.7187418520001,0
                44.55541577,46.6773822760001,0
                44.576280705,46.6316072500001,0
                44.618638462,46.547117229,0
                44.658363685,46.4546990970001,0
                44.6963159000001,46.3805727220001,0
                44.7218994620001,46.330605641,0
                44.8066030090001,46.1721925840001,0
                44.838276271,46.1173164480001,0
                44.856888735,46.0850691910001,0
                44.909807136,46.005873889,0
                44.968035226,45.9029086510001,0
                45.0192158400001,45.838223069,0
                45.047396156,45.8026079300001,0
                45.1373518020001,45.6759008500001,0
                45.184953868,45.64097572,0
                45.227237453,45.6099538290001,0
                45.2906905630001,45.5624704000001,0
                45.3620737900001,45.5123539850001,0
                45.457221041,45.4675463520001,0
                45.4788738990001,45.4509267080001,0
                45.5603320820001,45.3884044850001,0
                45.681942727,45.303998843,0
                45.734807507,45.274996279,0
                45.76659333,45.1957784000001,0
                45.7666949310001,45.100676363,0
                45.7350445750001,45.0530913330001,0
                45.7087010860001,44.984378227,0
                45.7139817070001,44.9699054640001,0
                45.7298996800001,44.926283299,0
                45.7950062580001,44.8905635310001,0
                45.8356275990001,44.868277934,0
                45.967736802,44.8472850370001,0
                46.060167172,44.829612565,0
                46.105137175,44.8210146540001,0
                46.2266539840001,44.8211444630001,0
                46.3164731630001,44.821240419,0
                46.374574253,44.8371528000001,0
                46.496067059,44.863699997,0
                46.580613671,44.853223762,0
                46.6651986860001,44.805762719,0
                46.638878558,44.7159160370001,0
                46.6269058980001,44.6405823790001,0
                46.6178835690001,44.5838069170001,0
                46.648111929,44.5737667560001,0
                46.713022816,44.5522074630001,0
                46.818699661,44.5417536750001,0
                46.866262684,44.5312376140001,0
                46.8725748320001,44.5301925380001,0
                46.929678057,44.520738539,0
                47.0142856470001,44.4521439420001,0
                47.088345114,44.367687893,0
                47.1623424910001,44.3413495460001,0
                47.181108706,44.3101425500001,0
                47.1940956010001,44.28854876,0
                47.2209327090001,44.232347201,0
                47.2470516820001,44.17765267,0
                47.321161949,44.0456456970001,0
                47.379387324,43.9453221200001,0
                47.4269245510001,43.9097459160001,0
                47.442835658,43.897838924,0
                47.4630189330001,43.9203120870001,0
                47.490331252,43.9507240040001,0
                47.5325368700001,44.008887176,0
                47.577175325,44.006455004,0
                47.6276434310001,44.003705208,0
                47.6324811650001,43.951121664,0
                47.632989964,43.9455930510001,0
                47.627742923,43.9156742870001,0
                47.6172351880001,43.8557572890001,0
                47.607890518,43.8276227210001,0
                47.5909034810001,43.7764773220001,0
                47.5837878090001,43.7632299910001,0
                47.55399092,43.7077529250001,0
                47.546136448,43.660307366,0
                47.538246294,43.6126336950001,0
                47.548907308,43.5228265210001,0
                47.5807109570001,43.4277581110001,0
                47.545859541,43.3713293370001,0
                47.5121411650001,43.316732329,0
                47.4963526770001,43.2585975150001,0
                47.5281497890001,43.168812632,0
                47.5512830420001,43.1411137270001,0
                47.581055269,43.105467558,0
                47.5916937060001,43.036793937,0
                47.6393878900001,42.9047587430001,0
                47.6661927150001,42.839428212,0
                47.687059682,42.788573387,0
                47.7875636840001,42.677728159,0
                47.8463545600001,42.6190636260001,0
                47.914505698,42.551060944,0
                48.041453774,42.413826595,0
                48.0908932880001,42.375879108,0
                48.1101936250001,42.361065346,0
                48.1948131820001,42.2819039120001,0
                48.2706966580001,42.1375705240001,0
                48.2126546750001,42.0670623830001,0
                48.154600676,42.0071211740001,0
                48.0700899080001,41.9841359050001,0
                47.990832487,41.9893346900001,0
                47.9150635,42.0262379480001,0
                47.8304511310001,42.09835481,0
                47.775765151,42.1828317120001,0
                47.717543699,42.279632905,0
                47.6628370230001,42.3834824640001,0
                47.597578496,42.4732315300001,0
                47.539370214,42.557704669,0
                47.4759067040001,42.615754904,0
                47.4089792190001,42.619205709,0
                47.354419299,42.5856855220001,0
                47.328062247,42.5293004800001,0
                47.31402008,42.485256663,0
                47.2224534200001,42.4728307720001,0
                47.152009277,42.4709943620001,0
                47.1115385620001,42.4374892270001,0
                47.092224232,42.3828728620001,0
                47.030621592,42.3475839970001,0
                46.970751878,42.338714275,0
                46.896776028,42.345679854,0
                46.83335391,42.364984776,0
                46.7910693630001,42.3807899760001,0
                46.731167665,42.401859813,0
                46.694136466,42.4458490660001,0
                46.69054643,42.509246725,0
                46.702797343,42.581467069,0
                46.685112459,42.6501331270001,0
                46.725553071,42.7118166720001,0
                46.753688206,42.75235324,0
                46.725462759,42.7963519,0
                46.6849393620001,42.812158982,0
                46.6215247710001,42.8244193020001,0
                46.5387845600001,42.792630161,0
                46.491265479,42.762639801,0
                46.4120701470001,42.7097206170001,0
                46.311684563,42.709613372,0
                46.2060211730001,42.7042170300001,0
                46.1549308730001,42.7200128220001,0
                46.1196532970001,42.7710485600001,0
                46.1530436620001,42.8380080310001,0
                46.2040906880001,42.8627187020001,0
                46.246345132,42.875091911,0
                46.3044612200001,42.876915152,0
                46.362573545,42.882260693,0
                46.454143968,42.8911642830001,0
                46.519282081,42.9141288550001,0
                46.593216538,42.9459085890001,0
                46.6636211690001,42.9847291610001,0
                46.7181999040001,43.000637843,0
                46.7533928120001,43.0288538820001,0
                46.795615271,43.071166652,0
                46.830791246,43.1152330460001,0
                46.8412706600001,43.1971378380001,0
                46.8121157190001,43.2869254730001,0
                46.7698001260001,43.331789658,0
                46.6958233350001,43.339635813,0
                46.582203722,43.3632899890001,0
                46.4774871820001,43.3811262580001,0
                46.397249043,43.3947931440001,0
                46.267770608,43.4263555650001,0
                46.1383034620001,43.4473510820001,0
                46.0273509740001,43.447232549,0
                45.91912488,43.367865061,0
                45.8584188070001,43.317607358,0
                45.7897875570001,43.2673411870001,0
                45.7396624990001,43.2038861440001,0
                45.657850841,43.127188604,0
                45.554851754,43.1006612780001,0
                45.4201237340001,43.100517344,0
                45.2774366690001,43.132065654,0
                45.1928562850001,43.1742429560001,0
                45.0950503380001,43.2322565040001,0
                45.0368815690001,43.27974548,0
                44.9828288200001,43.289911875,0
                44.939117955,43.2981331390001,0
                44.8361470900001,43.245188554,0
                44.7437403060001,43.194896984,0
                44.6592079000001,43.192164946,0
                44.571940635,43.276607041,0
                44.4952459180001,43.355776973,0
                44.413329837,43.3768232910001,0
                44.2970882540001,43.3819825640001,0
                44.2310846180001,43.3449278460001,0
                44.202090544,43.2841371060001,0
                44.1308119240001,43.239151565,0
                44.0806304210001,43.2285310400001,0
                44.01714151,43.3103568080001,0
                43.9616031780001,43.3684155110001,0
                43.8875812300001,43.41852928,0
                43.7739475060001,43.4553920860001,0
                43.657663589,43.5001772480001,0
                43.5545883010001,43.5449765210001,0
                43.4594184360001,43.6082763420001,0
                43.343092186,43.692687392,0
                43.2399830310001,43.769187376,0
                43.152760921,43.8113618560001,0
                43.0311653300001,43.8825586310001,0
                42.867338814,43.919367815,0
                42.7352666310001,43.9060180750001,0
                42.624314144,43.9058995410001,0
                42.505433657,43.9084142660001,0
                42.420856095,43.9479498430001,0
                42.352120422,43.99542753,0
                42.2965566880001,44.077261766,0
                42.211956549,44.13793115,0
                42.1062734020001,44.15102689,0
                41.974170175,44.166736133,0
                41.9344821970001,44.22481177,0
                41.849946969,44.224721458,0
                41.7971124520001,44.224665013,0
                41.7521382,44.285376731,0
                41.686137386,44.245680287,0
                41.649232247,44.1716724510001,0
                41.551536367,44.1266586880001,0
                41.474790849,44.253379685,0
                41.3294959250001,44.253224462,0
                41.1920923120001,44.284778417,0
                41.1075034620001,44.3348808980001,0
                40.9859389150001,44.3770186890001,0
                40.840559324,44.4561152430001,0
                40.697784771,44.5695570550001,0
                40.5655827640001,44.6777267050001,0
                40.441314403,44.777979643,0
                40.3170545080001,44.8703074040001,0
                40.1787204610001,44.9485309080001,0
                40.0765511490001,44.969555589,0
                39.935628998,44.9975834790001,0
                39.773576803,45.022066491,0
                39.5939055750001,45.053575289,0
                39.4283386050001,45.0710099350001,0
                39.2839242570001,45.0708556530001,0
                39.2060394390001,45.027624207,0
                39.1466175400001,45.0117103520001,0
                39.083207653,45.019567796,0
                39.0026223130001,45.031369484,0
                38.8665607300001,45.043111905,0
                38.76221538,45.0403587010001,0
                38.6565407000001,45.045529264,0
                38.5442744050001,45.038805004,0
                38.4676784660001,45.0255145300001,0
                38.402974526,45.0082741670001,0
                38.322376487,45.031963622,0
                38.229909025,45.0384691580001,0
                38.12952203,45.0396827760001,0
                38.0317894610001,45.02901145,0
                37.9208341520001,45.0315346420001,0
                37.8627048930001,45.042039457,0
                37.809841213,45.069280846,0
                37.7662056990001,45.1132630440001,0
                37.697479903,45.151494691,0
                37.6168917420001,45.1659381050001,0
                37.513827743,45.2001704740001,0
                37.402854088,45.219864885,0
                37.344705075,45.2488617810001,0
                37.3169669530001,45.248832147,0
                37.2852916420001,45.225022747,0
                37.268138768,45.207833185,0
                37.256298981,45.1629111450001,0
                37.261626177,45.121970037,0
                37.285435577,45.0902947270001,0
                37.3132033320001,45.062586239,0
                37.323805513,45.0295759540001,0
                37.3370480090001,44.997889355,0
                37.3199275920001,44.9503199440001,0
                37.2829730620001,44.922542311,0
                37.2076669410001,44.938312233,0
                37.165311838,45.02016058,0
                37.0411083870001,45.0596538230001,0
                36.9486056480001,45.0991809320001,0
                36.837610827,45.138688288,0
                36.758333651,45.1623791530001,0
                36.6420892460001,45.1701801520001,0
                36.5601844540001,45.180659566,0
                36.475680271,45.1515102710001,0
                36.3647531830001,45.127616204,0
                36.2432394370001,45.122202929,0
                36.145520979,45.098322974,0
                36.0054953960001,45.1113820250001,0
                35.9104243090001,45.0822214390001,0
                35.7545850590001,45.060921121,0
                35.6805659350001,45.1083931640001,0
                35.6171306460001,45.1400261410001,0
                35.5404980180001,45.1610781030001,0
                35.4374819980001,45.1504011330001,0
                35.36091428,45.1106933990001,0
                35.2869459550001,45.110614377,0
                35.1970764750001,45.158069487,0
                35.0913679280001,45.1949407600001,0
                34.977748315,45.218594936,0
                34.890560072,45.2290687060001,0
                34.8086355250001,45.2580402020001,0
                34.7398970300001,45.3081596160001,0
                34.6421136610001,45.345039355,0
                34.494177011,45.3448813100001,0
                34.3568439540001,45.310392117,0
                34.206322024,45.2573967330001,0
                34.066381107,45.1912040070001,0
                33.979226731,45.1699770660001,0
                33.847168659,45.143418695,0
                33.7230526980001,45.1010184360001,0
                33.617451397,45.037504126,0
                33.5567622570001,44.9713960670001,0
                33.482881422,44.889423542,0
                33.4512258670001,44.8471220610001,0
                33.271516112,44.84447499,0
                33.1024798610001,44.8419851360001,0
                32.991333013,44.840347976,0
                32.7010184690001,44.836071729,0
                32.3892853130001,44.831479992,0
                32.2360961430001,44.829223561,0
                32.035293197,44.8262657940001,0
                31.8980231400001,44.8242438460001,0
                31.6972205060001,44.8212860830001,0
                31.538676503,44.8189507760001,0
                31.3909859070001,44.8167753380001,0
                31.2586377920001,44.8148258900001,0
                31.093251799,44.812389803,0
                30.8802695640001,44.7187320780001,0
                30.668986691,44.6258216370001,0
                30.491196996,44.54763963,0
                30.259401831,44.445709026,0
                30.1361626880001,44.391515315,0
                29.9799746530001,44.3228325160001,0
                29.842049269,44.2621806130001,0
                29.6686886850001,44.1859462830001,0
                29.521360294,44.121159462,0
                29.306737722,44.026780408,0
                28.964991415,43.8764994140001,0
                28.669788066,43.746685422,0
                28.523004326,43.6821381080001,0
                28.411950238,43.777121707,0
                28.3115477220001,43.7928648160001,0
                28.1688775900001,43.808562771,0
                28.0103740380001,43.8083934370001,0
                27.8834865270001,43.887509746,0
                27.7512309000001,44.045872188,0
                27.6846239390001,44.1931282190001,0
                27.566118176,44.2253119920001,0
                27.4604209180001,44.2516163610001,0
                27.328295112,44.2884594120001,0
                27.1591738550001,44.3358298540001,0
                27.1326775740001,44.409769957,0
                27.0692394640001,44.44404466,0
                26.98995382,44.4756607030001,0
                26.913315547,44.501996117,0
                26.868380808,44.5257236730001,0
                26.8128622300001,44.5652902940001,0
                26.7494297640001,44.5942815450001,0
                26.715016771,44.6602880030001,0
                26.765161586,44.7052509660001,0
                26.857596592,44.729125277,0
                26.9156298940001,44.8084391420001,0
                26.875927806,44.8797234080001,0
                26.883779605,44.9484167470001,0
                26.9101432410001,44.998637762,0
                26.801784502,45.0434313900001,0
                26.764755184,45.085659493,0
                26.751430843,45.193956143,0
                26.841252345,45.1914103730001,0
                26.917870862,45.1835670400001,0
                26.999770009,45.1783710780001,0
                27.068454882,45.1784444560001,0
                27.137134111,45.1838012860001,0
                27.211091147,45.1944472120001,0
                27.2744615230001,45.22357393,0
                27.340451048,45.273837278,0
                27.4249072540001,45.347895914,0
                27.512041875,45.387614936,0
                27.6097179990001,45.4511207800001,0
                27.712731197,45.464439477,0
                27.8210447810001,45.461913462,0
                27.8871048610001,45.4461336630001,0
                27.9425246600001,45.499027448,0
                28.026980865,45.5730860840001,0
                28.1008842790001,45.6339248020001,0
                28.1959723000001,45.647235031,0
                28.3094620900001,45.745100246,0
                28.362226052,45.8111998380001,0
                28.4202367770001,45.9116475100001,0
                28.4703138570001,46.020011894,0
                28.488704338,46.1151337810001,0
                28.488537826,46.2709956090001,0
                28.4884080030001,46.3925149990001,0
                28.488292292,46.500825761,0
                28.506719461,46.5616052120001,0
                28.5780093710001,46.5960238490001,0
                28.67574194,46.606695174,0
                28.7840583460001,46.601527434,0
                28.8791858770001,46.577853502,0
                28.9690356020001,46.548890473,0
                29.0245118460001,46.5489497400001,0
                29.1011190740001,46.5516733110001,0
                29.2041096950001,46.5861258150001,0
                29.2674970050001,46.599402178,0
                29.370507381,46.6153626,0
                29.431264254,46.618069238,0
                29.513157757,46.6181567260001,0
                29.592403888,46.6235248450001,0
                29.5923220440001,46.7001348960001,0
                29.552639711,46.7529270800001,0
                29.5050322000001,46.8057107980001,0
                29.4495333780001,46.826785338,0
                29.417719778,46.9324205070001,0
                29.3779838240001,47.035405482,0
                29.31712535,47.127800977,0
                29.2245972100001,47.19110362,0
                29.110898574,47.2887261210001,0
                29.0473842640001,47.394327423,0
                29.0393828860001,47.465645556,0
                29.002283011,47.5739168060001,0
                28.949352538,47.6636790410001,0
                28.909602471,47.7798726460001,0
                28.9121538860001,47.864410697,0
                28.933228426,47.919909519,0
                28.9225994330001,47.9780161990001,0
                28.840638197,48.0413301310001,0
                28.7269790730001,48.10196847,0
                28.647721652,48.107167255,0
                28.5605446970001,48.107074121,0
                28.4839346470001,48.1069922770001,0
                28.3994135300001,48.0936933350001,0
                28.354481611,48.1147791650001,0
                28.2989997240001,48.12000335,0
                28.2250059990001,48.14369986,0
                28.1853490660001,48.172716511,0
                28.1430278290001,48.2228641470001,0
                28.1323960140001,48.2836125530001,0
                28.095313074,48.376033448,0
                28.0661891780001,48.4367620990001,0
                28.1586326500001,48.4527112320001,0
                28.245815249,48.447520915,0
                28.309247714,48.4185296630001,0
                28.3831962840001,48.4371007670001,0
                28.4888540310001,48.4477805600001,0
                28.5786811770001,48.4399513380001,0
                28.642150332,48.3766176510001,0
                28.689721154,48.3581763700001,0
                28.7346700050001,48.3212401850001,0
                28.732110124,48.244627312,0
                28.7902619600001,48.2129886910001,0
                28.8166961520001,48.197166558,0
                28.840494263,48.1760581510001,0
                28.8880481510001,48.1734672250001,0
                28.943544151,48.155034411,0
                29.0016818760001,48.136604419,0
                29.0889011630001,48.097071665,0
                29.165562015,48.049602443,0
                29.2448589460001,48.0074194960001,0
                29.3056214640001,48.0048426810001,0
                29.3505308040001,48.0048906600001,0
                29.3954796560001,47.9679544750001,0
                29.3664884040001,47.9045220090001,0
                29.3691865750001,47.8516903140001,0
                29.440527285,47.8385578850001,0
                29.5356265950001,47.841301211,0
                29.580552868,47.825498834,0
                29.5911705720001,47.777959057,0
                29.6229136160001,47.7383670360001,0
                29.718012926,47.741110362,0
                29.8025086430001,47.778184836,0
                29.8658959530001,47.791461199,0
                29.9794732330001,47.80743291,0
                30.0533851120001,47.8603464510001,0
                30.132670756,47.8287304070001,0
                30.193430452,47.8287953190001,0
                30.225083184,47.8737385250001,0
                30.1642501100001,47.942358487,0
                30.100797889,47.989841819,0
                30.0954805710001,48.021536886,0
                30.135058481,48.066488559,0
                30.1878873540001,48.071828456,0
                30.2671052630001,48.1036138330001,0
                30.267045996,48.159090077,0
                30.2458783230001,48.1907682090001,0
                30.1534150950001,48.193311157,0
                30.1110966800001,48.2408170670001,0
                30.15325705,48.3412478070001,0
                30.2404368260001,48.338699214,0
                30.3329254540001,48.3123807330001,0
                30.4069615130001,48.249058335,0
                30.4888578370001,48.246504099,0
                30.5390139410001,48.2809001580001,0
                30.570649739,48.341693719,0
                30.583810391,48.3866171710001,0
                30.596863797,48.531926205,0
                30.670837767,48.526721777,0
                30.7289896030001,48.495083155,0
                30.7871273280001,48.476653163,0
                30.8664045040001,48.4529622970001,0
                30.945661925,48.4477635120001,0
                31.00113817,48.447822779,0
                31.0275667170001,48.4372840980001,0
                31.027648562,48.3606740480001,0
                31.0963362570001,48.3581057000001,0
                31.159712278,48.381948966,0
                31.2759002390001,48.4269824850001,0
                31.365690697,48.453495699,0
                31.4502089920001,48.4694363660001,0
                31.627167937,48.503967893,0
                31.753962313,48.512028537,0
                31.8701728510001,48.5359282490001,0
                31.952032488,48.5677164480001,0
                32.0550118190001,48.612735855,0
                32.152741565,48.626048908,0
                32.226724002,48.612919301,0
                32.3535211990001,48.6183382200001,0
                32.45910839,48.6950611600001,0
                32.5277989080001,48.689851086,0
                32.6202621350001,48.687308139,0
                32.6889498310001,48.684739791,0
                32.725905771,48.7111965610001,0
                32.712612474,48.790434227,0
                32.7601212070001,48.830110915,0
                32.8182335320001,48.835456456,0
                32.8895516640001,48.843457834,0
                32.92127213,48.824999619,0
                32.987318099,48.822428449,0
                33.0903087200001,48.856880953,0
                33.2118168220001,48.8675776790001,0
                33.3518057160001,48.8888610650001,0
                33.4468824480001,48.9127381980001,0
                33.5366870170001,48.9260427840001,0
                33.6000827940001,48.9313939690001,0
                33.652906022,48.9420173170001,0
                33.718949169,48.942087873,0
                33.798223523,48.921038733,0
                33.848436071,48.9026002740001,0
                33.9409444550001,48.8577897120001,0
                34.0017239060001,48.8393625420001,0
                34.0730815490001,48.8103797580001,0
                34.1312023410001,48.8078001220001,0
                34.2024753170001,48.858069114,0
                34.286956924,48.9083522170001,0
                34.3450099820001,48.9691740010001,0
                34.3739419660001,49.088082711,0
                34.474254171,49.1568748290001,0
                34.5930753910001,49.2098363470001,0
                34.672290479,49.2442634510001,0
                34.804396529,49.2259124820001,0
                34.8889317570001,49.226002792,0
                34.9576222750001,49.220792719,0
                35.063274377,49.2367559640001,0
                35.139878783,49.24212126,0
                35.197951597,49.284450963,0
                35.26925844,49.303019245,0
                35.329984268,49.3347848670001,0
                35.4092388670001,49.3322278090001,0
                35.4752735480001,49.3402235410001,0
                35.546557813,49.3799256300001,0
                35.646889775,49.4302256670001,0
                35.7418959500001,49.520145948,0
                35.80263589,49.5387029400001,0
                35.8580726220001,49.57574637,0
                35.881811466,49.610114206,0
                35.905536199,49.6576906720001,0
                35.923969013,49.7131866720001,0
                35.942401827,49.76868267,0
                36.0190062340001,49.7740479670001,0
                36.061324648,49.7265420570001,0
                36.111590818,49.6579108060001,0
                36.15395721,49.565495556,0
                36.19629538,49.4994975650001,0
                36.2597476020001,49.4520142320001,0
                36.3416411040001,49.4521017220001,0
                36.3971173470001,49.4521609880001,0
                36.45257079,49.473562916,0
                36.452508924,49.5314720320001,0
                36.4207291910001,49.6054064900001,0
                36.4391281380001,49.6926032000001,0
                36.523584344,49.766661836,0
                36.6001520620001,49.806369569,0
                36.6820427420001,49.8090987840001,0
                36.745407474,49.8435089550001,0
                36.8114365100001,49.85678814,0
                36.8245886940001,49.909636769,0
                36.840297938,50.041739997,0
                36.840216093,50.118350047,0
                36.840074981,50.2504363420001,0
                36.840021359,50.3006291340001,0
                36.9746901120001,50.3562493110001,0
                37.05657797,50.3616202520001,0
                37.188652975,50.3723282670001,0
                37.2652573820001,50.377693564,0
                37.3577121440001,50.383075793,0
                37.41582729,50.3857796090001,0
                37.503026823,50.364738935,0
                37.526844689,50.325138447,0
                37.5453706370001,50.2934574920001,0
                37.587683407,50.251235034,0
                37.6326322580001,50.21429885,0
                37.6802030800001,50.1958575680001,0
                37.746251871,50.1906446730001,0
                37.8070143890001,50.1880678580001,0
                37.910044521,50.1855362000001,0
                37.9813541870001,50.2014627550001,0
                38.028896785,50.2094387330001,0
                38.092275629,50.2306402730001,0
                38.13450091,50.2703113170001,0
                38.155561339,50.3390187680001,0
                38.1396517160001,50.3944780780001,0
                38.0894419910001,50.4102748110001,0
                38.0471574430001,50.4260800110001,0
                37.9626109270001,50.436556603,0
                37.9124181350001,50.436502981,0
                37.8199549060001,50.439045928,0
                37.778725131,50.441357731,0
                37.63738863,50.397724027,0
                37.645499397,50.5339617930001,0
                37.814462609,50.6345279990001,0
                37.9650155840001,50.6584644000001,0
                38.110276642,50.690320333,0
                38.1948203360001,50.682485467,0
                38.334831809,50.682635045,0
                38.4774850060001,50.6827874460001,0
                38.5963344480001,50.7093317060001,0
                38.667593314,50.7728093270001,0
                38.7494303710001,50.8257313340001,0
                38.8445155700001,50.84168329,0
                38.9554200790001,50.886711163,0
                39.0531667590001,50.88417386,0
                39.1218911440001,50.847263076,0
                39.1985068390001,50.842061469,0
                39.2751112450001,50.8474267650001,0
                39.3913443610001,50.8501926700001,0
                39.449388952,50.918939632,0
                39.528567351,50.9877091720001,0
                39.6236356160001,51.019511483,0
                39.7319266220001,51.038119276,0
                39.8085310280001,51.0434845720001,0
                39.853496813,50.9906980330001,0
                39.8826912650001,50.8639262350001,0
                39.8827759320001,50.784674458,0
                39.8960494730001,50.7239288750001,0
                39.9251536140001,50.6816923050001,0
                39.9621631750001,50.657956283,0
                40.0414262410001,50.6474740470001,0
                40.0863355810001,50.6475220250001,0
                40.144445084,50.655509291,0
                40.242115563,50.7242985870001,0
                40.3107637480001,50.7587144010001,0
                40.310645214,50.869666889,0
                40.2657048290001,50.898677896,0
                40.1283463720001,50.887964235,0
                40.046475447,50.8667429390001,0
                40.0101805250001,50.887431491,0
                39.992178955,50.998771377,0
                40.009288084,51.056907691,0
                40.091156187,51.080770714,0
                40.1677267260001,51.1178367210001,0
                40.2139385840001,51.1350573280001,0
                40.291869498,51.135140585,0
                40.406767641,51.151113707,0
                40.4648940760001,51.1432506190001,0
                40.537548594,51.1367239150001,0
                40.606236289,51.1341555670001,0
                40.681538177,51.1223482340001,0
                40.7370426430001,51.0959902430001,0
                40.7991274350001,51.092093977,0
                40.877076693,51.0750060140001,0
                40.9893839100001,51.0434252490001,0
                41.106961878,51.0237378940001,0
                41.2258846990001,50.9815972800001,0
                41.3381792160001,50.961904281,0
                41.41214754,50.9619833030001,0
                41.483472729,50.9633803670001,0
                41.6287676520001,50.96353559,0
                41.7502503540001,50.998007849,0
                41.8558855220001,51.0298214490001,0
                41.9826432090001,51.0722245310001,0
                42.0882219330001,51.156872648,0
                42.1674003320001,51.2256421880001,0
                42.2465787300001,51.2944117280001,0
                42.304600744,51.384292498,0
                42.383773497,51.4583454890001,0
                42.4365346370001,51.527086807,0
                42.5104239390001,51.6011341540001,0
                42.5737632720001,51.6593198570001,0
                42.668825892,51.6964056200001,0
                42.7534213280001,51.640139113,0
                42.8379979490001,51.601484111,0
                42.96127849,51.601615816,0
                43.045809956,51.6052284290001,0
                43.1408895100001,51.626463836,0
                43.232443,51.6512177810001,0
                43.3239852,51.6865386310001,0
                43.404922868,51.7570712030001,0
                43.471752516,51.8452002290001,0
                43.5632044050001,51.9650563060001,0
                43.6970255090001,51.989855409,0
                43.7956198380001,52.018139181,0
                43.8942254560001,52.0358560510001,0
                44.0033979780001,52.0535842090001,0
                44.10903691,52.0818755070001,0
                44.235817174,52.1031447820001,0
                44.334437844,52.106772447,0
                44.4119021290001,52.13151134,0
                44.5140074710001,52.1703657790001,0
                44.5773599730001,52.2162234290001,0
                44.6723868460001,52.2867710530001,0
                44.756880681,52.3256066770001,0
                44.862545954,52.3292418670001,0
                44.9717410530001,52.3258362190001,0
                45.05275398,52.3259227670001,0
                45.1372854460001,52.32953538,0
                45.257032397,52.340230225,0
                45.3697234570001,52.3614844480001,0
                45.4788997410001,52.375690304,0
                45.5845800660001,52.365236291,0
                45.683234602,52.3371632440001,0
                45.704454959,52.2561728950001,0
                45.834825257,52.2140445110001,0
                45.954621128,52.1789494400001,0
                46.0215448500001,52.1790209370001,0
                46.1025577770001,52.179107485,0
                46.176522339,52.1827088100001,0
                46.2575239770001,52.1933622610001,0
                46.3032725,52.232156493,0
                46.3243084690001,52.3237589010001,0
                46.3947018110001,52.3731463770001,0
                46.4968222050001,52.397911612,0
                46.5954278230001,52.415628482,0
                46.6552843650001,52.43682626,0
                46.7045514260001,52.4791465550001,0
                46.7044573520001,52.5672040850001,0
                46.651532522,52.6516828680001,0
                46.7324852410001,52.7081262360001,0
                46.838124173,52.736417535,0
                46.908615352,52.69422518,0
                46.9579764870001,52.648487947,0
                47.067209217,52.6098592860001,0
                47.1658336500001,52.6099646490001,0
                47.257398428,52.6241516910001,0
                47.327821875,52.645360758,0
                47.3947305450001,52.6595214600001,0
                47.4441029700001,52.603217322,0
                47.380769281,52.5397481680001,0
                47.317428068,52.483323614,0
                47.208289413,52.4338947460001,0
                47.07102503,52.335123557,0
                46.979501644,52.282191202,0
                46.933764411,52.2328300660001,0
                46.912664471,52.2011067780001,0
                46.9021916410001,52.1130379590001,0
                46.944493123,52.0813824040001,0
                46.9902943270001,52.070864419,0
                47.088941338,52.0498359760001,0
                47.155872586,52.0428628700001,0
                47.2262922690001,52.067594238,0
                47.272003161,52.141611482,0
                47.335280405,52.257915155,0
                47.39153186,52.3565997950001,0
                47.461962832,52.3707642590001,0
                47.5253190970001,52.413099607,0
                47.58517564,52.434297385,0
                47.6591326750001,52.444943311,0
                47.726037583,52.462626314,0
                47.8140913490001,52.4662426890001,0
                47.8809849680001,52.4944925950001,0
                47.9373267340001,52.508642008,0
                47.972497065,52.5579918540001,0
                47.972448146,52.6037817690001,0
                48.106295591,52.6039247620001,0
                48.180199945,52.663882905,0
                48.243526107,52.734396663,0
                48.3667163370001,52.819063595,0
                48.4053788640001,52.896595613,0
                48.4616604230001,52.9671018450001,0
                48.4932971630001,53.027014831,0
                48.5743364320001,53.002445272,0
                48.6447147210001,53.065921953,0
                48.760860349,53.15058136,0
                48.8946212450001,53.2317372800001,0
                49.0213751680001,53.2776626620001,0
                49.1833521040001,53.3236256750001,0
                49.3101511840001,53.3272834430001,0
                49.4475171670001,53.3309525010001,0
                49.532063685,53.320475909,0
                49.6412550210001,53.3205925610001,0
                49.750446357,53.320709214,0
                49.820888618,53.324306774,0
                49.8983792440001,53.32438956,0
                49.9758924480001,53.303338538,0
                50.0358054340001,53.271701798,0
                50.116844703,53.2471322380001,0
                50.197865156,53.2401741840001,0
                50.27537836,53.2191231630001,0
                50.366916797,53.2579663130001,0
                50.4866223560001,53.3074064720001,0
                50.6204622750001,53.314594067,0
                50.72613131,53.3147069560001,0
                50.8564526910001,53.318368488,0
                50.9691362250001,53.3466673130001,0
                51.0888568350001,53.382018266,0
                51.2296962010001,53.4314810020001,0
                51.3458832210001,53.4773950950001,0
                51.539511949,53.569181889,0
                51.7014587800001,53.6433233120001,0
                51.8564024020001,53.6787118940001,0
                51.9444373540001,53.6999397760001,0
                52.106421815,53.7388581860001,0
                52.247283759,53.7671871140001,0
                52.402242432,53.7884864920001,0
                52.5959501820001,53.8063049620001,0
                52.7333124030001,53.8134963210001,0
                52.821369932,53.8135903950001,0
                52.941131935,53.810196035,0
                53.036256645,53.7891638290001,0
                53.1560562770001,53.750546457,0
                53.2723637140001,53.683746913,0
                53.3604852130001,53.623961868,0
                53.4662257460001,53.5571510340001,0
                53.5331645200001,53.543133326,0
                53.624778217,53.511530453,0
                53.7234252280001,53.4905020090001,0
                53.850209256,53.5082489820001,0
                53.9699411550001,53.533033032,0
                54.075602664,53.540190523,0
                54.17067093,53.5719928350001,0
                54.3045033220001,53.5862250330001,0
                54.4031127040001,53.6004196010001,0
                54.4735700160001,53.589927957,0
                54.5369940150001,53.5688618830001,0
                54.5757581440001,53.55129177,0
                54.575799536,53.512546457,0
                54.554733463,53.449122458,0
                54.487877473,53.38564954,0
                54.4809307090001,53.294062184,0
                54.533840486,53.223672605,0
                54.6219695120001,53.156842957,0
                54.7276949930001,53.1041213290001,0
                54.8475021510001,53.058459354,0
                54.949660174,53.048001577,0
                55.0377139400001,53.0516179530001,0
                55.1046226110001,53.065778655,0
                55.146852595,53.1010468220001,0
                55.1749745600001,53.1539114440001,0
                55.203085236,53.2173429690001,0
                55.2241287320001,53.301900775,0
                55.223997028,53.4251813160001,0
                55.1710232790001,53.5554500150001,0
                55.089916278,53.643420996,0
                55.0088130390001,53.7278696760001,0
                54.9030612190001,53.805247412,0
                54.836050948,53.8861888430001,0
                54.769078306,53.931907262,0
                54.7126274130001,54.019904583,0
                54.670277013,54.0973500540001,0
                54.652533803,54.2206117800001,0
                54.6629727650001,54.3403813090001,0
                54.6487857230001,54.4319460880001,0
                54.5923385930001,54.5164211090001,0
                54.5217872060001,54.6149702820001,0
                54.4511981890001,54.748742468,0
                54.4158735770001,54.8438069690001,0
                54.415809606,54.9036860890001,0
                54.4474839760001,54.9283760650001,0
                54.5249482610001,54.9531149580001,0
                54.5883459190001,54.9567049940001,0
                54.6764109750001,54.9497544650001,0
                54.7187049300001,54.9251435130001,0
                54.7645362380001,54.8864471190001,0
                54.785749067,54.812501372,0
                54.799898479,54.7561596050001,0
                54.8351892260001,54.692795813,0
                54.8986320400001,54.6541182340001,0
                54.9479668330001,54.633037109,0
                55.0854156020001,54.5592155400001,0
                55.187607492,54.517057052,0
                55.3109331900001,54.474921142,0
                55.427225573,54.422210803,0
                55.5294212260001,54.3765300140001,0
                55.596378815,54.3449008000001,0
                55.635154232,54.3167637830001,0
                55.659851733,54.278044811,0
                55.6599157030001,54.2181656910001,0
                55.6599721480001,54.165331173,0
                55.60721289,54.0948287050001,0
                55.5685353100001,54.0313858910001,0
                55.5263279050001,53.974983917,0
                55.5263956380001,53.9115824950001,0
                55.547589653,53.8552482540001,0
                55.579339282,53.809492205,0
                55.660408654,53.7567442370001,0
                55.7309111220001,53.703984979,0
                55.8154726910001,53.6794191820001,0
                55.8157135220001,53.453991907,0
                55.791268141,53.256716699,0
                55.780874334,53.0946795560001,0
                55.6928506720001,53.062884771,0
              </coordinates>
            </LinearRing>
          </outerBoundaryIs>
        </Polygon>
      </Placemark>
    </Document>
  </Document>
</kml>
