<?xml version="1.0" encoding="UTF-8"?>
<kml xmlns="http://www.opengis.net/kml/2.2">
  <Document id="root_doc">
    <Schema id="Bioregions_PA17.schema">
      <SimpleField name="OBJECTID" type="float"/>
      <SimpleField name="Shape_Leng" type="float"/>
      <SimpleField name="Shape_Area" type="float"/>
      <SimpleField name="Bioregions" type="string"/>
    </Schema>
    <Document id="Bioregions_PA17">
      <name>Bioregions_PA17</name>
      <Placemark id="Bioregions_PA17.1">
        <ExtendedData>
          <SchemaData schemaUrl="#Bioregions_PA17.schema">
            <SimpleData name="OBJECTID">138</SimpleData>
            <SimpleData name="Shape_Leng">93.96529470450</SimpleData>
            <SimpleData name="Shape_Area">102.25705119200</SimpleData>
            <SimpleData name="Bioregions">PA17</SimpleData>
          </SchemaData>
        </ExtendedData>
        <Polygon>
          <outerBoundaryIs>
            <LinearRing>
              <coordinates>
                34.7398970300001,45.3081596160001,0
                34.8086355250001,45.2580402020001,0
                34.890560072,45.2290687060001,0
                34.977748315,45.218594936,0
                35.0913679280001,45.1949407600001,0
                35.1970764750001,45.158069487,0
                35.2869459550001,45.110614377,0
                35.36091428,45.1106933990001,0
                35.4374819980001,45.1504011330001,0
                35.5404980180001,45.1610781030001,0
                35.6171306460001,45.1400261410001,0
                35.6805659350001,45.1083931640001,0
                35.7545850590001,45.060921121,0
                35.9104243090001,45.0822214390001,0
                36.0054953960001,45.1113820250001,0
                36.145520979,45.098322974,0
                36.2432394370001,45.122202929,0
                36.3647531830001,45.127616204,0
                36.475680271,45.1515102710001,0
                36.5601844540001,45.180659566,0
                36.6420892460001,45.1701801520001,0
                36.758333651,45.1623791530001,0
                36.837610827,45.138688288,0
                36.9486056480001,45.0991809320001,0
                37.0411083870001,45.0596538230001,0
                37.165311838,45.02016058,0
                37.2076669410001,44.938312233,0
                37.2829730620001,44.922542311,0
                37.3199275920001,44.9503199440001,0
                37.3370480090001,44.997889355,0
                37.323805513,45.0295759540001,0
                37.3132033320001,45.062586239,0
                37.285435577,45.0902947270001,0
                37.261626177,45.121970037,0
                37.256298981,45.1629111450001,0
                37.268138768,45.207833185,0
                37.2852916420001,45.225022747,0
                37.3169669530001,45.248832147,0
                37.344705075,45.2488617810001,0
                37.402854088,45.219864885,0
                37.513827743,45.2001704740001,0
                37.6168917420001,45.1659381050001,0
                37.697479903,45.151494691,0
                37.7662056990001,45.1132630440001,0
                37.809841213,45.069280846,0
                37.8627048930001,45.042039457,0
                37.9208341520001,45.0315346420001,0
                38.0317894610001,45.02901145,0
                38.12952203,45.0396827760001,0
                38.229909025,45.0384691580001,0
                38.322376487,45.031963622,0
                38.402974526,45.0082741670001,0
                38.4676784660001,45.0255145300001,0
                38.5442744050001,45.038805004,0
                38.6565407000001,45.045529264,0
                38.76221538,45.0403587010001,0
                38.8665607300001,45.043111905,0
                39.0026223130001,45.031369484,0
                39.083207653,45.019567796,0
                39.1466175400001,45.0117103520001,0
                39.2060394390001,45.027624207,0
                39.2839242570001,45.0708556530001,0
                39.4283386050001,45.0710099350001,0
                39.5939055750001,45.053575289,0
                39.773576803,45.022066491,0
                39.935628998,44.9975834790001,0
                40.0765511490001,44.969555589,0
                40.1787204610001,44.9485309080001,0
                40.3170545080001,44.8703074040001,0
                40.441314403,44.777979643,0
                40.5655827640001,44.6777267050001,0
                40.697784771,44.5695570550001,0
                40.840559324,44.4561152430001,0
                40.9859389150001,44.3770186890001,0
                41.1075034620001,44.3348808980001,0
                41.1920923120001,44.284778417,0
                41.3294959250001,44.253224462,0
                41.474790849,44.253379685,0
                41.551536367,44.1266586880001,0
                41.649232247,44.1716724510001,0
                41.686137386,44.245680287,0
                41.7521382,44.285376731,0
                41.7971124520001,44.224665013,0
                41.849946969,44.224721458,0
                41.9344821970001,44.22481177,0
                41.974170175,44.166736133,0
                42.1062734020001,44.15102689,0
                42.211956549,44.13793115,0
                42.2965566880001,44.077261766,0
                42.352120422,43.99542753,0
                42.420856095,43.9479498430001,0
                42.505433657,43.9084142660001,0
                42.624314144,43.9058995410001,0
                42.7352666310001,43.9060180750001,0
                42.867338814,43.919367815,0
                43.0311653300001,43.8825586310001,0
                43.152760921,43.8113618560001,0
                43.2399830310001,43.769187376,0
                43.343092186,43.692687392,0
                43.4594184360001,43.6082763420001,0
                43.5545883010001,43.5449765210001,0
                43.657663589,43.5001772480001,0
                43.7739475060001,43.4553920860001,0
                43.8875812300001,43.41852928,0
                43.9616031780001,43.3684155110001,0
                44.01714151,43.3103568080001,0
                44.0806304210001,43.2285310400001,0
                44.1308119240001,43.239151565,0
                44.202090544,43.2841371060001,0
                44.2310846180001,43.3449278460001,0
                44.2970882540001,43.3819825640001,0
                44.413329837,43.3768232910001,0
                44.4952459180001,43.355776973,0
                44.571940635,43.276607041,0
                44.6592079000001,43.192164946,0
                44.7437403060001,43.194896984,0
                44.8361470900001,43.245188554,0
                44.939117955,43.2981331390001,0
                44.9828288200001,43.289911875,0
                45.0368815690001,43.27974548,0
                45.0950503380001,43.2322565040001,0
                45.1928562850001,43.1742429560001,0
                45.2774366690001,43.132065654,0
                45.4201237340001,43.100517344,0
                45.554851754,43.1006612780001,0
                45.657850841,43.127188604,0
                45.7396624990001,43.2038861440001,0
                45.7897875570001,43.2673411870001,0
                45.8584188070001,43.317607358,0
                45.91912488,43.367865061,0
                46.0273509740001,43.447232549,0
                46.1383034620001,43.4473510820001,0
                46.267770608,43.4263555650001,0
                46.397249043,43.3947931440001,0
                46.4774871820001,43.3811262580001,0
                46.582203722,43.3632899890001,0
                46.6958233350001,43.339635813,0
                46.7698001260001,43.331789658,0
                46.8121157190001,43.2869254730001,0
                46.8412706600001,43.1971378380001,0
                46.830791246,43.1152330460001,0
                46.795615271,43.071166652,0
                46.7533928120001,43.0288538820001,0
                46.7181999040001,43.000637843,0
                46.6636211690001,42.9847291610001,0
                46.593216538,42.9459085890001,0
                46.519282081,42.9141288550001,0
                46.454143968,42.8911642830001,0
                46.362573545,42.882260693,0
                46.3044612200001,42.876915152,0
                46.246345132,42.875091911,0
                46.2040906880001,42.8627187020001,0
                46.1530436620001,42.8380080310001,0
                46.1196532970001,42.7710485600001,0
                46.1549308730001,42.7200128220001,0
                46.2060211730001,42.7042170300001,0
                46.311684563,42.709613372,0
                46.4120701470001,42.7097206170001,0
                46.491265479,42.762639801,0
                46.5387845600001,42.792630161,0
                46.6215247710001,42.8244193020001,0
                46.6849393620001,42.812158982,0
                46.725462759,42.7963519,0
                46.753688206,42.75235324,0
                46.725553071,42.7118166720001,0
                46.685112459,42.6501331270001,0
                46.702797343,42.581467069,0
                46.69054643,42.509246725,0
                46.694136466,42.4458490660001,0
                46.731167665,42.401859813,0
                46.7910693630001,42.3807899760001,0
                46.83335391,42.364984776,0
                46.896776028,42.345679854,0
                46.970751878,42.338714275,0
                47.030621592,42.3475839970001,0
                47.092224232,42.3828728620001,0
                47.1115385620001,42.4374892270001,0
                47.152009277,42.4709943620001,0
                47.2224534200001,42.4728307720001,0
                47.31402008,42.485256663,0
                47.328062247,42.5293004800001,0
                47.354419299,42.5856855220001,0
                47.4089792190001,42.619205709,0
                47.4759067040001,42.615754904,0
                47.539370214,42.557704669,0
                47.597578496,42.4732315300001,0
                47.6628370230001,42.3834824640001,0
                47.717543699,42.279632905,0
                47.775765151,42.1828317120001,0
                47.8304511310001,42.09835481,0
                47.9150635,42.0262379480001,0
                47.990832487,41.9893346900001,0
                48.0700899080001,41.9841359050001,0
                48.154600676,42.0071211740001,0
                48.2126546750001,42.0670623830001,0
                48.2706966580001,42.1375705240001,0
                48.3059674340001,42.093579361,0
                48.362373172,42.0478496530001,0
                48.4469704890001,41.9898219950001,0
                48.5438902170001,41.937090959,0
                48.612635298,41.880807519,0
                48.7025386450001,41.8016516980001,0
                48.700944946,41.644907414,0
                48.70283592,41.523389905,0
                48.7187652980001,41.4494385140001,0
                48.759354547,41.371991162,0
                48.766449949,41.324447621,0
                48.611506327,41.2890590390001,0
                48.6520955770001,41.2116116870001,0
                48.680324786,41.1640907250001,0
                48.6927243370001,41.097180173,0
                48.650522574,41.035494746,0
                48.5818602800001,41.014287562,0
                48.5343205030001,41.0036698580001,0
                48.4604142680001,40.945472866,0
                48.397018491,40.9401216800001,0
                48.312494551,40.9294644650001,0
                48.2332484190001,40.9240963460001,0
                48.191065472,40.8447994140001,0
                48.117147947,40.7971693260001,0
                48.032624007,40.78651211,0
                47.9058324540001,40.7758097400001,0
                47.7737122930001,40.8073693380001,0
                47.6838428130001,40.854824448,0
                47.6626525610001,40.9076363880001,0
                47.7946880550001,40.955328566,0
                47.7681861290001,41.0345521200001,0
                47.699431641,41.0996413140001,0
                47.5514197320001,41.1699292930001,0
                47.4105051070001,41.1909125810001,0
                47.26961306,41.190762061,0
                47.1498171900001,41.225857132,0
                47.0229315620001,41.3032122910001,0
                46.874904601,41.387589474,0
                46.7198179850001,41.4860483360001,0
                46.62114087,41.5352551890001,0
                46.5225013850001,41.5492390300001,0
                46.409787748,41.5491186150001,0
                46.247746842,41.5630347220001,0
                46.134988048,41.6051819210001,0
                46.0292813830001,41.640292044,0
                45.8953436260001,41.724684279,0
                45.8037035880001,41.7809432600001,0
                45.687426257,41.819564395,0
                45.5782198680001,41.833536947,0
                45.4302343000001,41.879168817,0
                45.299890342,41.896641093,0
                45.183631824,41.9176507220001,0
                45.032172874,41.9174889130001,0
                44.901855256,41.910305081,0
                44.803272216,41.8714544050001,0
                44.715248553,41.839659619,0
                44.6483925640001,41.7761867020001,0
                44.620311992,41.6845767680001,0
                44.634510323,41.5824450850001,0
                44.7050541840001,41.490940514,0
                44.7931681580001,41.438200071,0
                44.8918302220001,41.4030824220001,0
                44.9728694890001,41.378512863,0
                45.068009251,41.3433914510001,0
                45.1878352250001,41.280117971,0
                45.2724457130001,41.2097622590001,0
                45.36760429,41.157029342,0
                45.4838477540001,41.1501089170001,0
                45.642422804,41.0833545290001,0
                45.7516743480001,41.0271143630001,0
                45.882078515,40.953285269,0
                45.9984311060001,40.84421811,0
                46.0619303650001,40.7527060130001,0
                46.090214137,40.654111684,0
                46.1571491490001,40.643616276,0
                46.301593601,40.6155921500001,0
                46.4284378360001,40.5769823040001,0
                46.4989139630001,40.5488791540001,0
                46.597560974,40.527850711,0
                46.664522327,40.4926991950001,0
                46.7351263950001,40.344837806,0
                46.8409308980001,40.2181478520001,0
                46.904430157,40.1266357550001,0
                46.9750116480001,39.9999081720001,0
                46.9611181180001,39.816733459,0
                47.0247302660001,39.6195523260001,0
                46.919076282,39.605350232,0
                46.792303544,39.5770363560001,0
                46.7288569670001,39.6192362360001,0
                46.665455546,39.619168503,0
                46.595062204,39.569781027,0
                46.588107913,39.4852382720001,0
                46.658674352,39.3725998940001,0
                46.729225738,39.27405072,0
                46.637781375,39.14715004,0
                46.5463144340001,39.041383168,0
                46.4195492220001,39.006024688,0
                46.250478764,39.0058440660001,0
                46.0461627190001,39.0267596200001,0
                46.046079933,39.104250246,0
                45.933321139,39.146397445,0
                45.883903559,39.2449691960001,0
                45.81337475,39.3223845630001,0
                45.75688999,39.442082595,0
                45.685405346,39.5899430440001,0
                45.6166019390001,39.700822153,0
                45.5214744080001,39.7244960850001,0
                45.436936356,39.7270475,0
                45.2995468550001,39.7453928250001,0
                45.2360861660001,39.8008013350001,0
                45.238682737,39.843071772,0
                45.3046666180001,39.898618571,0
                45.3759678160001,39.922470305,0
                45.4604974000001,39.9278440680001,0
                45.542376791,39.941140186,0
                45.5740351680001,39.980799941,0
                45.563386419,40.057398703,0
                45.5105208570001,40.0864012430001,0
                45.4391773250001,40.102175398,0
                45.3335026450001,40.10734596,0
                45.2568982390001,40.1019806640001,0
                45.137983885,40.1361961000001,0
                45.0190723540001,40.167769809,0
                44.923925066,40.2099358240001,0
                44.8287721340001,40.2573852890001,0
                44.7758162600001,40.3709230580001,0
                44.7942039180001,40.4686866700001,0
                44.83114857,40.5057103440001,0
                44.8892496060001,40.521622789,0
                44.9606185380001,40.482073101,0
                45.0346489520001,40.424034154,0
                45.0716782700001,40.3818060520001,0
                45.1007824110001,40.3395694820001,0
                45.188010165,40.2921115500001,0
                45.2541041120001,40.2446310390001,0
                45.3254391780001,40.236782062,0
                45.473370183,40.242223559,0
                45.629200966,40.2714490550001,0
                45.7110718910001,40.2926703520001,0
                45.711018268,40.342863143,0
                45.6660750610001,40.374515876,0
                45.5867527290001,40.440474357,0
                45.5100975220001,40.482660126,0
                45.391154946,40.54329282,0
                45.227252229,40.6514286030001,0
                45.1162743420001,40.6750856030001,0
                44.994729551,40.6987313130001,0
                44.8916965980001,40.703904697,0
                44.8045478660001,40.6773943040001,0
                44.7570504220001,40.6271507120001,0
                44.672593276,40.553972652,0
                44.5881032030001,40.5116147260001,0
                44.491245565,40.5062277930001,0
                44.3503553990001,40.5043161230001,0
                44.2393822160001,40.523570245,0
                44.133698129,40.5375465610001,0
                44.079066712,40.570950096,0
                44.027942545,40.618446598,0
                44.0137799620001,40.6871164190001,0
                44.017215714,40.7681331090001,0
                44.0418360740001,40.8016213120001,0
                44.1140131440001,40.829876862,0
                44.1985295580001,40.847578679,0
                44.263688368,40.851170596,0
                44.321789403,40.8670830400001,0
                44.318189961,40.939286451,0
                44.2811813390001,40.962141898,0
                44.2142369200001,40.981443058,0
                44.13670302,41.021866736,0
                44.0785436580001,41.0605499590001,0
                43.9992523700001,41.0974494550001,0
                43.9780640000001,41.148500244,0
                43.9709290860001,41.233027946,0
                43.9849223350001,41.322861679,0
                44.025364827,41.382784073,0
                44.072891434,41.405729831,0
                44.1398076310001,41.4128459300001,0
                44.176855764,41.3530063200001,0
                44.219200519,41.280844302,0
                44.2615565630001,41.19811538,0
                44.310949684,41.122438587,0
                44.3708683150001,41.0855183950001,0
                44.4518831240001,41.083843793,0
                44.4517909310001,41.1701401720001,0
                44.4516874490001,41.2670034540001,0
                44.44278574,41.356812727,0
                44.421554095,41.4483699800001,0
                44.3756550530001,41.5504677960001,0
                44.3315115180001,41.6578509440001,0
                44.2732975920001,41.747607535,0
                44.2010490260001,41.7862757070001,0
                44.102413304,41.7967372470001,0
                44.023150238,41.807219483,0
                43.9368802000001,41.7824711820001,0
                43.8647163000001,41.741887578,0
                43.7766888740001,41.713615094,0
                43.68514291,41.6818165460001,0
                43.618243647,41.658850091,0
                43.5354827400001,41.6464336080001,0
                43.426295166,41.6427946540001,0
                43.3276500380001,41.662061947,0
                43.253645964,41.6954447850001,0
                43.1814030420001,41.7288295050001,0
                43.1162254180001,41.7428490950001,0
                43.007028437,41.748015894,0
                42.9048873470001,41.742623317,0
                42.8379617430001,41.7443129700001,0
                42.74993808,41.7125181860001,0
                42.7341328810001,41.6702336380001,0
                42.7623658540001,41.6191903750001,0
                42.799374475,41.596334928,0
                42.8522278080001,41.578779866,0
                42.901545669,41.5735490970001,0
                42.9737471980001,41.57890969,0
                43.0565306840001,41.5701923660001,0
                43.0918026140001,41.5244400810001,0
                43.090114842,41.455753326,0
                43.0584668130001,41.406407243,0
                42.9845267110001,41.3799109620001,0
                42.928211285,41.341105441,0
                42.9247454280001,41.2882671610001,0
                42.9776044050001,41.2654286470001,0
                43.055111965,41.249661077,0
                43.0991802400001,41.212723952,0
                43.127428265,41.1475914850001,0
                43.163593,41.0903926610001,0
                43.14784989,40.989990144,0
                43.0950831050001,40.926532278,0
                43.03700747,40.8868443010001,0
                43.0027186560001,40.8366148200001,0
                42.9737556270001,40.7467650950001,0
                42.915696924,40.691226762,0
                42.8814335110001,40.6172217480001,0
                42.9264049400001,40.5591517570001,0
                43.000395842,40.5380969730001,0
                43.055860797,40.5487231430001,0
                43.087499418,40.6068749790001,0
                43.100623381,40.6861408670001,0
                43.1666326610001,40.717912133,0
                43.211505312,40.752302548,0
                43.290740156,40.7682375700001,0
                43.3488891700001,40.739240674,0
                43.4149492500001,40.723460876,0
                43.4546569830001,40.6468931580001,0
                43.4045432140001,40.5728712110001,0
                43.3596790300001,40.530555619,0
                43.3597665190001,40.448662117,0
                43.3465974000001,40.411663843,0
                43.227719736,40.4115368430001,0
                43.1828809520001,40.3454457170001,0
                43.140661315,40.3004912210001,0
                43.0403067760001,40.2713249920001,0
                42.9637221260001,40.2474676140001,0
                42.8791981860001,40.236810399,0
                42.7841016990001,40.231425346,0
                42.691638471,40.2339682950001,0
                42.61762499,40.2761568860001,0
                42.5409556720001,40.331551285,0
                42.477531674,40.3526173590001,0
                42.4088693780001,40.3314101730001,0
                42.3375173790001,40.3551095060001,0
                42.3215936460001,40.423777445,0
                42.3083172830001,40.487164755,0
                42.2396408770001,40.4791661990001,0
                42.1736344180001,40.4447532070001,0
                42.1208055450001,40.4394133110001,0
                42.065378691,40.393123841,0
                41.986167837,40.3547341490001,0
                41.92541943,40.3441023340001,0
                41.8408729130001,40.354578926,0
                41.7933105590001,40.365095029,0
                41.7272758780001,40.3570992950001,0
                41.6770661520001,40.3728960280001,0
                41.581918865,40.415062042,0
                41.4868139110001,40.417602167,0
                41.431380001,40.3779170120001,0
                41.3812549420001,40.314461969,0
                41.2703673670001,40.2535837400001,0
                41.2017248270001,40.2138844730001,0
                41.14629374,40.1715575920001,0
                41.0459335560001,40.147674814,0
                41.0141989790001,40.1793416580001,0
                41.022064889,40.234826368,0
                41.0219999780001,40.295586063,0
                41.006073422,40.3668957290001,0
                40.961137271,40.3919441470001,0
                40.9399427860001,40.4487186750001,0
                40.8871167350001,40.4407370530001,0
                40.8449013320001,40.391819968,0
                40.802708507,40.3217690760001,0
                40.7578612560001,40.26360313,0
                40.7209674050001,40.17902839,0
                40.6866983470001,40.110306828,0
                40.6761963540001,40.0495358430001,0
                40.6789114590001,39.9808537930001,0
                40.6816209180001,39.9174551940001,0
                40.684327556,39.8566983200001,0
                40.6703333660001,39.767745163,0
                40.5999701280001,39.6901792780001,0
                40.5648299010001,39.6126510220001,0
                40.5438089840001,39.506959409,0
                40.536877271,39.4012828470001,0
                40.586309903,39.288621891,0
                40.670927917,39.2112215770001,0
                40.8259618500001,39.1620749320001,0
                40.9458179280001,39.0706230420001,0
                40.9881833800001,38.9790883680001,0
                40.981259192,38.866367204,0
                41.037683745,38.80302599,0
                41.1292786280001,38.7890346230001,0
                41.2208885630001,38.7609540510001,0
                41.2984243440001,38.718769223,0
                41.2985221810001,38.627189392,0
                41.2210767120001,38.5848389920001,0
                41.122482382,38.5565552190001,0
                41.0520739890001,38.521256947,0
                40.9817333280001,38.4225572550001,0
                40.9924723880001,38.2614232650001,0
                40.878861241,38.2771522640001,0
                40.770533546,38.2928869080001,0
                40.617307801,38.2980066700001,0
                40.5063553140001,38.297888136,0
                40.382205486,38.287188588,0
                40.244847029,38.276474928,0
                40.1392344390001,38.2235275210001,0
                40.200056223,38.1654744630001,0
                40.2951724660001,38.152367434,0
                40.464242922,38.152548057,0
                40.622735187,38.163284295,0
                40.736332222,38.160763925,0
                40.852599206,38.131829118,0
                40.987327226,38.131973052,0
                41.0613350610001,38.095067912,0
                41.1036280760001,38.0713375350001,0
                41.1195687430001,37.98681924,0
                41.1038030550001,37.907550531,0
                41.0562886770001,37.8731572940001,0
                40.9268299980001,37.8862276340001,0
                40.8793523100001,37.81749196,0
                40.8899813030001,37.7593852800001,0
                40.977169546,37.74891151,0
                41.1647518390001,37.730619807,0
                41.251928793,37.730712941,0
                41.3681336880001,37.7598961040001,0
                41.4949224200001,37.7732402,0
                41.608505343,37.78392846,0
                41.711558053,37.7602629950001,0
                41.7776322450001,37.731274566,0
                41.827901237,37.660001589,0
                41.8438842370001,37.535857406,0
                41.8069819190001,37.459207844,0
                41.7356778980001,37.4379978370001,0
                41.711967277,37.3772127410001,0
                41.653891641,37.3375247640001,0
                41.471649244,37.3029875930001,0
                41.3501242090001,37.3081412220001,0
                41.3421171860001,37.3847428060001,0
                41.385348923,37.471437699,0
                41.4714545100001,37.4852666790001,0
                41.561250612,37.5064964420001,0
                41.5716707600001,37.643877477,0
                41.4501570140001,37.6384642030001,0
                41.3630026370001,37.6172372620001,0
                41.2890427790001,37.609233062,0
                41.1939519360001,37.5985645580001,0
                41.0750714490001,37.601079283,0
                41.059333983,37.4953933140001,0
                41.009172236,37.4662807070001,0
                40.9351700440001,37.497902395,0
                40.8057254760001,37.497764105,0
                40.750249232,37.4977048390001,0
                40.61551839,37.500202631,0
                40.5019467540001,37.4789474680001,0
                40.4437779850001,37.5264364450001,0
                40.3987839770001,37.605640243,0
                40.3802128740001,37.6795888120001,0
                40.448897747,37.67966219,0
                40.5413694420001,37.6691940640001,0
                40.6179794930001,37.6692759100001,0
                40.6681497060001,37.6904633390001,0
                40.749989586,37.74074362,0
                40.697087336,37.804088597,0
                40.6151797210001,37.817209737,0
                40.4777986870001,37.827629884,0
                40.3668377330001,37.8354365280001,0
                40.2294792760001,37.824722869,0
                40.192466891,37.8511006160001,0
                40.1686208020001,37.917118363,0
                40.0840065510001,37.9909963760001,0
                40.007371101,38.014690065,0
                39.949202331,38.062179041,0
                39.92537882,38.1070629810001,0
                39.859293339,38.1466183140001,0
                39.91733793,38.2153652750001,0
                39.972743618,38.2814676890001,0
                40.007015499,38.347547526,0
                40.0307232980001,38.410974348,0
                40.030644276,38.484942672,0
                39.901191241,38.49272956,0
                39.885394508,38.442519835,0
                39.84584482,38.3711509020001,0
                39.7824687990001,38.347307636,0
                39.69797026,38.3128748880001,0
                39.6108017720001,38.3048565760001,0
                39.536895536,38.246659584,0
                39.470925768,38.1779041560001,0
                39.3520593910001,38.1672102520001,0
                39.243788142,38.1301103770001,0
                39.2174611950001,38.045546926,0
                39.12771307,37.9794078240001,0
                39.0247337380001,37.934388417,0
                38.9349573910001,37.8946665720001,0
                38.847788904,37.8866482610001,0
                38.8002096160001,37.91301472,0
                38.6998494330001,37.8891319410001,0
                38.6311560930001,37.896983741,0
                38.5440073610001,37.8704733490001,0
                38.48060594,37.870405615,0
                38.3987406590001,37.8439008670001,0
                38.337983787,37.84119423,0
                38.2692989130001,37.841120851,0
                38.1557075220001,37.8383577700001,0
                38.1002284570001,37.8409402290001,0
                38.0024789550001,37.8461192570001,0
                37.8835984670001,37.8486339830001,0
                37.799099928,37.814201235,0
                37.7251908710001,37.758645969,0
                37.646020938,37.681951251,0
                37.5695040210001,37.5946924520001,0
                37.492958883,37.5338509110001,0
                37.4375531950001,37.467748498,0
                37.3372099440001,37.4280153650001,0
                37.2817788570001,37.3856884840001,0
                37.23693725,37.322239084,0
                37.2053268510001,37.237669989,0
                37.181610585,37.182168345,0
                37.0971035790001,37.1556607750001,0
                37.017863092,37.1450092050001,0
                36.9360147450001,37.102654101,0
                36.854234132,36.996897576,0
                36.7882192070001,36.970409762,0
                36.767006377,37.044355508,0
                36.780119051,37.1341883000001,0
                36.8460662420001,37.224077536,0
                36.93845327,37.292861187,0
                37.020247994,37.3854090830001,0
                37.0941626960001,37.4356808970001,0
                37.168083043,37.480669259,0
                37.2261699680001,37.5097903330001,0
                37.376641099,37.610336784,0
                37.326352351,37.700101842,0
                37.223347619,37.678857968,0
                37.162624613,37.64445062,0
                37.0886788660001,37.6232377900001,0
                36.9539339130001,37.6389442120001,0
                36.9169074160001,37.678530589,0
                36.9247338160001,37.770999461,0
                36.935207586,37.858187704,0
                36.953583956,37.9665182210001,0
                36.9350100290001,38.0431085160001,0
                36.868975349,38.035112783,0
                36.8240095640001,38.087899323,0
                36.8239446530001,38.148659018,0
                36.77371235,38.1855895580001,0
                36.7103052840001,38.190805276,0
                36.633695233,38.190723431,0
                36.6072158860001,38.248813178,0
                36.5385056120001,38.2725153330001,0
                36.4460028720001,38.3120424430001,0
                36.4432849470001,38.38336622,0
                36.461717761,38.438862219,0
                36.4431410130001,38.51809424,0
                36.424592487,38.5709090020001,0
                36.355910436,38.5681938980001,0
                36.2978348,38.52850592,0
                36.2344249120001,38.5363633640001,0
                36.1763012980001,38.541584727,0
                36.1182115510001,38.5151053800001,0
                36.0998097820001,38.4305503950001,0
                36.06819656,38.348623026,0
                35.999570954,38.293073405,0
                35.928317733,38.2243123310001,0
                35.854417142,38.160831887,0
                35.73028707,38.1316402570001,0
                35.659011272,38.0840129910001,0
                35.579790539,38.054869339,0
                35.511108488,38.052154236,0
                35.510975844,38.1763153520001,0
                35.4502302590001,38.163041811,0
                35.3894762080001,38.157693448,0
                35.3313582390001,38.157631359,0
                35.2785575880001,38.1258742030001,0
                35.2309839440001,38.146957211,0
                35.20188827,38.181268602,0
                35.1438154570001,38.138938899,0
                35.1016296880001,38.062283693,0
                35.0514989850001,38.0041121,0
                34.9748691790001,38.0225223370001,0
                34.9140615050001,38.067366765,0
                34.8453766320001,38.0672933880001,0
                34.7820373000001,38.0091076840001,0
                34.816475693,37.9193256930001,0
                34.914261884,37.8798042280001,0
                34.9143296170001,37.816402807,0
                34.869479545,37.7608785850001,0
                34.8087960490001,37.689487075,0
                34.737483561,37.6762022450001,0
                34.650315074,37.6681839330001,0
                34.592245082,37.623212504,0
                34.49454638,37.5808404680001,0
                34.4047333450001,37.5754610600001,0
                34.272649873,37.572678223,0
                34.169653608,37.543509171,0
                34.1062832320001,37.5143824520001,0
                34.0138425810001,37.495791593,0
                33.9452028640001,37.453450601,0
                34.0377422920001,37.379581054,0
                34.0140373150001,37.3135125060001,0
                33.932225658,37.236814967,0
                33.8610063030001,37.1363531820001,0
                33.787088779,37.088723094,0
                33.713171254,37.0410930050001,0
                33.673604633,36.9855744280001,0
                33.5890806940001,36.9749172140001,0
                33.570636591,36.929988118,0
                33.54161994,36.890331185,0
                33.4597349040001,36.882318518,0
                33.3778498680001,36.874305851,0
                33.3593182750001,36.9112702580001,0
                33.274718136,36.9719396420001,0
                33.2191459360001,37.0616990550001,0
                33.2190612690001,37.1409508310001,0
                33.1978710170001,37.193762771,0
                33.1502860850001,37.2254126810001,0
                33.081575812,37.249114836,0
                32.98644828,37.272788769,0
                32.8913235690001,37.2938209760001,0
                32.7777293560001,37.29369962,0
                32.7698550000001,37.181741301,0
                32.717085373,37.185323947,0
                32.6484146110001,37.17204194,0
                32.6696528410001,37.0743206590001,0
                32.6300551750001,37.047861068,0
                32.5296667690001,37.050395548,0
                32.4292021630001,37.1242566280001,0
                32.4053588960001,37.1876326500001,0
                32.370965659,37.235147026,0
                32.349766941,37.2958841430001,0
                32.333868608,37.34077655,0
                32.307380793,37.406791475,0
                32.2676984600001,37.459583659,0
                32.2491527560001,37.5097566950001,0
                32.2041926160001,37.5572597830001,0
                32.103826788,37.538660457,0
                32.1436135440001,37.388124416,0
                32.2044663730001,37.3010123720001,0
                32.2891822240001,37.132032227,0
                32.2020645370001,37.07646285,0
                32.0168897240001,37.314020623,0
                31.958732244,37.3509426960001,0
                31.8899937470001,37.4010621100001,0
                31.779001749,37.437927738,0
                31.652091662,37.5381778550001,0
                31.5568907520001,37.6305366600001,0
                31.4934582860001,37.659527912,0
                31.3904253320001,37.664701296,0
                31.3717667390001,37.820543367,0
                31.3320505400001,37.9050362630001,0
                31.250044147,38.0106178090001,0
                31.2367452070001,38.0951389260001,0
                31.117746185,38.2086061380001,0
                31.0462681270001,38.350302561,0
                31.0180417400001,38.3951817970001,0
                30.9748389870001,38.446209068,0
                30.9677341770001,38.5025583600001,0
                30.9597638440001,38.5448175080001,0
                30.9288637440001,38.619633482,0
                30.91469928,38.690064454,0
                30.944552291,38.7711093660001,0
                30.997345416,38.8099111230001,0
                31.1188666890001,38.808279795,0
                31.2139913990001,38.7872475890001,0
                31.27735519,38.8225383340001,0
                31.310741792,38.893020107,0
                31.368793909,38.9547224660001,0
                31.370494852,39.011081167,0
                31.326409643,39.063868647,0
                31.275323105,39.0761421380001,0
                31.2154270510001,39.091928523,0
                31.1431878920001,39.121790941,0
                31.1202421340001,39.169317548,0
                31.1096112600001,39.2291853790001,0
                31.074341211,39.273176515,0
                31.0284929700001,39.327723264,0
                30.9686213750001,39.3206146910001,0
                30.9281600680001,39.278303802,0
                30.9229631650001,39.1972852310001,0
                30.933620379,39.112761291,0
                30.930203442,39.014133095,0
                30.87564164,38.9823740590001,0
                30.8034137700001,39.0016695740001,0
                30.7575899870001,39.0333213660001,0
                30.6765751790001,39.034995968,0
                30.581469284,39.038416668,0
                30.5743494220001,39.1088551670001,0
                30.4721782280001,39.1316409980001,0
                30.477367606,39.219704171,0
                30.4491496850001,39.25665823,0
                30.3980179920001,39.311199335,0
                30.3486399230001,39.3727869250001,0
                30.2781600320001,39.404412375,0
                30.2622776920001,39.4343350020001,0
                30.241061099,39.51180305,0
                30.249767133,39.6051534380001,0
                30.263796131,39.6615253090001,0
                30.351846133,39.6686639870001,0
                30.4451889960001,39.6670025550001,0
                30.529726107,39.665331716,0
                30.570270199,39.6301519780001,0
                30.5474429760001,39.5667260970001,0
                30.514030033,39.5209004340001,0
                30.457727778,39.4697668590001,0
                30.482430923,39.4257644350001,0
                30.52476439,39.36416932,0
                30.600493865,39.364250224,0
                30.609248818,39.4118106980001,0
                30.6622512550001,39.4832759560001,0
                30.7007533890001,39.482354559,0
                30.748302573,39.484166509,0
                30.8416661320001,39.4631324220001,0
                30.8891475830001,39.528345793,0
                30.9560449640001,39.553073398,0
                31.065268286,39.5232504910001,0
                31.1868064920001,39.505768808,0
                31.303063127,39.486520329,0
                31.392934489,39.437304069,0
                31.422960598,39.3563231270001,0
                31.5057516090001,39.3405612020001,0
                31.599094472,39.3388997700001,0
                31.6906987610001,39.3161026500001,0
                31.79108999,39.310926443,0
                31.8668119390001,39.3180519490001,0
                31.9336980320001,39.353346458,0
                31.9336077200001,39.437881686,0
                31.8454862200001,39.497666732,0
                31.8172532470001,39.548709995,0
                31.7942943190001,39.6085646560001,0
                31.7361537720001,39.629636374,0
                31.63926603,39.652427849,0
                31.628635156,39.7122956800001,0
                31.565207394,39.7368840550001,0
                31.448935707,39.770221738,0
                31.3696933370001,39.761331318,0
                31.2957400650001,39.7471630910001,0
                31.1654299730001,39.7329346550001,0
                31.13016745,39.7698811880001,0
                31.0878264580001,39.838520906,0
                31.1459124420001,39.868522555,0
                31.1652023120001,39.946033877,0
                31.1334301050001,40.012923733,0
                31.0471468960001,40.0005034860001,0
                30.95383602,39.9722253570001,0
                30.8393574680001,39.9756253620001,0
                30.76359977,40.001961717,0
                30.636785639,40.0123931530001,0
                30.575111502,40.0440280110001,0
                30.5908884780001,40.1127298170001,0
                30.571455615,40.1690659400001,0
                30.4956791020001,40.2130138000001,0
                30.4234437060001,40.2393539190001,0
                30.3336024480001,40.2603917690001,0
                30.2279352940001,40.2585177300001,0
                30.176893912,40.2285236060001,0
                30.12934849,40.2231893540001,0
                30.092321053,40.2636563070001,0
                30.014822902,40.2706181230001,0
                29.89157999,40.235263407,0
                29.8070711030001,40.2105169870001,0
                29.750755677,40.1717114670001,0
                29.6767986410001,40.161065541,0
                29.6063225130001,40.1891686910001,0
                29.5217496550001,40.224301391,0
                29.451247187,40.2770606500001,0
                29.3808011630001,40.27698539,0
                29.3209032280001,40.2945329250001,0
                29.232811832,40.326139561,0
                29.1271277450001,40.340115876,0
                28.9721201520001,40.364606413,0
                28.993189989,40.4245081120001,0
                29.035348476,40.5267000010001,0
                28.922616024,40.5441910920001,0
                28.848628884,40.5617235760001,0
                28.8428961130001,40.652592923,0
                28.9471404270001,40.6674979740001,0
                29.0457648610001,40.667603338,0
                29.200746113,40.667768908,0
                29.3240266540001,40.667900613,0
                29.443747264,40.7032515660001,0
                29.623369573,40.7175326820001,0
                29.81352868,40.7600034980001,0
                29.8628070300001,40.79175689,0
                29.8557022200001,40.848106183,0
                29.788744631,40.879735397,0
                29.6900938570001,40.904286142,0
                29.5597498980001,40.921758417,0
                29.4575730600001,40.9498277010001,0
                29.3941490610001,40.970893774,0
                29.320154395,40.9954708590001,0
                29.2849012790001,41.0236116390001,0
                29.2003171330001,41.0693112430001,0
                29.1086545160001,41.1467040320001,0
                29.0838667040001,41.2699582320001,0
                28.8795130280001,41.326096798,0
                28.6364855350001,41.315270249,0
                28.340589659,41.336087966,0
                28.2137755270001,41.3465194020001,0
                28.0235712630001,41.346316202,0
                27.917653871,41.5786751900001,0
                27.7801712360001,41.684197469,0
                27.568708987,41.8002076290001,0
                27.568562231,41.937577375,0
                27.6636192070001,41.9799465890001,0
                27.705740065,42.117361492,0
                27.9065225210001,42.107009078,0
                27.7055029970001,42.339266465,0
                27.820716341,42.7445578350001,0
                27.8259659730001,42.939929254,0
                27.815010611,43.113699594,0
                28.0082693900001,43.380196986,0
                28.2062512210001,43.444044111,0
                28.2590405830001,43.4863681690001,0
                28.28546913,43.475829488,0
                28.4756677500001,43.481316141,0
                28.540063709,43.5977453250001,0
                28.523004326,43.6821381080001,0
                28.669788066,43.746685422,0
                28.964991415,43.8764994140001,0
                29.306737722,44.026780408,0
                29.521360294,44.121159462,0
                29.6686886850001,44.1859462830001,0
                29.842049269,44.2621806130001,0
                29.9799746530001,44.3228325160001,0
                30.1361626880001,44.391515315,0
                30.259401831,44.445709026,0
                30.491196996,44.54763963,0
                30.668986691,44.6258216370001,0
                30.8802695640001,44.7187320780001,0
                31.093251799,44.812389803,0
                31.2586377920001,44.8148258900001,0
                31.3909859070001,44.8167753380001,0
                31.538676503,44.8189507760001,0
                31.6972205060001,44.8212860830001,0
                31.8980231400001,44.8242438460001,0
                32.035293197,44.8262657940001,0
                32.2360961430001,44.829223561,0
                32.3892853130001,44.831479992,0
                32.7010184690001,44.836071729,0
                32.991333013,44.840347976,0
                33.1024798610001,44.8419851360001,0
                33.271516112,44.84447499,0
                33.4512258670001,44.8471220610001,0
                33.482881422,44.889423542,0
                33.5567622570001,44.9713960670001,0
                33.617451397,45.037504126,0
                33.7230526980001,45.1010184360001,0
                33.847168659,45.143418695,0
                33.979226731,45.1699770660001,0
                34.066381107,45.1912040070001,0
                34.206322024,45.2573967330001,0
                34.3568439540001,45.310392117,0
                34.494177011,45.3448813100001,0
                34.6421136610001,45.345039355,0
                34.7398970300001,45.3081596160001,0
              </coordinates>
            </LinearRing>
          </outerBoundaryIs>
        </Polygon>
      </Placemark>
    </Document>
  </Document>
</kml>
