<?xml version="1.0" encoding="UTF-8"?>
<kml xmlns="http://www.opengis.net/kml/2.2">
  <Document id="root_doc">
    <Schema id="Bioregions_PA18.schema">
      <SimpleField name="OBJECTID" type="float"/>
      <SimpleField name="Shape_Leng" type="float"/>
      <SimpleField name="Shape_Area" type="float"/>
      <SimpleField name="Bioregions" type="string"/>
    </Schema>
    <Document id="Bioregions_PA18">
      <name>Bioregions_PA18</name>
      <Placemark id="Bioregions_PA18.1">
        <ExtendedData>
          <SchemaData schemaUrl="#Bioregions_PA18.schema">
            <SimpleData name="OBJECTID">126</SimpleData>
            <SimpleData name="Shape_Leng">101.94183592100</SimpleData>
            <SimpleData name="Shape_Area">123.73130826300</SimpleData>
            <SimpleData name="Bioregions">PA18</SimpleData>
          </SchemaData>
        </ExtendedData>
        <Polygon>
          <outerBoundaryIs>
            <LinearRing>
              <coordinates>
                20.294442084,42.4616743010001,0
                20.37554156,42.3807479220001,0
                20.414380947,42.2927317850001,0
                20.4144938360001,42.1870627500001,0
                20.3863982130001,42.109542021,0
                20.35482168,41.993272215,0
                20.3549007030001,41.91930389,0
                20.3796734640001,41.810138894,0
                20.439669236,41.701011528,0
                20.531346904,41.609529535,0
                20.6229869420001,41.5532705530001,0
                20.7357570250001,41.5005564510001,0
                20.827389537,41.451342073,0
                20.8908436400001,41.40209759,0
                20.968413288,41.32821205,0
                21.0142671740001,41.268381849,0
                21.049557921,41.2050180570001,0
                21.0743193920001,41.106419965,0
                21.13422109,41.0853501290001,0
                21.1976338000001,41.0748509590001,0
                21.2575618390001,41.029125014,0
                21.282315784,40.9375715240001,0
                21.289461987,40.842476919,0
                21.3811133150001,40.775651033,0
                21.458611467,40.768689217,0
                21.5325685020001,40.779335143,0
                21.6029957110001,40.797021908,0
                21.6804675220001,40.8147162000001,0
                21.747338563,40.8640999130001,0
                21.817769534,40.8782643770001,0
                21.8705777110001,40.9029769300001,0
                21.93390011,40.9770129890001,0
                22.0255363850001,40.924276309,0
                21.9939749050001,40.7939172980001,0
                22.0152027870001,40.7058823460001,0
                22.036385513,40.660115009,0
                22.0681351420001,40.6143589610001,0
                22.1034409390001,40.536905964,0
                22.1563017980001,40.5123063,0
                22.2302550700001,40.5264745280001,0
                22.300701094,40.5265497870001,0
                22.381729073,40.5125471310001,0
                22.4133432350001,40.5935939250001,0
                22.413181427,40.745052876,0
                22.4200830360001,40.8789078470001,0
                22.426954542,41.0409412270001,0
                22.426860467,41.128998756,0
                22.3703719440001,41.25221909,0
                22.299764112,41.4036027810001,0
                22.2291638070001,41.54794187,0
                22.2044136230001,41.635973059,0
                22.204274394,41.766298202,0
                22.257059993,41.8121445620001,0
                22.376829522,41.8017056,0
                22.500147692,41.766614293,0
                22.5917952570001,41.703310709,0
                22.704572865,41.6435520040001,0
                22.8208765380001,41.5802747610001,0
                22.9688771580001,41.520553686,0
                23.1028149150001,41.436161451,0
                23.2261782410001,41.3588025290001,0
                23.342474388,41.302569889,0
                23.4763970920001,41.2322668580001,0
                23.5609774760001,41.190089556,0
                23.6525836480001,41.165531285,0
                23.733596575,41.1656178330001,0
                23.8075460850001,41.183308362,0
                23.885002844,41.2150918580001,0
                23.95542629,41.236300924,0
                24.0293946140001,41.236379947,0
                24.135086228,41.2153590300001,0
                24.2302372790001,41.1696707140001,0
                24.328880526,41.1521645730001,0
                24.409889691,41.155773422,0
                24.501469522,41.15587126,0
                24.568359377,41.187643467,0
                24.568272829,41.2686563940001,0
                24.6281293700001,41.289854172,0
                24.7478989000001,41.279415209,0
                24.8500493970001,41.276002035,0
                24.969807637,41.276129976,0
                25.0684395960001,41.269190737,0
                25.149460049,41.262232683,0
                25.2410398800001,41.26233052,0
                25.329097409,41.262424595,0
                25.469966878,41.283708921,0
                25.5861952920001,41.290877702,0
                25.6954656510001,41.2170260290001,0
                25.8188666070001,41.1044440960001,0
                25.875268582,41.062236689,0
                25.980937618,41.0623495790001,0
                26.05138364,41.062424838,0
                26.146512113,41.0378703310001,0
                26.23106992,41.0168268350001,0
                26.301591203,40.9464560710001,0
                26.3826681,40.8866634990001,0
                26.5130045330001,40.876235826,0
                26.6398073760001,40.8763712940001,0
                26.8088778330001,40.876551916,0
                26.833639304,40.7779538250001,0
                26.949897821,40.7569441960001,0
                27.0907936310001,40.753572413,0
                27.1401133740001,40.7465804930001,0
                27.2176039990001,40.746663278,0
                27.2915196430001,40.7960545170001,0
                27.3689237200001,40.87715023,0
                27.404090287,40.9300223770001,0
                27.4497673130001,41.035740332,0
                27.6117480120001,41.078181043,0
                27.7561698860001,41.0712907230001,0
                27.8196127000001,41.032613143,0
                27.9076702300001,41.032707218,0
                28.013271531,41.096221529,0
                28.122447816,41.110427385,0
                28.259817562,41.1105741420001,0
                28.3866467460001,41.086053501,0
                28.4677085910001,41.0403501340001,0
                28.5416994940001,41.0192953490001,0
                28.626234722,41.0193856610001,0
                28.7002030470001,41.0194646840001,0
                28.7917791150001,41.023084823,0
                28.8903884960001,41.03727939,0
                28.91148091,41.0760472810001,0
                28.9501810680001,41.118356288,0
                28.9782766910001,41.195877018,0
                29.009943535,41.227611596,0
                29.0838667040001,41.2699582320001,0
                29.1086545160001,41.1467040320001,0
                29.2003171330001,41.0693112430001,0
                29.2849012790001,41.0236116390001,0
                29.320154395,40.9954708590001,0
                29.3941490610001,40.970893774,0
                29.4575730600001,40.9498277010001,0
                29.5597498980001,40.921758417,0
                29.6900938570001,40.904286142,0
                29.788744631,40.879735397,0
                29.8557022200001,40.848106183,0
                29.8628070300001,40.79175689,0
                29.81352868,40.7600034980001,0
                29.623369573,40.7175326820001,0
                29.443747264,40.7032515660001,0
                29.3240266540001,40.667900613,0
                29.200746113,40.667768908,0
                29.0457648610001,40.667603338,0
                28.9471404270001,40.6674979740001,0
                28.8428961130001,40.652592923,0
                28.848628884,40.5617235760001,0
                28.922616024,40.5441910920001,0
                29.035348476,40.5267000010001,0
                28.993189989,40.4245081120001,0
                28.9721201520001,40.364606413,0
                29.1271277450001,40.340115876,0
                29.232811832,40.326139561,0
                29.3209032280001,40.2945329250001,0
                29.3808011630001,40.27698539,0
                29.451247187,40.2770606500001,0
                29.5217496550001,40.224301391,0
                29.6063225130001,40.1891686910001,0
                29.6767986410001,40.161065541,0
                29.750755677,40.1717114670001,0
                29.8070711030001,40.2105169870001,0
                29.89157999,40.235263407,0
                30.014822902,40.2706181230001,0
                30.092321053,40.2636563070001,0
                30.12934849,40.2231893540001,0
                30.176893912,40.2285236060001,0
                30.2279352940001,40.2585177300001,0
                30.3336024480001,40.2603917690001,0
                30.4234437060001,40.2393539190001,0
                30.4956791020001,40.2130138000001,0
                30.571455615,40.1690659400001,0
                30.5908884780001,40.1127298170001,0
                30.575111502,40.0440280110001,0
                30.636785639,40.0123931530001,0
                30.76359977,40.001961717,0
                30.8393574680001,39.9756253620001,0
                30.95383602,39.9722253570001,0
                31.0471468960001,40.0005034860001,0
                31.1334301050001,40.012923733,0
                31.1652023120001,39.946033877,0
                31.1459124420001,39.868522555,0
                31.0878264580001,39.838520906,0
                31.13016745,39.7698811880001,0
                31.1654299730001,39.7329346550001,0
                31.2957400650001,39.7471630910001,0
                31.3696933370001,39.761331318,0
                31.448935707,39.770221738,0
                31.565207394,39.7368840550001,0
                31.628635156,39.7122956800001,0
                31.63926603,39.652427849,0
                31.7361537720001,39.629636374,0
                31.7942943190001,39.6085646560001,0
                31.8172532470001,39.548709995,0
                31.8454862200001,39.497666732,0
                31.9336077200001,39.437881686,0
                31.9336980320001,39.353346458,0
                31.8668119390001,39.3180519490001,0
                31.79108999,39.310926443,0
                31.6906987610001,39.3161026500001,0
                31.599094472,39.3388997700001,0
                31.5057516090001,39.3405612020001,0
                31.422960598,39.3563231270001,0
                31.392934489,39.437304069,0
                31.303063127,39.486520329,0
                31.1868064920001,39.505768808,0
                31.065268286,39.5232504910001,0
                30.9560449640001,39.553073398,0
                30.8891475830001,39.528345793,0
                30.8416661320001,39.4631324220001,0
                30.748302573,39.484166509,0
                30.7007533890001,39.482354559,0
                30.6622512550001,39.4832759560001,0
                30.609248818,39.4118106980001,0
                30.600493865,39.364250224,0
                30.52476439,39.36416932,0
                30.482430923,39.4257644350001,0
                30.457727778,39.4697668590001,0
                30.514030033,39.5209004340001,0
                30.5474429760001,39.5667260970001,0
                30.570270199,39.6301519780001,0
                30.529726107,39.665331716,0
                30.4451889960001,39.6670025550001,0
                30.351846133,39.6686639870001,0
                30.263796131,39.6615253090001,0
                30.249767133,39.6051534380001,0
                30.241061099,39.51180305,0
                30.2622776920001,39.4343350020001,0
                30.2781600320001,39.404412375,0
                30.3486399230001,39.3727869250001,0
                30.3980179920001,39.311199335,0
                30.4491496850001,39.25665823,0
                30.477367606,39.219704171,0
                30.4721782280001,39.1316409980001,0
                30.5743494220001,39.1088551670001,0
                30.581469284,39.038416668,0
                30.6765751790001,39.034995968,0
                30.7575899870001,39.0333213660001,0
                30.8034137700001,39.0016695740001,0
                30.87564164,38.9823740590001,0
                30.930203442,39.014133095,0
                30.933620379,39.112761291,0
                30.9229631650001,39.1972852310001,0
                30.9281600680001,39.278303802,0
                30.9686213750001,39.3206146910001,0
                31.0284929700001,39.327723264,0
                31.074341211,39.273176515,0
                31.1096112600001,39.2291853790001,0
                31.1202421340001,39.169317548,0
                31.1431878920001,39.121790941,0
                31.2154270510001,39.091928523,0
                31.275323105,39.0761421380001,0
                31.326409643,39.063868647,0
                31.370494852,39.011081167,0
                31.368793909,38.9547224660001,0
                31.310741792,38.893020107,0
                31.27735519,38.8225383340001,0
                31.2139913990001,38.7872475890001,0
                31.1188666890001,38.808279795,0
                30.997345416,38.8099111230001,0
                30.944552291,38.7711093660001,0
                30.91469928,38.690064454,0
                30.9288637440001,38.619633482,0
                30.9597638440001,38.5448175080001,0
                30.9677341770001,38.5025583600001,0
                30.9748389870001,38.446209068,0
                31.0180417400001,38.3951817970001,0
                31.0462681270001,38.350302561,0
                31.117746185,38.2086061380001,0
                31.2367452070001,38.0951389260001,0
                31.250044147,38.0106178090001,0
                31.3320505400001,37.9050362630001,0
                31.3717667390001,37.820543367,0
                31.3904253320001,37.664701296,0
                31.4934582860001,37.659527912,0
                31.5568907520001,37.6305366600001,0
                31.652091662,37.5381778550001,0
                31.779001749,37.437927738,0
                31.8899937470001,37.4010621100001,0
                31.958732244,37.3509426960001,0
                32.0168897240001,37.314020623,0
                32.2020645370001,37.07646285,0
                32.2891822240001,37.132032227,0
                32.2044663730001,37.3010123720001,0
                32.1436135440001,37.388124416,0
                32.103826788,37.538660457,0
                32.2041926160001,37.5572597830001,0
                32.2491527560001,37.5097566950001,0
                32.2676984600001,37.459583659,0
                32.307380793,37.406791475,0
                32.333868608,37.34077655,0
                32.349766941,37.2958841430001,0
                32.370965659,37.235147026,0
                32.4053588960001,37.1876326500001,0
                32.4292021630001,37.1242566280001,0
                32.5296667690001,37.050395548,0
                32.6300551750001,37.047861068,0
                32.6696528410001,37.0743206590001,0
                32.6484146110001,37.17204194,0
                32.717085373,37.185323947,0
                32.7698550000001,37.181741301,0
                32.7777293560001,37.29369962,0
                32.8913235690001,37.2938209760001,0
                32.98644828,37.272788769,0
                33.081575812,37.249114836,0
                33.1502860850001,37.2254126810001,0
                33.1978710170001,37.193762771,0
                33.2190612690001,37.1409508310001,0
                33.2191459360001,37.0616990550001,0
                33.274718136,36.9719396420001,0
                33.3593182750001,36.9112702580001,0
                33.3778498680001,36.874305851,0
                33.4597349040001,36.882318518,0
                33.54161994,36.890331185,0
                33.570636591,36.929988118,0
                33.5890806940001,36.9749172140001,0
                33.673604633,36.9855744280001,0
                33.713171254,37.0410930050001,0
                33.787088779,37.088723094,0
                33.8610063030001,37.1363531820001,0
                33.932225658,37.236814967,0
                34.0140373150001,37.3135125060001,0
                34.0377422920001,37.379581054,0
                33.9452028640001,37.453450601,0
                34.0138425810001,37.495791593,0
                34.1062832320001,37.5143824520001,0
                34.169653608,37.543509171,0
                34.272649873,37.572678223,0
                34.4047333450001,37.5754610600001,0
                34.49454638,37.5808404680001,0
                34.592245082,37.623212504,0
                34.650315074,37.6681839330001,0
                34.737483561,37.6762022450001,0
                34.8087960490001,37.689487075,0
                34.869479545,37.7608785850001,0
                34.9143296170001,37.816402807,0
                34.914261884,37.8798042280001,0
                34.816475693,37.9193256930001,0
                34.7820373000001,38.0091076840001,0
                34.8453766320001,38.0672933880001,0
                34.9140615050001,38.067366765,0
                34.9748691790001,38.0225223370001,0
                35.0514989850001,38.0041121,0
                35.1016296880001,38.062283693,0
                35.1438154570001,38.138938899,0
                35.20188827,38.181268602,0
                35.2309839440001,38.146957211,0
                35.2785575880001,38.1258742030001,0
                35.3313582390001,38.157631359,0
                35.3894762080001,38.157693448,0
                35.4502302590001,38.163041811,0
                35.510975844,38.1763153520001,0
                35.511108488,38.052154236,0
                35.579790539,38.054869339,0
                35.659011272,38.0840129910001,0
                35.73028707,38.1316402570001,0
                35.854417142,38.160831887,0
                35.928317733,38.2243123310001,0
                35.999570954,38.293073405,0
                36.06819656,38.348623026,0
                36.0998097820001,38.4305503950001,0
                36.1182115510001,38.5151053800001,0
                36.1763012980001,38.541584727,0
                36.2344249120001,38.5363633640001,0
                36.2978348,38.52850592,0
                36.355910436,38.5681938980001,0
                36.424592487,38.5709090020001,0
                36.4431410130001,38.51809424,0
                36.461717761,38.438862219,0
                36.4432849470001,38.38336622,0
                36.4460028720001,38.3120424430001,0
                36.5385056120001,38.2725153330001,0
                36.6072158860001,38.248813178,0
                36.633695233,38.190723431,0
                36.7103052840001,38.190805276,0
                36.77371235,38.1855895580001,0
                36.8239446530001,38.148659018,0
                36.8240095640001,38.087899323,0
                36.868975349,38.035112783,0
                36.9350100290001,38.0431085160001,0
                36.953583956,37.9665182210001,0
                36.935207586,37.858187704,0
                36.9247338160001,37.770999461,0
                36.9169074160001,37.678530589,0
                36.9539339130001,37.6389442120001,0
                37.0886788660001,37.6232377900001,0
                37.162624613,37.64445062,0
                37.223347619,37.678857968,0
                37.326352351,37.700101842,0
                37.376641099,37.610336784,0
                37.2261699680001,37.5097903330001,0
                37.168083043,37.480669259,0
                37.0941626960001,37.4356808970001,0
                37.020247994,37.3854090830001,0
                36.93845327,37.292861187,0
                36.8460662420001,37.224077536,0
                36.780119051,37.1341883000001,0
                36.767006377,37.044355508,0
                36.7882192070001,36.970409762,0
                36.854234132,36.996897576,0
                36.9360147450001,37.102654101,0
                37.017863092,37.1450092050001,0
                37.0971035790001,37.1556607750001,0
                37.181610585,37.182168345,0
                37.2053268510001,37.237669989,0
                37.23693725,37.322239084,0
                37.2817788570001,37.3856884840001,0
                37.3372099440001,37.4280153650001,0
                37.4375531950001,37.467748498,0
                37.492958883,37.5338509110001,0
                37.5695040210001,37.5946924520001,0
                37.646020938,37.681951251,0
                37.7251908710001,37.758645969,0
                37.799099928,37.814201235,0
                37.8835984670001,37.8486339830001,0
                38.0024789550001,37.8461192570001,0
                38.1002284570001,37.8409402290001,0
                38.1557075220001,37.8383577700001,0
                38.2692989130001,37.841120851,0
                38.337983787,37.84119423,0
                38.3987406590001,37.8439008670001,0
                38.48060594,37.870405615,0
                38.5440073610001,37.8704733490001,0
                38.6311560930001,37.896983741,0
                38.6998494330001,37.8891319410001,0
                38.8002096160001,37.91301472,0
                38.847788904,37.8866482610001,0
                38.9349573910001,37.8946665720001,0
                39.0247337380001,37.934388417,0
                39.12771307,37.9794078240001,0
                39.2174611950001,38.045546926,0
                39.243788142,38.1301103770001,0
                39.3520593910001,38.1672102520001,0
                39.470925768,38.1779041560001,0
                39.536895536,38.246659584,0
                39.6108017720001,38.3048565760001,0
                39.69797026,38.3128748880001,0
                39.7824687990001,38.347307636,0
                39.84584482,38.3711509020001,0
                39.885394508,38.442519835,0
                39.901191241,38.49272956,0
                40.030644276,38.484942672,0
                40.0307232980001,38.410974348,0
                40.007015499,38.347547526,0
                39.972743618,38.2814676890001,0
                39.91733793,38.2153652750001,0
                39.859293339,38.1466183140001,0
                39.92537882,38.1070629810001,0
                39.949202331,38.062179041,0
                40.007371101,38.014690065,0
                40.0840065510001,37.9909963760001,0
                40.1686208020001,37.917118363,0
                40.192466891,37.8511006160001,0
                40.2294792760001,37.824722869,0
                40.3668377330001,37.8354365280001,0
                40.4777986870001,37.827629884,0
                40.6151797210001,37.817209737,0
                40.697087336,37.804088597,0
                40.749989586,37.74074362,0
                40.6681497060001,37.6904633390001,0
                40.6179794930001,37.6692759100001,0
                40.5413694420001,37.6691940640001,0
                40.448897747,37.67966219,0
                40.3802128740001,37.6795888120001,0
                40.3987839770001,37.605640243,0
                40.4437779850001,37.5264364450001,0
                40.5019467540001,37.4789474680001,0
                40.61551839,37.500202631,0
                40.750249232,37.4977048390001,0
                40.8057254760001,37.497764105,0
                40.9351700440001,37.497902395,0
                41.009172236,37.4662807070001,0
                41.059333983,37.4953933140001,0
                41.0750714490001,37.601079283,0
                41.1939519360001,37.5985645580001,0
                41.2890427790001,37.609233062,0
                41.3630026370001,37.6172372620001,0
                41.4501570140001,37.6384642030001,0
                41.5716707600001,37.643877477,0
                41.561250612,37.5064964420001,0
                41.4714545100001,37.4852666790001,0
                41.385348923,37.471437699,0
                41.3421171860001,37.3847428060001,0
                41.3501242090001,37.3081412220001,0
                41.471649244,37.3029875930001,0
                41.653891641,37.3375247640001,0
                41.711967277,37.3772127410001,0
                41.7356778980001,37.4379978370001,0
                41.8069819190001,37.459207844,0
                41.8438842370001,37.535857406,0
                41.827901237,37.660001589,0
                41.7776322450001,37.731274566,0
                41.711558053,37.7602629950001,0
                41.608505343,37.78392846,0
                41.4949224200001,37.7732402,0
                41.3681336880001,37.7598961040001,0
                41.251928793,37.730712941,0
                41.1647518390001,37.730619807,0
                40.977169546,37.74891151,0
                40.8899813030001,37.7593852800001,0
                40.8793523100001,37.81749196,0
                40.9268299980001,37.8862276340001,0
                41.0562886770001,37.8731572940001,0
                41.1038030550001,37.907550531,0
                41.1195687430001,37.98681924,0
                41.1036280760001,38.0713375350001,0
                41.0613350610001,38.095067912,0
                40.987327226,38.131973052,0
                40.852599206,38.131829118,0
                40.736332222,38.160763925,0
                40.622735187,38.163284295,0
                40.464242922,38.152548057,0
                40.2951724660001,38.152367434,0
                40.200056223,38.1654744630001,0
                40.1392344390001,38.2235275210001,0
                40.244847029,38.276474928,0
                40.382205486,38.287188588,0
                40.5063553140001,38.297888136,0
                40.617307801,38.2980066700001,0
                40.770533546,38.2928869080001,0
                40.878861241,38.2771522640001,0
                40.9924723880001,38.2614232650001,0
                41.1166673710001,38.2298552,0
                41.2751822130001,38.2194576300001,0
                41.3597371970001,38.2010558600001,0
                41.489195877,38.187985521,0
                41.626607956,38.148506388,0
                41.7058992450001,38.111606893,0
                41.8247853760001,38.1038087160001,0
                41.9093826930001,38.045781058,0
                41.993960255,38.0062454810001,0
                42.0072253290001,37.953425075,0
                41.9650564930001,37.8609195130001,0
                41.941359983,37.7869257880001,0
                41.9759253760001,37.5782661320001,0
                42.0605114040001,37.530805378,0
                42.1582609070001,37.525626349,0
                42.2058345500001,37.504543342,0
                42.266664802,37.4385651060001,0
                42.3380422000001,37.39109024,0
                42.4358396800001,37.3410018710001,0
                42.544167375,37.325267227,0
                42.607588553,37.30684288,0
                42.628863472,37.174779164,0
                42.6025393460001,37.087573987,0
                42.5471251920001,37.02939675,0
                42.4442192390001,36.9156924700001,0
                42.2910245370001,36.891753248,0
                42.103473288,36.880985966,0
                41.9449048230001,36.9415763270001,0
                41.781117819,36.9414013480001,0
                41.6526187370001,36.8805043040001,0
                41.4518174660001,36.908468224,0
                41.328544451,36.901291918,0
                41.152485836,36.84826925,0
                41.036276238,36.823488964,0
                40.9447265110001,36.795212717,0
                40.814329872,36.861997209,0
                40.683978387,36.8865140880001,0
                40.458528533,36.907407064,0
                40.349273226,36.9671695320001,0
                40.215369336,37.019861056,0
                40.070958751,37.0161844730001,0
                39.933589005,37.016037716,0
                39.842012937,37.0124175780001,0
                39.7152703030001,36.9559252920001,0
                39.570889821,36.924070299,0
                39.4476581980001,36.87814868,0
                39.3068188330001,36.828685944,0
                39.1413290040001,36.773913415,0
                39.074501237,36.6840232390001,0
                38.9971423160001,36.5606599110001,0
                38.852720441,36.567550232,0
                38.7294286110001,36.577985432,0
                38.6449423010001,36.5321052040001,0
                38.5217558350001,36.44391597,0
                38.45481706,36.4579336790001,0
                38.4229620680001,36.60231416,0
                38.426356427,36.7220761630001,0
                38.362860932,36.810065959,0
                38.292475116,36.753633881,0
                38.257338652,36.672583323,0
                38.2433962040001,36.535198526,0
                38.141317203,36.4716879790001,0
                38.032174786,36.4257814100001,0
                37.919464911,36.4221386940001,0
                37.859672339,36.3410617960001,0
                37.7893091020001,36.2634959110001,0
                37.6695922540001,36.2246226570001,0
                37.518155881,36.2033270420001,0
                37.5076830520001,36.1152582220001,0
                37.5500221630001,36.0483796560001,0
                37.592376325,35.967411885,0
                37.6698669520001,35.9674946700001,0
                37.7120743570001,36.023896645,0
                37.736643918,36.1049359130001,0
                37.8916326950001,36.098056882,0
                37.8882044690001,36.0099955900001,0
                37.8601276590001,35.914863354,0
                37.7827762640001,35.784455424,0
                37.7899187030001,35.692883119,0
                37.7900127780001,35.6048255900001,0
                37.7266715650001,35.5484010380001,0
                37.6245511710001,35.523635803,0
                37.5188858990001,35.520000612,0
                37.413220627,35.516365422,0
                37.3357300000001,35.516282636,0
                37.314750475,35.3718457100001,0
                37.255010586,35.241456596,0
                37.251601174,35.135783798,0
                37.2376135690001,35.040666614,0
                37.1637167420001,34.9736638690001,0
                37.121520624,34.9066949900001,0
                37.111047795,34.8186261720001,0
                37.0582960630001,34.741079101,0
                36.966821596,34.642356831,0
                36.9493530830001,34.508490571,0
                37.009397774,34.35357329,0
                36.9320426150001,34.2266876620001,0
                36.8300501630001,34.082164187,0
                36.7421130490001,33.969356475,0
                36.6506348190001,33.874156505,0
                36.548623552,33.747244537,0
                36.4465182100001,33.7083900980001,0
                36.3479088290001,33.6941955290001,0
                36.1788534250001,33.6799257010001,0
                36.0768195790001,33.5741475390001,0
                36.0099899320001,33.486018513,0
                36.01361007,33.394442446,0
                35.9220866840001,33.341510091,0
                35.8306084540001,33.2463101210001,0
                35.8554376590001,33.0843106080001,0
                35.8590803760001,32.9716007330001,0
                35.81340335,32.8658827790001,0
                35.936729047,32.823746869,0
                35.9931197330001,32.792106366,0
                36.077813006,32.6442600280001,0
                36.4827910930001,32.725705697,0
                36.5178334820001,32.8948137840001,0
                36.6057103890001,33.063978315,0
                36.743166683,32.9831121450001,0
                36.7996627320001,32.8528472090001,0
                36.901929882,32.740242697,0
                36.9725753430001,32.553635994,0
                36.9058322440001,32.38449404,0
                36.7932089170001,32.2998383980001,0
                36.631122856,32.356022119,0
                36.528908388,32.419314414,0
                36.4723671830001,32.5918469640001,0
                36.032169847,32.506841363,0
                36.00061213,32.3729600520001,0
                36.0359555570001,32.2602840440001,0
                36.0115064120001,32.0665311380001,0
                35.913333537,31.643749632,0
                35.8782008370001,31.559176775,0
                35.8713105160001,31.4147549,0
                35.829257392,31.2139385780001,0
                35.713096713,31.1433683760001,0
                35.68863628,30.9601823740001,0
                35.653623994,30.7628958780001,0
                35.632674573,30.5902805420001,0
                35.576554822,30.3683153600001,0
                35.506327051,30.163946632,0
                35.418435093,30.0088713050001,0
                35.326855262,30.0087734680001,0
                35.302037345,30.160206078,0
                35.3019018790001,30.2870089210001,0
                35.340440228,30.480776877,0
                35.4283585270001,30.6111960960001,0
                35.445702861,30.861298295,0
                35.542391165,31.0251887810001,0
                35.6002664220001,31.252439297,0
                35.674082347,31.3951715170001,0
                35.6844968500001,31.537836004,0
                35.694804107,31.7808860740001,0
                35.647032907,31.9868898930001,0
                35.6416083440001,32.118970543,0
                35.6255434990001,32.319724777,0
                35.6569563410001,32.5892146840001,0
                35.6409761630001,32.710717141,0
                35.5089011580001,32.7000091260001,0
                35.456371442,32.4146462850001,0
                35.456506909,32.287843443,0
                35.4302702730001,32.118744764,0
                35.3775373560001,32.023586187,0
                35.3301951350001,31.828047671,0
                35.272257789,31.6589151260001,0
                35.182574576,31.5320163270001,0
                35.0611398520001,31.4526347280001,0
                34.9079084620001,31.463037942,0
                34.839116344,31.563350148,0
                34.6858905980001,31.56846991,0
                34.5273306010001,31.6211350930001,0
                34.416485358,31.5206309760001,0
                34.263417657,31.377814089,0
                34.1207249490001,31.4146458500001,0
                34.0463950130001,31.488244115,0
                33.950819408,31.5828789170001,0
                33.8313292170001,31.7011929010001,0
                33.7144768310001,31.816895045,0
                33.6081922320001,31.9221334270001,0
                33.5424949380001,32.0760177010001,0
                33.48105702,32.219925141,0
                33.410023761,32.3587550870001,0
                33.334689541,32.5059909840001,0
                33.269949313,32.632521604,0
                33.1687206120001,32.7170783240001,0
                33.067491911,32.801635043,0
                33.017674443,32.8432477640001,0
                32.9165061570001,32.893718673,0
                32.7285083370001,32.9715179500001,0
                32.5329010610001,33.052466812,0
                32.2853295190001,33.102836477,0
                32.165719718,33.127171414,0
                32.0234085540001,33.15612529,0
                31.8563351500001,33.1901174720001,0
                31.7716371660001,33.207349978,0
                31.5216131060001,33.2582214880001,0
                31.493208936,33.267390516,0
                31.4843685820001,33.2702447630001,0
                31.3183622780001,33.323979201,0
                31.305199638,33.3282394340001,0
                31.297162165,33.3308404950001,0
                31.2860267930001,33.3344448330001,0
                31.28191272,33.3357756620001,0
                31.126032364,33.3862502200001,0
                31.1148337440001,33.389876728,0
                30.9384393330001,33.4469996120001,0
                30.882271754,33.4651887680001,0
                30.7333638060001,33.5134109860001,0
                30.5304156510001,33.5791330980001,0
                30.437589458,33.6190473020001,0
                30.384078421,33.6420567050001,0
                30.239976557,33.7040199200001,0
                30.084611523,33.769262434,0
                29.9669361380001,33.818678145,0
                29.9150253820001,33.83853635,0
                29.8098175820001,33.8787830360001,0
                29.642814521,33.863689827,0
                29.4789342400001,33.848878638,0
                29.3055082600001,33.8332047270001,0
                29.1543035720001,33.819539134,0
                29.0496859140001,33.7579785030001,0
                28.888077218,33.6628823820001,0
                28.726268657,33.5676686530001,0
                28.527888568,33.54337436,0
                28.386692759,33.5260830450001,0
                28.2393860010001,33.5080433640001,0
                28.0847912950001,33.50522657,0
                27.9264275840001,33.502341103,0
                27.746810737,33.4990683930001,0
                27.5674737350001,33.4707193360001,0
                27.328191528,33.4328943200001,0
                27.1428926680001,33.4036028300001,0
                26.993620532,33.3800063370001,0
                26.7955796100001,33.3757978960001,0
                26.5738762290001,33.37108662,0
                26.29925388,33.365250797,0
                26.091858528,33.360843571,0
                25.9082884470001,33.3934096400001,0
                25.6747249100001,33.43484475,0
                25.523465243,33.4616788220001,0
                25.235032088,33.512848021,0
                25.080696249,33.5402278190001,0
                24.861979461,33.5453358770001,0
                24.7219736650001,33.5486056660001,0
                24.605280657,33.526615554,0
                24.4704454490001,33.5012066520001,0
                24.3691087450001,33.5067188720001,0
                24.2429274150001,33.5524496830001,0
                24.1338604320001,33.591977888,0
                24.026158401,33.6256481980001,0
                23.834546635,33.685550763,0
                23.677704304,33.734583544,0
                23.5420202620001,33.7794861100001,0
                23.367523767,33.8372330660001,0
                23.239230052,33.879689915,0
                23.110274039,33.9497090950001,0
                22.950554341,34.036432017,0
                22.7804558280001,34.128790318,0
                22.6232111480001,34.21416938,0
                22.468458254,34.2845092650001,0
                22.330723183,34.347114033,0
                22.2124946920001,34.400852469,0
                22.068000462,34.466529479,0
                21.96251505,34.514475799,0
                21.852027488,34.564695747,0
                21.723243699,34.6310793100001,0
                21.54675468,34.7220532600001,0
                21.3849393240001,34.805463446,0
                21.2499581910001,34.875041524,0
                21.1258072740001,34.886214361,0
                21.0143252780001,34.8962470710001,0
                20.8885875490001,34.9075627120001,0
                20.7658068160001,34.9096382980001,0
                20.596598049,34.9124987430001,0
                20.501430032,34.9141075420001,0
                20.418512166,34.915509254,0
                20.258870211,34.9329423410001,0
                20.0320825540001,34.9577078140001,0
                19.798923012,34.983169106,0
                19.6528122390001,34.999124572,0
                19.4612881030001,35.062739482,0
                19.2726018590001,35.1254117830001,0
                19.0823307810001,35.188610489,0
                18.8682746010001,35.2597094380001,0
                18.6795891890001,35.3223814630001,0
                18.514686383,35.3771540750001,0
                18.343442103,35.434033013,0
                18.208340069,35.4789072720001,0
                18.2504153530001,35.6196804580001,0
                18.1597050550001,36.21730683,0
                18.1868213000001,36.4861343250001,0
                18.223634761,36.979178113,0
                18.183759294,37.4097869710001,0
                18.4476292950001,38.0884358910001,0
                18.6248798820001,38.5063172750001,0
                18.815114985,39.0910602220001,0
                18.8409575580001,39.340300617,0
                18.8122818460001,39.839450749,0
                18.8929675540001,40.14085615,0
                19.0272442610001,40.1396019060001,0
                19.222613987,40.1188674090001,0
                19.3866562320001,40.091609109,0
                19.5369310520001,40.070569935,0
                19.6640406230001,39.9860742340001,0
                19.860423541,39.8940658340001,0
                19.879363847,39.8197974760001,0
                19.904607701,39.744679944,0
                20.0182329580001,39.7157423150001,0
                20.0790434530001,39.6682561600001,0
                20.0791365870001,39.5810792070001,0
                20.1267582090001,39.5150868600001,0
                20.171771972,39.4173909800001,0
                20.227296193,39.372540907,0
                20.2775172080001,39.3461772700001,0
                20.351485532,39.3462562930001,0
                20.3884979170001,39.3198785450001,0
                20.4677158270001,39.351663923,0
                20.5258027510001,39.380784997,0
                20.5575853070001,39.3042088130001,0
                20.578795315,39.2329047920001,0
                20.652735417,39.259401074,0
                20.710774364,39.333431487,0
                20.7873505480001,39.365214043,0
                20.816488555,39.2912767620001,0
                20.895760087,39.2728693490001,0
                20.9247541600001,39.333660088,0
                20.943153108,39.420856798,0
                21.0117701680001,39.4844058470001,0
                21.0116827580001,39.5662251000001,0
                20.969330476,39.6454317210001,0
                20.9692175870001,39.751100756,0
                20.86783948,39.855781031,0
                20.7374127360001,39.9507439320001,0
                20.6668914530001,40.021114696,0
                20.6632901290001,40.0950792580001,0
                20.6103803510001,40.165468837,0
                20.5187553650001,40.2076386140001,0
                20.423593026,40.2638938320001,0
                20.395354409,40.3202205470001,0
                20.303748237,40.3447788180001,0
                20.2226901540001,40.3869598840001,0
                20.1345686540001,40.446744929,0
                20.1133482980001,40.5277352780001,0
                20.2154649280001,40.5560228150001,0
                20.2118711310001,40.6229427740001,0
                20.0532358740001,40.7460539800001,0
                19.9861503430001,40.8974414350001,0
                19.9296919240001,40.9924833590001,0
                20.0176741930001,41.063023457,0
                20.0175650670001,41.1651701910001,0
                19.908328575,41.2073211530001,0
                19.809700379,41.2107380910001,0
                19.763838967,41.2776128950001,0
                19.7778228080001,41.37625238,0
                19.774198907,41.4713507490001,0
                19.7458925560001,41.5910788850001,0
                19.854997344,41.6722084640001,0
                19.900723289,41.732136503,0
                19.882998893,41.8377867240001,0
                19.8160036740001,41.90463895,0
                19.748997166,41.9820580790001,0
                19.6925462730001,42.0700554000001,0
                19.6114279830001,42.168593285,0
                19.748767625,42.196918451,0
                19.843741815,42.316778292,0
                19.9669960160001,42.341566104,0
                20.01975151,42.415590874,0
                20.1113012370001,42.44386712,0
                20.1781835670001,42.4826839300001,0
                20.294442084,42.4616743010001,0
              </coordinates>
            </LinearRing>
          </outerBoundaryIs>
        </Polygon>
      </Placemark>
    </Document>
  </Document>
</kml>
