<?xml version="1.0" encoding="UTF-8"?>
<kml xmlns="http://www.opengis.net/kml/2.2">
  <Document id="root_doc">
    <Schema id="Bioregions_PA19.schema">
      <SimpleField name="OBJECTID" type="float"/>
      <SimpleField name="Shape_Leng" type="float"/>
      <SimpleField name="Shape_Area" type="float"/>
      <SimpleField name="Bioregions" type="string"/>
    </Schema>
    <Document id="Bioregions_PA19">
      <name>Bioregions_PA19</name>
      <Placemark id="Bioregions_PA19.1">
        <ExtendedData>
          <SchemaData schemaUrl="#Bioregions_PA19.schema">
            <SimpleData name="OBJECTID">141</SimpleData>
            <SimpleData name="Shape_Leng">57.67445400660</SimpleData>
            <SimpleData name="Shape_Area">101.40495347300</SimpleData>
            <SimpleData name="Bioregions">PA19</SimpleData>
          </SchemaData>
        </ExtendedData>
        <Polygon>
          <outerBoundaryIs>
            <LinearRing>
              <coordinates>
                14.004479734,45.764160282,0
                14.086381703,45.756322594,0
                14.1629522430001,45.7933886010001,0
                14.19471222,45.737946224,0
                14.165749191,45.6480965000001,0
                14.136730658,45.6102007170001,0
                14.073333941,45.605730108,0
                13.972920135,45.632040121,0
                13.891026632,45.631952632,0
                13.846151159,45.600203944,0
                13.859472678,45.494549019,0
                13.912391863,45.415353688,0
                14.0154699720001,45.367912689,0
                14.1000701130001,45.307243305,0
                14.14221637,45.420882674,0
                14.126303926,45.4789837100001,0
                14.2028970430001,45.494915909,0
                14.2953997830001,45.4553888,0
                14.406388959,45.421164897,0
                14.5359266610001,45.3341262320001,0
                14.636379979,45.2708320560001,0
                14.763287243,45.1732236650001,0
                14.86776665,45.05049489,0
                14.8731206570001,44.9844573880001,0
                14.8546963100001,44.9210362100001,0
                14.8402444290001,44.8483732270001,0
                14.852208396,44.7770593280001,0
                14.8813337030001,44.7150098130001,0
                14.9712455160001,44.6279288160001,0
                15.0479218900001,44.565930102,0
                15.095518112,44.5237132880001,0
                15.169542881,44.470957793,0
                15.248844047,44.424812257,0
                15.347963801,44.373404436,0
                15.4298968150001,44.336507763,0
                15.562031087,44.291739534,0
                15.67300333,44.273365987,0
                15.778720343,44.2285695370001,0
                15.8976205860001,44.2075627300001,0
                15.9927029630001,44.2261564120001,0
                16.06409165,44.1681146430001,0
                16.1539244420001,44.1550019690001,0
                16.222685515,44.0837487480001,0
                16.3072800100001,44.028362816,0
                16.2914691660001,43.991361721,0
                16.2254683530001,43.951665276,0
                16.220238523,43.9014668400001,0
                16.262573871,43.838110575,0
                16.3313236560001,43.7774242570001,0
                16.4264540090001,43.7511085990001,0
                16.5109666600001,43.772332718,0
                16.5161852000001,43.8330980580001,0
                16.561063496,43.86220502,0
                16.6430247320001,43.7988910880001,0
                16.756785457,43.6431506170001,0
                16.8070685600001,43.5586690110001,0
                16.9735029350001,43.5535633600001,0
                16.949665313,43.61165593,0
                16.904693884,43.6697259210001,0
                16.867653277,43.7225209270001,0
                16.8306013810001,43.785882837,0
                16.796213788,43.828113762,0
                16.719519071,43.9072836940001,0
                16.6824699970001,43.968003878,0
                16.846235365,43.988432088,0
                16.946747009,43.870542244,0
                17.0525345780001,43.7597026460001,0
                17.0791183480001,43.6038690410001,0
                17.1821654130001,43.5854870270001,0
                17.204251292,43.5185868230001,0
                17.295861227,43.4905062510001,0
                17.401537788,43.4835745390001,0
                17.5953132720001,43.4379915870001,0
                17.669266545,43.452159814,0
                17.7995502950001,43.4910443570001,0
                17.8207894660001,43.3924425020001,0
                17.856110315,43.3009003010001,0
                17.9477917460001,43.205896007,0
                18.000686472,43.149595633,0
                18.1063743230001,43.132097016,0
                18.1979616790001,43.125150252,0
                18.286053075,43.093543615,0
                18.4128935470001,43.0584560710001,0
                18.420017172,42.9844952720001,0
                18.4201225360001,42.8858708390001,0
                18.444838852,42.8295403600001,0
                18.539944747,42.8261196600001,0
                18.6350544040001,42.819176659,0
                18.7653644960001,42.8334050930001,0
                18.8780367410001,42.8722708220001,0
                18.9556063900001,42.7983852830001,0
                18.9556703600001,42.7385061630001,0
                18.9768606120001,42.685694223,0
                19.0790600280001,42.6364911320001,0
                19.170677488,42.601365958,0
                19.301028973,42.5768490790001,0
                19.301123047,42.48879155,0
                19.371644331,42.4184207860001,0
                19.4597319640001,42.390336452,0
                19.516182858,42.3023391300001,0
                19.54093304,42.2143079410001,0
                19.6114279830001,42.168593285,0
                19.6925462730001,42.0700554000001,0
                19.748997166,41.9820580790001,0
                19.8160036740001,41.90463895,0
                19.882998893,41.8377867240001,0
                19.900723289,41.732136503,0
                19.854997344,41.6722084640001,0
                19.7458925560001,41.5910788850001,0
                19.774198907,41.4713507490001,0
                19.7778228080001,41.37625238,0
                19.763838967,41.2776128950001,0
                19.809700379,41.2107380910001,0
                19.908328575,41.2073211530001,0
                20.0175650670001,41.1651701910001,0
                20.0176741930001,41.063023457,0
                19.9296919240001,40.9924833590001,0
                19.9861503430001,40.8974414350001,0
                20.0532358740001,40.7460539800001,0
                20.2118711310001,40.6229427740001,0
                20.2154649280001,40.5560228150001,0
                20.1133482980001,40.5277352780001,0
                20.1345686540001,40.446744929,0
                20.2226901540001,40.3869598840001,0
                20.303748237,40.3447788180001,0
                20.395354409,40.3202205470001,0
                20.423593026,40.2638938320001,0
                20.5187553650001,40.2076386140001,0
                20.6103803510001,40.165468837,0
                20.6632901290001,40.0950792580001,0
                20.6668914530001,40.021114696,0
                20.7374127360001,39.9507439320001,0
                20.86783948,39.855781031,0
                20.9692175870001,39.751100756,0
                20.969330476,39.6454317210001,0
                21.0116827580001,39.5662251000001,0
                21.0117701680001,39.4844058470001,0
                20.943153108,39.420856798,0
                20.9247541600001,39.333660088,0
                20.895760087,39.2728693490001,0
                20.816488555,39.2912767620001,0
                20.7873505480001,39.365214043,0
                20.710774364,39.333431487,0
                20.652735417,39.259401074,0
                20.578795315,39.2329047920001,0
                20.5575853070001,39.3042088130001,0
                20.5258027510001,39.380784997,0
                20.4677158270001,39.351663923,0
                20.3884979170001,39.3198785450001,0
                20.351485532,39.3462562930001,0
                20.2775172080001,39.3461772700001,0
                20.227296193,39.372540907,0
                20.171771972,39.4173909800001,0
                20.1267582090001,39.5150868600001,0
                20.0791365870001,39.5810792070001,0
                20.0790434530001,39.6682561600001,0
                20.0182329580001,39.7157423150001,0
                19.904607701,39.744679944,0
                19.879363847,39.8197974760001,0
                19.860423541,39.8940658340001,0
                19.6640406230001,39.9860742340001,0
                19.5369310520001,40.070569935,0
                19.3866562320001,40.091609109,0
                19.222613987,40.1188674090001,0
                19.0272442610001,40.1396019060001,0
                18.8929675540001,40.14085615,0
                18.8122818460001,39.839450749,0
                18.8409575580001,39.340300617,0
                18.815114985,39.0910602220001,0
                18.6248798820001,38.5063172750001,0
                18.4476292950001,38.0884358910001,0
                18.183759294,37.4097869710001,0
                18.223634761,36.979178113,0
                18.1868213000001,36.4861343250001,0
                18.1597050550001,36.21730683,0
                18.2504153530001,35.6196804580001,0
                18.208340069,35.4789072720001,0
                18.058239653,35.4105044360001,0
                17.9126128090001,35.344140269,0
                17.7701657010001,35.279225151,0
                17.6022549420001,35.2027058950001,0
                17.501189959,35.156649185,0
                17.397517238,35.109404092,0
                17.2695930690001,35.0441836590001,0
                17.1158432440001,34.9657963600001,0
                16.9517119330001,34.8821161990001,0
                16.808487207,34.809094981,0
                16.6486222890001,34.7275899840001,0
                16.484638074,34.643984817,0
                16.3214322110001,34.5905597930001,0
                16.1133547480001,34.522446164,0
                15.935578945,34.464251706,0
                15.7264700640001,34.3958004450001,0
                15.526571545,34.360839431,0
                15.284464165,34.3184963480001,0
                15.0901662910001,34.284514852,0
                15.0819420280001,34.4437011680001,0
                15.0758984510001,34.560678802,0
                14.890085449,34.5765259770001,0
                14.7056111860001,34.592258977,0
                14.5502233500001,34.6055113240001,0
                14.345428639,34.634824006,0
                14.183461193,34.6580067360001,0
                14.045137063,34.67780535,0
                13.9694345840001,34.688640799,0
                13.8073527080001,34.7312681510001,0
                13.6620134070001,34.769492223,0
                13.617945746,34.926115451,0
                13.577652953,35.0693222250001,0
                13.5442083500001,35.188189477,0
                13.596985117,35.241974935,0
                13.4819391890001,35.357829419,0
                13.331925181,35.5088977410001,0
                13.200304526,35.6414434390001,0
                13.11320915,35.729150931,0
                13.049802605,35.7627418440001,0
                12.98590948,35.7965905340001,0
                12.959827773,35.7548329640001,0
                12.924308508,35.7271965140001,0
                12.883426618,35.711021703,0
                12.8412595880001,35.703651198,0
                12.7956897080001,35.7026418,0
                12.7411156590001,35.709085433,0
                12.7606723980001,35.6752630390001,0
                12.7762746990001,35.6438590550001,0
                12.7944513460001,35.5964089550001,0
                12.8031086710001,35.5603459290001,0
                12.8062092100001,35.528760972,0
                12.7946749500001,35.464365473,0
                12.747102113,35.4089802990001,0
                12.7046760010001,35.3767903880001,0
                12.6697041510001,35.358915881,0
                12.6335381480001,35.346646084,0
                12.5814668960001,35.337684934,0
                12.5388099210001,35.336520541,0
                12.506338731,35.338762054,0
                12.4745942600001,35.343265246,0
                12.414615574,35.3573406520001,0
                12.3616392230001,35.3752742400001,0
                12.318173356,35.3936798510001,0
                12.268444233,35.419392535,0
                12.2087143210001,35.428191348,0
                12.171293797,35.437069674,0
                12.138398151,35.447792463,0
                12.094645842,35.4681001550001,0
                12.060548636,35.4915279590001,0
                12.0299681290001,35.5235005100001,0
                12.010374842,35.556965959,0
                11.9956509240001,35.6191111960001,0
                12.0031291870001,35.6864681550001,0
                12.020713072,35.7244595970001,0
                12.04266718,35.7555919550001,0
                12.070577245,35.78234329,0
                12.1017733850001,35.8025002730001,0
                12.1330502050001,35.816070331,0
                12.1655534760001,35.8251944150001,0
                12.2155126870001,35.8319785750001,0
                12.2636765830001,35.832199948,0
                12.31074097,35.8276047680001,0
                12.3487985040001,35.820766964,0
                12.3835480280001,35.8118505910001,0
                12.475196946,35.8223766260001,0
                12.5371529880001,35.829492384,0
                12.497821174,35.874640201,0
                12.4774706870001,35.9195411200001,0
                12.4727127840001,35.951365524,0
                12.474917309,35.9822339200001,0
                12.4845259580001,36.0163331640001,0
                12.4990073380001,36.046665241,0
                12.516991182,36.0744610740001,0
                12.5567669390001,36.120584109,0
                12.6046637640001,36.1619446660001,0
                12.5645428510001,36.19982686,0
                12.513855053,36.2476863160001,0
                12.437390699,36.3198840150001,0
                12.4354166270001,36.3843404150001,0
                12.4338563760001,36.435285021,0
                12.368646401,36.515324304,0
                12.3001146080001,36.599440815,0
                12.236872407,36.6770648350001,0
                12.198687493,36.723933324,0
                12.1630223400001,36.6912198860001,0
                12.128182107,36.663242831,0
                12.0811695460001,36.63171973,0
                12.035900713,36.60813934,0
                12.000901388,36.594486439,0
                11.967124862,36.585126406,0
                11.933932489,36.579618225,0
                11.902110248,36.577819677,0
                11.842766754,36.5837962620001,0
                11.7974774960001,36.5968444330001,0
                11.756706625,36.6152480170001,0
                11.7251607040001,36.634122474,0
                11.6973383330001,36.6544184270001,0
                11.6534592420001,36.6944195660001,0
                11.6169286640001,36.738072038,0
                11.598430197,36.767584361,0
                11.584008953,36.7956436260001,0
                11.566482804,36.8475376330001,0
                11.563771844,36.9074881560001,0
                11.5802843930001,36.9587382340001,0
                11.599927689,36.9883731520001,0
                11.6335160780001,37.02186182,0
                11.6736792630001,37.04996758,0
                11.713105969,37.0709409460001,0
                11.7536944080001,37.0881886650001,0
                11.787370504,37.1000466340001,0
                11.819310085,37.1096362260001,0
                11.8855115110001,37.1251385100001,0
                11.912072058,37.1296413860001,0
                11.869531178,37.20429883,0
                11.7967796990001,37.307321836,0
                11.7561618340001,37.3648405920001,0
                11.721971458,37.4132574130001,0
                11.636771998,37.465671033,0
                11.5854124000001,37.4972668010001,0
                11.526902653,37.542401356,0
                11.46651595,37.5889837980001,0
                11.404122838,37.6371139890001,0
                11.316551813,37.7046664810001,0
                11.242924757,37.7614625620001,0
                11.154643074,37.829563256,0
                11.055338857,37.906166758,0
                10.9655601330001,37.975422274,0
                10.8400732160001,38.0722231720001,0
                10.768210432,38.1276582900001,0
                10.71290007,38.230712506,0
                10.648714393,38.3503032020001,0
                10.6084431630001,38.4253365220001,0
                10.58787082,38.463666893,0
                10.4656599690001,38.4372384170001,0
                10.3170589370001,38.4051029820001,0
                10.1624508460001,38.371668501,0
                10.0302088060001,38.3430707480001,0
                9.92825875600005,38.3210237330001,0
                9.83048546600003,38.2998799550001,0
                9.69694051400006,38.293566884,0
                9.59616641400004,38.2888029900001,0
                9.53215500400006,38.304743462,0
                9.43696838600005,38.328447354,0
                9.30639100100007,38.3194417020001,0
                9.17245358000002,38.3102043160001,0
                9.01349814500003,38.2992414890001,0
                8.84800764700003,38.287827952,0
                8.74049294300005,38.2804128860001,0
                8.57800751100007,38.253288094,0
                8.41963273200003,38.2268495220001,0
                8.29699741300004,38.2011133770001,0
                8.16454082300004,38.1733161500001,0
                8.01717698800007,38.1423905,0
                7.84407937600002,38.1060643820001,0
                7.71390874000002,38.0787468830001,0
                7.57321075200002,38.130363478,0
                7.43929566300005,38.179491693,0
                7.30734158700005,38.227900489,0
                7.16836270100004,38.2788864130001,0
                7.04571811900007,38.32387992,0
                6.86068496200005,38.3917613570001,0
                6.72676972700003,38.4408896260001,0
                6.61569470100005,38.504146765,0
                6.50560172700006,38.5668446270001,0
                6.35677772900004,38.6515997750001,0
                6.20986302900008,38.7352675810001,0
                6.06180100400007,38.8195887850001,0
                5.97334010000003,38.8699672000001,0
                6.00197112600006,38.9811486900001,0
                6.03445535000003,39.1072931190001,0
                6.06802472400005,39.2376514600001,0
                6.09624238800006,39.347227762,0
                6.13617555400003,39.5022983060001,0
                6.16599149100006,39.618081105,0
                6.18465852900005,39.6905699220001,0
                6.18545109600007,39.794272214,0
                6.18613781300007,39.884124899,0
                6.18714705800005,40.0161780290001,0
                6.18775632200004,40.09589649,0
                6.13713488700006,40.2528816510001,0
                6.09412421400003,40.3862646220001,0
                6.05408556100002,40.5104308850001,0
                6.02267315700004,40.6078457730001,0
                5.97463444700003,40.7568214880001,0
                5.91514670000004,40.9413024990001,0
                5.87651752100004,41.061097755,0
                5.82238539700006,41.228970127,0
                5.76230139700004,41.318977772,0
                5.86316274900003,41.375478802,0
                5.97792027400004,41.4397642600001,0
                6.07149416500005,41.4921829620001,0
                6.16893325200004,41.546766888,0
                6.27355265100005,41.60537312,0
                6.37919747200004,41.664553778,0
                6.50488292200004,41.7349608970001,0
                6.63261914300006,41.806516828,0
                6.73992121700007,41.8666258540001,0
                6.81293778300005,41.907528648,0
                6.82449405700004,42.0562549810001,0
                6.83670622100004,42.213422458,0
                6.84862498900003,42.3668139970001,0
                6.86216508900003,42.5410716710001,0
                6.87187555300005,42.666042906,0
                6.88254872200002,42.8034039,0
                6.89167223800007,42.9208212570001,0
                6.89895586600005,43.0145597220001,0
                6.90688737800002,43.116636267,0
                6.91045580700006,43.162561055,0
                6.92277188800006,43.321065923,0
                6.92971922300006,43.41047637,0
                6.93499477000006,43.4783713400001,0
                6.94369952500006,43.5903993430001,0
                6.90668525900003,43.6185382410001,0
                6.85909091900004,43.6589939040001,0
                6.81325396600005,43.7029737500001,0
                6.88541974700007,43.741796204,0
                6.98223599200003,43.7859284510001,0
                7.04384804100005,43.812411561,0
                7.05434721100005,43.8758242710001,0
                7.05427571500007,43.9427479940001,0
                7.09650381700004,43.9797773120001,0
                7.15108819700004,43.990402542,0
                7.23387920800008,43.974640617,0
                7.31135290000003,43.990573758,0
                7.39765116000007,43.9889048000001,0
                7.39751945600005,44.112185342,0
                7.45470416900002,44.161558707,0
                7.53926762000003,44.1352317590001,0
                7.55523086400007,44.0295796570001,0
                7.68461898800007,44.0825524640001,0
                7.68457665500006,44.122178352,0
                7.65807472900002,44.2014019060001,0
                7.84299554000006,44.201599463,0
                7.89579054600006,44.23864007,0
                7.95651637600002,44.2704056920001,0
                7.99608299700003,44.325924269,0
                8.05154512900003,44.339192166,0
                8.11493808400007,44.3471850770001,0
                8.16245810500004,44.3762948610001,0
                8.16764277800007,44.4687609120001,0
                8.12534129700003,44.500416467,0
                8.03816434400005,44.500323333,0
                7.96421577500007,44.48175223,0
                7.85590501300004,44.4816365180001,0
                7.74754909600006,44.5237884210001,0
                7.53620538000007,44.5288460940001,0
                7.42001459700003,44.486454301,0
                7.37507985800005,44.510181856,0
                7.37498390100006,44.600000536,0
                7.34320981300004,44.6686515430001,0
                7.29029909500002,44.7399216970001,0
                7.23473818400004,44.819114207,0
                7.30363492000004,45.044221421,0
                7.43031171200005,45.053093747,0
                7.42305429700002,44.93819319,0
                7.41171124000005,44.8404371030001,0
                7.44877442500007,44.76650829,0
                7.50961032100003,44.6952466020001,0
                7.58889972800006,44.660108257,0
                7.70749907900006,44.6604709790001,0
                7.71565929600007,44.700750188,0
                7.76312287200005,44.78269449,0
                7.71817119900004,44.8222724010001,0
                7.69699223600003,44.8645174370001,0
                7.71538271700007,44.9596393250001,0
                7.76555293000007,44.9808267540001,0
                7.83950149900005,44.9993978580001,0
                7.87640663900004,45.073405694,0
                7.90012008300005,45.1315490640001,0
                8.01371429600005,45.13167042,0
                8.10617470200003,45.131769198,0
                8.18013738300004,45.1371316730001,0
                8.29373159600004,45.137253028,0
                8.29384166300002,45.0342257190001,0
                8.22786342700005,44.973395468,0
                8.25435124200004,44.907380543,0
                8.39964052100004,44.912819217,0
                8.51322062300005,44.9261492030001,0
                8.57667284400003,44.8786658710001,0
                8.66649999100002,44.8708366490001,0
                8.72460384900006,44.8841073670001,0
                8.75360921200007,44.934331204,0
                8.82224328400002,44.9819556480001,0
                8.90144990500005,45.024307929,0
                8.98064805900003,45.0745853880001,0
                9.12856213100002,45.095877241,0
                9.24480371500005,45.090717967,0
                9.37957406800007,45.0512360130001,0
                9.49584951800006,45.0143760280001,0
                9.63851964900005,44.9986780740001,0
                9.77064263300002,44.964476749,0
                9.95297816300007,44.9118369650001,0
                10.077201369,44.8538516410001,0
                10.1723345460001,44.8248942560001,0
                10.2674649,44.7985785990001,0
                10.3810929800001,44.766999244,0
                10.515852045,44.7380841930001,0
                10.68233722,44.685427476,0
                10.8197549440001,44.6406648920001,0
                10.943975328,44.585321293,0
                11.1262657030001,44.574949125,0
                11.287427915,44.5592709260001,0
                11.3878586550001,44.517110556,0
                11.5411944680001,44.4089634850001,0
                11.6574727400001,44.369461775,0
                11.784343316,44.30619582,0
                11.9614433730001,44.2086410520001,0
                12.061840245,44.1981813940001,0
                12.2309699690001,44.142885774,0
                12.3507835990001,44.1156389540001,0
                12.414442797,44.143696226,0
                12.521608374,44.2143338230001,0
                12.617038226,44.2772358830001,0
                12.725950471,44.3490247870001,0
                12.823854064,44.4135574000001,0
                12.918072937,44.475661249,0
                13.0397613910001,44.5558715220001,0
                13.0206577700001,44.7081250910001,0
                13.0038926450001,44.8417411300001,0
                12.9881051410001,44.9675656470001,0
                12.9787350140001,45.0422444280001,0
                12.9466462180001,45.148554592,0
                12.9165049160001,45.2484127110001,0
                12.956661877,45.314700368,0
                12.9881256360001,45.366638036,0
                13.063959938,45.4520771970001,0
                13.115429158,45.5100652950001,0
                13.2217419140001,45.571498293,0
                13.2970459750001,45.6150128670001,0
                13.2793306950001,45.713209197,0
                13.305709371,45.7951145120001,0
                13.3443312860001,45.8583222090001,0
                13.370318766,45.9008526920001,0
                13.4310163710001,45.9590355730001,0
                13.47966001,45.986127864,0
                13.526062059,46.011971691,0
                13.615880739,46.012067647,0
                13.6978109300001,45.9778127000001,0
                13.861623336,45.954212146,0
                13.872269261,45.8802551090001,0
                13.933122091,45.793143066,0
                14.004479734,45.764160282,0
              </coordinates>
            </LinearRing>
          </outerBoundaryIs>
        </Polygon>
      </Placemark>
    </Document>
  </Document>
</kml>
