<?xml version="1.0" encoding="UTF-8"?>
<kml xmlns="http://www.opengis.net/kml/2.2">
  <Document id="root_doc">
    <Schema id="Bioregions_PA2.schema">
      <SimpleField name="OBJECTID" type="float"/>
      <SimpleField name="Shape_Leng" type="float"/>
      <SimpleField name="Shape_Area" type="float"/>
      <SimpleField name="Bioregions" type="string"/>
    </Schema>
    <Document id="Bioregions_PA2">
      <name>Bioregions_PA2</name>
      <Placemark id="Bioregions_PA2.1">
        <ExtendedData>
          <SchemaData schemaUrl="#Bioregions_PA2.schema">
            <SimpleData name="OBJECTID">177</SimpleData>
            <SimpleData name="Shape_Leng">56.69793490840</SimpleData>
            <SimpleData name="Shape_Area">163.32667502400</SimpleData>
            <SimpleData name="Bioregions">PA2</SimpleData>
          </SchemaData>
        </ExtendedData>
        <Polygon>
          <outerBoundaryIs>
            <LinearRing>
              <coordinates>
                -17.9848001829999,60.1154483820001,0
                -18.076055008,60.1120651040001,0
                -18.167574605,60.109388562,0
                -18.2593269829999,60.107440937,0
                -18.351280151,60.1062444090001,0
                -18.4177310819999,60.1058600640001,0
                -18.4842578669999,60.105886588,0
                -18.5508484919999,60.106332314,0
                -18.617490941,60.1072055700001,0
                -18.711865625,60.1091881850001,0
                -18.8062859779999,60.112067294,0
                -18.893218104,60.099270893,0
                -19.00127269,60.086049245,0
                -19.071269032,60.0785415980001,0
                -19.1518435639999,60.070744276,0
                -19.217239427,60.0650083420001,0
                -19.2882134229999,60.0593309220001,0
                -19.3647458249999,60.053801644,0
                -19.446816901,60.048510143,0
                -19.531286923,60.04371122,0
                -19.6208831389999,60.0392981110001,0
                -19.7155877939999,60.0353514650001,0
                -19.815383136,60.0319519400001,0
                -19.888637371,60.0299315760001,0
                -19.964396581,60.028250056,0
                -20.042654582,60.026935468,0
                -20.123405192,60.026015902,0
                -20.1765496049999,60.0256468320001,0
                -20.230716877,60.0254595270001,0
                -20.2859053719999,60.0254614180001,0
                -20.3421134549999,60.0256599320001,0
                -20.42561367,60.026314185,0
                -20.5112588009999,60.027422206,0
                -20.5990438279999,60.0290067970001,0
                -20.6889637319999,60.03109076,0
                -20.7584560559999,60.033014538,0
                -20.8291669339999,60.0352474970001,0
                -20.901094187,60.03779953,0
                -20.974235638,60.0406805320001,0
                -21.045191533,60.0437469280001,0
                -21.117250133,60.047130764,0
                -21.1904095419999,60.050840647,0
                -21.264667867,60.0548851870001,0
                -21.3358083099999,60.0590200890001,0
                -21.407925679,60.0634684300001,0
                -21.4810183769999,60.0682374620001,0
                -21.555084807,60.073334436,0
                -21.636711213,60.0792563040001,0
                -21.719484592,60.085583677,0
                -21.8034028939999,60.0923258770001,0
                -21.888464068,60.0994922200001,0
                -21.9569963779999,60.105506738,0
                -22.026250666,60.1118006720001,0
                -22.0962258929999,60.1183787240001,0
                -22.166921026,60.1252455950001,0
                -22.2657918529999,60.1352183930001,0
                -22.3660325819999,60.145764055,0
                -22.4589620629999,60.155927052,0
                -22.5530343629999,60.166589678,0
                -22.648247386,60.1777614390001,0
                -22.74459904,60.1894518410001,0
                -22.831154093,60.200280681,0
                -22.9186047549999,60.211533059,0
                -22.987810113,60.2206579290001,0
                -23.057564648,60.230050583,0
                -23.127867652,60.239714237,0
                -23.1987184189999,60.249652107,0
                -23.259764289,60.258373857,0
                -23.321210079,60.267300656,0
                -23.3830553449999,60.2764345200001,0
                -23.445299645,60.2857774620001,0
                -23.510727999,60.295759832,0
                -23.576590551,60.3059747090001,0
                -23.642886797,60.316424387,0
                -23.709616233,60.327111158,0
                -23.7648366729999,60.3360821700001,0
                -23.820349666,60.3452164710001,0
                -23.8761549279999,60.3545153360001,0
                -23.9322521789999,60.363980041,0
                -23.993697937,60.3744813770001,0
                -24.0554895449999,60.385182705,0
                -24.117626639,60.396085677,0
                -24.1801088559999,60.407191944,0
                -24.235289724,60.408170064,0
                -24.3021272899999,60.4101888600001,0
                -24.393228705,60.413935167,0
                -24.4566657999999,60.4171109820001,0
                -24.5275166599999,60.421151196,0
                -24.6055025909999,60.4261595610001,0
                -24.690344899,60.4322398320001,0
                -24.7453809469999,60.436522247,0
                -24.802804179,60.4412662560001,0
                -24.862551222,60.4464954530001,0
                -24.9245587,60.4522334320001,0
                -24.986590823,60.458286194,0
                -25.050618882,60.464857785,0
                -25.1165856279999,60.471969518,0
                -25.1844338069999,60.4796427100001,0
                -25.282626826,60.491387994,0
                -25.333018922,60.497708657,0
                -25.3842484369999,60.5043377920001,0
                -25.4402166839999,60.51181453,0
                -25.4971048859999,60.51966516,0
                -25.554888556,60.5278987990001,0
                -25.6135432,60.5365245630001,0
                -25.7135008979999,60.5518490370001,0
                -25.7643315239999,60.559945306,0
                -25.81571092,60.5683380350001,0
                -25.877805612,60.578763017,0
                -25.9406390189999,60.5896280040001,0
                -26.00418672,60.600942086,0
                -26.068424297,60.612714355,0
                -26.126017853,60.623558024,0
                -26.1841189099999,60.6347764240001,0
                -26.2427103799999,60.6463759170001,0
                -26.3017751689999,60.658362868,0
                -26.36304903,60.671112856,0
                -26.424787637,60.6842870510001,0
                -26.486972351,60.69789239,0
                -26.549584528,60.7119358150001,0
                -26.6147397629999,60.7269211810001,0
                -26.680311294,60.7423897890001,0
                -26.7462785289999,60.758349308,0
                -26.8126208739999,60.7748074030001,0
                -26.886729451,60.793683076,0
                -26.961247242,60.813193911,0
                -27.0361460199999,60.8333504180001,0
                -27.111397559,60.8541631040001,0
                -27.171418489,60.871173771,0
                -27.2316301239999,60.8886105550001,0
                -27.2920183099999,60.906478722,0
                -27.352568891,60.9247835460001,0
                -27.4289614749999,60.9484428150001,0
                -27.505560529,60.97281216,0
                -27.5823378549999,60.997902079,0
                -27.65926526,61.023723067,0
                -27.714797147,61.042796003,0
                -27.770381807,61.0622582280001,0
                -27.826008681,61.0821136760001,0
                -27.8816672049999,61.102366278,0
                -27.9523583279999,61.128656617,0
                -28.023061828,61.1556014710001,0
                -28.093756094,61.183208886,0
                -28.1644195109999,61.211486909,0
                -28.246705165,61.2452999060001,0
                -28.3288853519999,61.280047408,0
                -28.3966775649999,61.3094693210001,0
                -28.464355144,61.3395449870001,0
                -28.531898795,61.37028159,0
                -28.5992892249999,61.4016863090001,0
                -28.656065322,61.4287325170001,0
                -28.712706773,61.4562646370001,0
                -28.7692019579999,61.4842869920001,0
                -28.82553926,61.5128039080001,0
                -28.900851529,61.5518458000001,0
                -28.975830668,61.591796043,0
                -29.050448622,61.6326650820001,0
                -29.1246773349999,61.674463362,0
                -29.180256394,61.7065330300001,0
                -29.235587242,61.739139165,0
                -29.290657928,61.772286218,0
                -29.3454565009999,61.8059786370001,0
                -29.4188845539999,61.852274186,0
                -29.4917669829999,61.8995800220001,0
                -29.5640744999999,61.9479070450001,0
                -29.6357778139999,61.9972661630001,0
                -29.685072036,62.0320644560001,0
                -29.7340526199999,62.0673667340001,0
                -29.782709831,62.103176621,0
                -29.831033939,62.139497739,0
                -29.879015212,62.176333712,0
                -29.926643917,62.213688163,0
                -29.973910323,62.251564714,0
                -30.0208046979999,62.289966989,0
                -30.262252545,62.546871551,0
                -30.4461511229999,62.7425427260001,0
                -30.753679258,63.0697578250001,0
                -31.0144755759999,63.347249484,0
                -30.8145499849999,63.7236339710001,0
                -30.619002168,64.0917767620001,0
                -30.5128576349999,64.291606884,0
                -30.4067131039999,64.4914370060001,0
                -30.232609682,64.819208088,0
                -30.090247075,65.0872231860001,0
                -30.0032013919999,65.2510973760001,0
                -29.78619693,65.5004320740001,0
                -29.550394248,65.7713656270001,0
                -29.3728737819999,65.9753338370001,0
                -29.1204640949999,66.2653485760001,0
                -28.713417369,66.41677086,0
                -28.2295685519999,66.5967636920001,0
                -27.956204148,66.6984558550001,0
                -27.71497606,66.7881932380001,0
                -27.405858221,66.9031857580001,0
                -27.117161967,67.010581404,0
                -26.779656368,67.1094318250001,0
                -26.489760158,67.1943381580001,0
                -26.166876309,67.2889060840001,0
                -25.8418265989999,67.384108359,0
                -25.534304638,67.4741770150001,0
                -25.0876087299999,67.561259255,0
                -24.458259508,67.683949296,0
                -23.9020536689999,67.792380221,0
                -23.419411135,67.8864701640001,0
                -22.846858701,67.9980878160001,0
                -22.345515674,68.0958233740001,0
                -21.998216656,68.1635284400001,0
                -21.633101043,68.2347068080001,0
                -21.383551723,68.2702209620001,0
                -21.080466815,68.3133539350001,0
                -20.7562355169999,68.3594963190001,0
                -20.534011052,68.391121787,0
                -20.2347030679999,68.433717255,0
                -19.863409722,68.4865571870001,0
                -19.605192313,68.5233049240001,0
                -19.2656092129999,68.5716320710001,0
                -18.924621358,68.6201591330001,0
                -18.6561050189999,68.658372544,0
                -18.112142316,68.7357856,0
                -17.7526562159999,68.786945206,0
                -17.464519922,68.8279507940001,0
                -17.144123158,68.8859295440001,0
                -16.672827517,68.9712148350001,0
                -16.205360582,69.0558072870001,0
                -15.8998243199999,69.111096891,0
                -15.460766658,69.172212336,0
                -15.095628791,69.2230383770001,0
                -14.770053377,69.2683574500001,0
                -14.548152993,69.299245285,0
                -14.3357986239999,69.328804345,0
                -14.1088954279999,69.360388556,0
                -13.9372871209999,69.3842758930001,0
                -13.6990301869999,69.4174405080001,0
                -13.537755111,69.5386712160001,0
                -13.406531625,69.637312099,0
                -13.381205184,69.6382435730001,0
                -13.307501266,69.6401493590001,0
                -13.271545514,69.640731079,0
                -13.23040062,69.6413336200001,0
                -13.1842028299999,69.6416672280001,0
                -13.133093404,69.641912582,0
                -13.0853206209999,69.6418154470001,0
                -13.034106548,69.6415945840001,0
                -12.979540265,69.6410605510001,0
                -12.921710188,69.6402303690001,0
                -12.862366252,69.6391048620001,0
                -12.800095319,69.6376340420001,0
                -12.7581159119999,69.63644666,0
                -12.714956419,69.6351550260001,0
                -12.670643303,69.6336186340001,0
                -12.625194177,69.631969327,0
                -12.583323503,69.630254128,0
                -12.540565812,69.6284384720001,0
                -12.4969429609999,69.626388606,0
                -12.452465338,69.624226897,0
                -12.3927859199999,69.6210663590001,0
                -12.331702671,69.617575786,0
                -12.269252627,69.613740712,0
                -12.205472823,69.6095466740001,0
                -12.1647781189999,69.6066969030001,0
                -12.123579376,69.603751167,0
                -12.08189376,69.6005950590001,0
                -12.039721906,69.5973385290001,0
                -11.9793848809999,69.5924247900001,0
                -11.9181315019999,69.5871792200001,0
                -11.855987542,69.5815917530001,0
                -11.7929787749999,69.575652324,0
                -11.7598785509999,69.5724027040001,0
                -11.726551413,69.5690902680001,0
                -11.6930083469999,69.5656399790001,0
                -11.6592453229999,69.5621252160001,0
                -11.5992641239999,69.5556483330001,0
                -11.5386436599999,69.5488423480001,0
                -11.477403744,69.5416995250001,0
                -11.415564187,69.534212127,0
                -11.3637621259999,69.5277260300001,0
                -11.3115714479999,69.5209924740001,0
                -11.259003503,69.514007027,0
                -11.206069643,69.5067652540001,0
                -11.1711649379999,69.50185314,0
                -11.136104836,69.496870803,0
                -11.1009051039999,69.4917289970001,0
                -11.065555665,69.4865177560001,0
                -11.030073575,69.481142279,0
                -10.9944477409999,69.475696112,0
                -10.958695937,69.4700830640001,0
                -10.9228066769999,69.4643958670001,0
                -10.861767716,69.4544492270001,0
                -10.800380646,69.4441464390001,0
                -10.7497158479999,69.4354144440001,0
                -10.6988353369999,69.4264347810001,0
                -10.647747716,69.41720409,0
                -10.596461593,69.4077190100001,0
                -10.553767476,69.3996171370001,0
                -10.510933875,69.391407427,0
                -10.467993464,69.3829438290001,0
                -10.424922469,69.3743706010001,0
                -10.3666237919999,69.3624556280001,0
                -10.308134826,69.3501986430001,0
                -10.2494676609999,69.3375949270001,0
                -10.190634383,69.324639759,0
                -10.135041574,69.3121032700001,0
                -10.079322057,69.2992464260001,0
                -10.023485954,69.286065271,0
                -9.96754338399995,69.2725558540001,0
                -9.90919827799996,69.258137897,0
                -9.85076016199997,69.243355384,0
                -9.79224045499996,69.228203851,0
                -9.73365057899997,69.2126788420001,0
                -9.70188201899998,69.204084358,0
                -9.67008505499996,69.1954259670001,0
                -9.63828804999997,69.1866057970001,0
                -9.60646506299997,69.177723482,0
                -9.57464658399994,69.168675921,0
                -9.54280514399994,69.1595657080001,0
                -9.51097247299998,69.1502879130001,0
                -9.47911983599994,69.1409469660001,0
                -9.44816456499996,69.131702622,0
                -9.41719319199996,69.1223981270001,0
                -9.38623811899993,69.1129308580001,0
                -9.35526965399993,69.1034029910001,0
                -9.32432146999997,69.0937101850001,0
                -9.29336258399996,69.083956341,0
                -9.26242798099997,69.0740353850001,0
                -9.23148534299997,69.064052958,0
                -9.19205515799996,69.0510730060001,0
                -9.15261678199994,69.03799223,0
                -9.11323289699993,69.0246314460001,0
                -9.07384623799993,69.0111689600001,0
                -9.03452255299993,68.9974219220001,0
                -8.99520144399997,68.9835723140001,0
                -8.95595108899994,68.9694357370001,0
                -8.91671013599995,68.9551914620001,0
                -8.86726234699995,68.9368705030001,0
                -8.81789371899993,68.918230125,0
                -8.76861122399993,68.8992676010001,0
                -8.71942183499993,68.8799802120001,0
                -8.68036255799996,68.8643469090001,0
                -8.64133126199994,68.848601602,0
                -8.60241126499994,68.8325458940001,0
                -8.56352239799998,68.8163819480001,0
                -8.52475485999997,68.799900651,0
                -8.48602336399995,68.7833102660001,0
                -8.44742132099998,68.7664003260001,0
                -8.40886228799997,68.7493755720001,0
                -8.35321239999996,68.724256503,0
                -8.29776516699997,68.698674936,0
                -8.24253126799994,68.672626699,0
                -8.18752138399998,68.6461076210001,0
                -8.10850179199997,68.606973666,0
                -8.06918557099993,68.5870313170001,0
                -8.03000375899995,68.5668366300001,0
                -7.98387635499995,68.5426424830001,0
                -7.93794893399996,68.518091106,0
                -7.89222813199996,68.493179904,0
                -7.84672058499996,68.4679062860001,0
                -7.81523792499996,68.4500783390001,0
                -7.78381478099993,68.4321593160001,0
                -7.75255351799996,68.4139733740001,0
                -7.72135189399995,68.395699768,0
                -7.69031981199993,68.3771544160001,0
                -7.65934975899995,68.3585206750001,0
                -7.62855449799997,68.3396145680001,0
                -7.59782621199997,68.320615075,0
                -7.55054833199995,68.2907738690001,0
                -7.50357609799994,68.2604900530001,0
                -7.45691777899998,68.229760399,0
                -7.41058164599997,68.1985816760001,0
                -7.36390421199997,68.1664836960001,0
                -7.31757562899998,68.13391669,0
                -7.27160453199997,68.100877283,0
                -7.22599956299996,68.0673621030001,0
                -7.19751943899996,68.0459737030001,0
                -7.16912016299995,68.024487207,0
                -7.14094642599997,68.0027140920001,0
                -7.11285196199998,67.9808461810001,0
                -7.08499159799993,67.9586872190001,0
                -7.05721219699996,67.9364322920001,0
                -7.02963336399995,67.9139334210001,0
                -7.00221810299996,67.8912388100001,0
                -6.96262631099995,67.8578643610001,0
                -6.96227661099994,67.8575663810001,0
                -6.96193046299993,67.8572714310001,0
                -6.94911755899994,67.8462333190001,0
                -6.92339203599994,67.824071195,0
                -6.92271143999994,67.8234783520001,0
                -6.92201331199993,67.8228702390001,0
                -6.89614036199993,67.8000829360001,0
                -6.88315294499995,67.788644419,0
                -6.88281588299998,67.788344168,0
                -6.88247024799995,67.7880362810001,0
                -6.84331138899995,67.752763191,0
                -6.80100315299995,67.7136579040001,0
                -6.79226297799994,67.705478439,0
                -6.78649043499996,67.7000781420001,0
                -6.77741699399996,67.6914413790001,0
                -6.75908810699997,67.6741111910001,0
                -6.73048353399997,67.6464863460001,0
                -6.67539357699997,67.591893805,0
                -6.62121588799994,67.5363202830001,0
                -6.57391883799994,67.4861740590001,0
                -6.52737325499993,67.4352423830001,0
                -6.46992627299994,67.3700640770001,0
                -6.41372330599995,67.303621793,0
                -6.35338206199998,67.2290715080001,0
                -6.29462411099996,67.1529615950001,0
                -6.25052865199996,67.09334382,0
                -6.20741308399994,67.032786377,0
                -6.17327557199997,66.983122237,0
                -6.13980100399993,66.9328349400001,0
                -6.10699927399997,66.881920624,0
                -6.07488027099993,66.8303754250001,0
                -6.02460564999996,66.7460135680001,0
                -5.97616934499996,66.6599887420001,0
                -5.95035821599993,66.6120176060001,0
                -5.92512118899998,66.563537066,0
                -5.90046511699995,66.514544443,0
                -5.87639685299996,66.4650370630001,0
                -5.82995967599993,66.2581409630001,0
                -5.79122150499995,66.0855469960001,0
                -5.74851079999996,65.89525381,0
                -5.71842639599993,65.7612158150001,0
                -5.99575895099997,65.654442847,0
                -6.28273832699995,65.543955855,0
                -6.59191335399993,65.424923543,0
                -6.91138753799993,65.3019260570001,0
                -7.18973929799995,65.1618238990001,0
                -7.46550145399993,65.023025159,0
                -7.72441470899997,64.89270694,0
                -8.12963382699996,64.6887489210001,0
                -8.38292361899994,64.561261146,0
                -8.65868553199994,64.4224625300001,0
                -9.01044632699995,64.2454115670001,0
                -9.40444058999998,64.0471033310001,0
                -9.71961282499996,63.8884684060001,0
                -9.95881060499994,63.768073531,0
                -10.1642427909999,63.6646738160001,0
                -10.5300735719999,63.480541041,0
                -10.741152346,63.37429924,0
                -10.932469818,63.278003852,0
                -11.250487743,63.117936613,0
                -11.5938013909999,62.945137334,0
                -11.7992562179999,62.8417262230001,0
                -11.959632363,62.7610044630001,0
                -12.125654212,62.6774410630001,0
                -12.2770800119999,62.601224259,0
                -12.4507764419999,62.4772543980001,0
                -12.682755566,62.311687265,0
                -12.921385796,62.141373135,0
                -13.130288552,61.9922759670001,0
                -13.360777926,61.7205086910001,0
                -13.594604631,61.444806408,0
                -13.7610768219999,61.2485210310001,0
                -13.942479044,61.0346318300001,0
                -14.1499641419999,60.789988624,0
                -14.253068061,60.757861774,0
                -14.3093325739999,60.7409908600001,0
                -14.3769614089999,60.7211604770001,0
                -14.4555390199999,60.6986587310001,0
                -14.5446498599999,60.673773725,0
                -14.6285238909999,60.6509201550001,0
                -14.7194779229999,60.626725235,0
                -14.8172553639999,60.601366861,0
                -14.8686226799999,60.588306973,0
                -14.9215996259999,60.5750229340001,0
                -14.984032837,60.5596054430001,0
                -15.0484760429999,60.543957703,0
                -15.114881462,60.5281128410001,0
                -15.18320131,60.5121039860001,0
                -15.253387806,60.4959642680001,0
                -15.3253931679999,60.4797268120001,0
                -15.399169613,60.4634247500001,0
                -15.474669358,60.4470912080001,0
                -15.529399253,60.435471304,0
                -15.5849598049999,60.4238641600001,0
                -15.6413338149999,60.4122816990001,0
                -15.698504085,60.4007358490001,0
                -15.756453413,60.3892385350001,0
                -15.815164599,60.3778016800001,0
                -15.874620444,60.3664372110001,0
                -15.9348037469999,60.355157053,0
                -15.991496835,60.344737179,0
                -16.0487921609999,60.3344104230001,0
                -16.106675829,60.3241864190001,0
                -16.16513394,60.314074804,0
                -16.2241525979999,60.30408521,0
                -16.283717908,60.294227273,0
                -16.343815971,60.2845106300001,0
                -16.404432889,60.2749449140001,0
                -16.466017494,60.2654694820001,0
                -16.5281004889999,60.2561668970001,0
                -16.590667659,60.247047014,0
                -16.6537047899999,60.238119689,0
                -16.71719767,60.2293947740001,0
                -16.781132084,60.2208821250001,0
                -16.845493819,60.212591596,0
                -16.910268661,60.204533042,0
                -16.984905544,60.195605813,0
                -17.060043798,60.1870102460001,0
                -17.135662101,60.1787611230001,0
                -17.211739135,60.1708732260001,0
                -17.299085281,60.1623323840001,0
                -17.3869693239999,60.1543031250001,0
                -17.475359582,60.146807413,0
                -17.564224376,60.139867214,0
                -17.616333878,60.136079432,0
                -17.668588138,60.13249302,0
                -17.720980846,60.1291123550001,0
                -17.77350569,60.1259418110001,0
                -17.8261563579999,60.1229857650001,0
                -17.8789265359999,60.1202485950001,0
                -17.931809916,60.1177346750001,0
                -17.9848001829999,60.1154483820001,0
              </coordinates>
            </LinearRing>
          </outerBoundaryIs>
        </Polygon>
      </Placemark>
    </Document>
  </Document>
</kml>
