<?xml version="1.0" encoding="UTF-8"?>
<kml xmlns="http://www.opengis.net/kml/2.2">
  <Document id="root_doc">
    <Schema id="Bioregions_PA20.schema">
      <SimpleField name="OBJECTID" type="float"/>
      <SimpleField name="Shape_Leng" type="float"/>
      <SimpleField name="Shape_Area" type="float"/>
      <SimpleField name="Bioregions" type="string"/>
    </Schema>
    <Document id="Bioregions_PA20">
      <name>Bioregions_PA20</name>
      <Placemark id="Bioregions_PA20.1">
        <ExtendedData>
          <SchemaData schemaUrl="#Bioregions_PA20.schema">
            <SimpleData name="OBJECTID">140</SimpleData>
            <SimpleData name="Shape_Leng">68.03755954050</SimpleData>
            <SimpleData name="Shape_Area">119.56067760300</SimpleData>
            <SimpleData name="Bioregions">PA20</SimpleData>
          </SchemaData>
        </ExtendedData>
        <Polygon>
          <outerBoundaryIs>
            <LinearRing>
              <coordinates>
                4.80136433100006,45.1388054860001,0
                4.89560188100006,45.1239363660001,0
                5.02240096000003,45.127594134,0
                5.03125939500006,45.0782913250001,0
                5.00140262000002,45.0007687140001,0
                4.96450876900008,44.9161939750001,0
                4.96636587600005,44.8263771750001,0
                5.02450454200005,44.8070666090001,0
                5.11252256000006,44.8441448460001,0
                5.18293095400003,44.8794431170001,0
                5.26044415700005,44.8583920950001,0
                5.31856965300005,44.851409582,0
                5.36443670900007,44.7792513260001,0
                5.39089159800005,44.7440565370001,0
                5.39626912500006,44.656004652,0
                5.52483311700007,44.656142001,0
                5.60761472100006,44.649185828,0
                5.67634098700006,44.6105138930001,0
                5.73973488200005,44.6176262290001,0
                5.79780581400007,44.661717083,0
                5.88764519100005,44.6424403830001,0
                5.98098617200003,44.6425401020001,0
                6.05671941000003,44.639098705,0
                6.16239597200007,44.6321669910001,0
                6.24695189700003,44.6128846460001,0
                6.30861098200006,44.595338993,0
                6.29462525900004,44.498460659,0
                6.31936039000004,44.4245186750001,0
                6.36522556500006,44.3541215700001,0
                6.41460551500006,44.290772831,0
                6.37593169800004,44.2238077150001,0
                6.35134332500007,44.1603799530001,0
                6.42180628200003,44.144604857,0
                6.49223537200004,44.1605304720001,0
                6.54509811200006,44.1341696580001,0
                6.59618841200006,44.1183738660001,0
                6.65430261900002,44.121958256,0
                6.71060299300007,44.1748529810001,0
                6.79160086800005,44.1890287350001,0
                6.83746980600006,44.1151093290001,0
                6.89910819500005,44.116936331,0
                6.93960525100005,44.1257853590001,0
                6.97122505800007,44.201548701,0
                7.05223234100004,44.2069187010001,0
                7.09275950000006,44.187589319,0
                7.16850026400004,44.1771033200001,0
                7.21788021500004,44.11375458,0
                7.32001754200007,44.1226694590001,0
                7.39751945600005,44.112185342,0
                7.39765116000007,43.9889048000001,0
                7.31135290000003,43.990573758,0
                7.23387920800008,43.974640617,0
                7.15108819700004,43.990402542,0
                7.09650381700004,43.9797773120001,0
                7.05427571500007,43.9427479940001,0
                7.05434721100005,43.8758242710001,0
                7.04384804100005,43.812411561,0
                6.98223599200003,43.7859284510001,0
                6.88541974700007,43.741796204,0
                6.81325396600005,43.7029737500001,0
                6.85909091900004,43.6589939040001,0
                6.90668525900003,43.6185382410001,0
                6.94369952500006,43.5903993430001,0
                6.93499477000006,43.4783713400001,0
                6.92971922300006,43.41047637,0
                6.92277188800006,43.321065923,0
                6.91045580700006,43.162561055,0
                6.90688737800002,43.116636267,0
                6.89895586600005,43.0145597220001,0
                6.89167223800007,42.9208212570001,0
                6.88254872200002,42.8034039,0
                6.87187555300005,42.666042906,0
                6.86216508900003,42.5410716710001,0
                6.84862498900003,42.3668139970001,0
                6.83670622100004,42.213422458,0
                6.82449405700004,42.0562549810001,0
                6.81293778300005,41.907528648,0
                6.73992121700007,41.8666258540001,0
                6.63261914300006,41.806516828,0
                6.50488292200004,41.7349608970001,0
                6.37919747200004,41.664553778,0
                6.27355265100005,41.60537312,0
                6.16893325200004,41.546766888,0
                6.07149416500005,41.4921829620001,0
                5.97792027400004,41.4397642600001,0
                5.86316274900003,41.375478802,0
                5.76230139700004,41.318977772,0
                5.82238539700006,41.228970127,0
                5.87651752100004,41.061097755,0
                5.91514670000004,40.9413024990001,0
                5.97463444700003,40.7568214880001,0
                6.02267315700004,40.6078457730001,0
                6.05408556100002,40.5104308850001,0
                6.09412421400003,40.3862646220001,0
                6.13713488700006,40.2528816510001,0
                6.18775632200004,40.09589649,0
                6.18714705800005,40.0161780290001,0
                6.18613781300007,39.884124899,0
                6.18545109600007,39.794272214,0
                6.18465852900005,39.6905699220001,0
                6.16599149100006,39.618081105,0
                6.13617555400003,39.5022983060001,0
                6.09624238800006,39.347227762,0
                6.06802472400005,39.2376514600001,0
                6.03445535000003,39.1072931190001,0
                6.00197112600006,38.9811486900001,0
                5.97334010000003,38.8699672000001,0
                5.87337382500004,38.8205626870001,0
                5.77259198200005,38.770755111,0
                5.60354770600003,38.6872114330001,0
                5.46807796700006,38.6202606890001,0
                5.33531974100003,38.5546500070001,0
                5.21593644900003,38.495649375,0
                5.07238526600003,38.480463688,0
                4.90682721400003,38.4629499850001,0
                4.77574134900004,38.4490829530001,0
                4.59276406000004,38.429726541,0
                4.46108209800002,38.4157964500001,0
                4.37212810400007,38.389878647,0
                4.27690028700005,38.362132892,0
                4.14029235200007,38.322330548,0
                3.99446515300002,38.2798420610001,0
                3.84486646000005,38.2362547050001,0
                3.69484869600007,38.192545248,0
                3.53833448500006,38.1469429740001,0
                3.38737391100005,38.102958818,0
                3.25867090500003,38.0654596690001,0
                3.16318055800002,38.054195556,0
                3.05746109300003,38.0417248100001,0
                2.93062854400006,38.0429834820001,0
                2.76157674800004,38.044661132,0
                2.64776350800003,38.0457906010001,0
                2.52779298000007,37.9862874240001,0
                2.41064186700004,37.928182624,0
                2.31325904700003,37.879882534,0
                2.19896589500007,37.823195232,0
                2.07250511000007,37.760473006,0
                1.96174658300004,37.735552657,0
                1.87676055800006,37.7164310470001,0
                1.78324574900006,37.6953904860001,0
                1.61336523800003,37.6860372150001,0
                1.46159675400003,37.6776811560001,0
                1.32241562900003,37.6700181310001,0
                1.19459191400006,37.6692564850001,0
                1.08892609500003,37.668626869,0
                0.937455097000054,37.66772432,0
                0.824761745000046,37.6670528290001,0
                0.689130983000041,37.666244664,0
                0.599537833000056,37.587976768,0
                0.474876130000041,37.479073251,0
                0.370826419000025,37.3881762140001,0
                0.249933615000032,37.282565177,0
                0.154239799000038,37.198967785,0
                -0.0164268659999607,37.100057701,0
                -0.183692269999938,37.0031188240001,0
                -0.354446735999943,36.930729145,0
                -0.486467177999941,36.8689477620001,0
                -0.663596544999962,36.794641708,0
                -0.793747873999962,36.771911188,0
                -0.967125821999957,36.741631274,0
                -1.10191663599994,36.618816317,0
                -1.27061871199993,36.544577449,0
                -1.42826317099997,36.475204584,0
                -1.56331048099997,36.3931790010001,0
                -1.74142408999995,36.284995635,0
                -1.90713344399995,36.1843464150001,0
                -2.06898091899996,36.0860428400001,0
                -2.20090780399994,36.005912553,0
                -2.21844593199995,35.9372088650001,0
                -2.36370194299997,35.861182086,0
                -2.48915201399996,35.795521707,0
                -2.74690826699998,35.7747397470001,0
                -3.01589947299993,35.7530519520001,0
                -3.30630792099993,35.7296373630001,0
                -3.52321956999998,35.712148556,0
                -3.69968314499994,35.8359448140001,0
                -3.82086947699997,35.9209618730001,0
                -3.91441006299993,35.9865843360001,0
                -4.01847463199994,36.0595897950001,0
                -4.15100910399997,36.019036622,0
                -4.29286427299996,35.975631483,0
                -4.45919054299998,35.924738624,0
                -4.53078436299995,35.933044415,0
                -4.61892240799995,35.9610616530001,0
                -4.72741593499995,35.9240335920001,0
                -4.77731307199997,35.855223284,0
                -4.89735812599997,35.8506843430001,0
                -5.04000664699993,35.845290757,0
                -5.20903674799996,35.838899676,0
                -5.31583326899994,35.8348616660001,0
                -5.36098641499996,35.944592979,0
                -5.40609606199996,36.0004163730001,0
                -5.45267465699993,36.058057596,0
                -5.61031215299994,36.0156223560001,0
                -5.72443203799997,35.984901844,0
                -5.87478234099996,35.9925393080001,0
                -6.03232270499996,36.0005420110001,0
                -6.18805817899994,36.0084530290001,0
                -6.33554143599997,35.987181235,0
                -6.48122640099996,35.966168812,0
                -6.75633648899998,35.9264891540001,0
                -7.06916421899996,35.8813694070001,0
                -7.35342746399994,35.840369572,0
                -7.62881901299994,35.8006493190001,0
                -7.85927867699996,35.6780391090001,0
                -8.11633509799998,35.5412787710001,0
                -8.37263371399996,35.404921604,0
                -8.59413134099998,35.2870794190001,0
                -8.79586810499995,35.259183868,0
                -8.99645840799997,35.231446846,0
                -9.27106197499995,35.1934754920001,0
                -9.55332971699994,35.1544443610001,0
                -9.75713895699994,35.1354782930001,0
                -10.0681445819999,35.1065367510001,0
                -10.469170257,35.069218129,0
                -10.770662688,35.041161865,0
                -11.0883519249999,35.0115983600001,0
                -11.3522100669999,34.9870442660001,0
                -11.652738147,34.9590777430001,0
                -11.8746873769999,34.938423605,0
                -12.118554203,34.915729862,0
                -12.266858672,34.901928954,0
                -12.2903650599999,34.92318362,0
                -12.354891487,34.985657013,0
                -12.389196034,35.0207362460001,0
                -12.4278307709999,35.0616634630001,0
                -12.4751127759999,35.1137703310001,0
                -12.5263440149999,35.17277712,0
                -12.575439429,35.2319126740001,0
                -12.626632134,35.2964412580001,0
                -12.656779495,35.3359026950001,0
                -12.687340564,35.3770837540001,0
                -12.7290551589999,35.4353397940001,0
                -12.771088612,35.496633413,0
                -12.809204606,35.5546919330001,0
                -12.847192337,35.6151556080001,0
                -12.889857653,35.686540576,0
                -12.931851023,35.7609057930001,0
                -12.956778458,35.8072458680001,0
                -12.981303007,35.854639417,0
                -13.005365281,35.9030736510001,0
                -13.02890589,35.9525357790001,0
                -13.0492308419999,35.9970993040001,0
                -13.069060855,36.0424470200001,0
                -13.088354921,36.0885700950001,0
                -13.107072031,36.1354596990001,0
                -13.123073677,36.1774581010001,0
                -13.1385661469999,36.220040221,0
                -13.1554076379999,36.2688026010001,0
                -13.171523892,36.3182923540001,0
                -13.1868744019999,36.3685007550001,0
                -13.201418653,36.4194190810001,0
                -13.220107152,36.4909024340001,0
                -13.2370733399999,36.5637006200001,0
                -13.253606533,36.6452006640001,0
                -13.26778853,36.7282306870001,0
                -13.275248758,36.7797977560001,0
                -13.281742363,36.8319196750001,0
                -13.2872368339999,36.884589444,0
                -13.291699663,36.9378000620001,0
                -13.2946925329999,36.9840732970001,0
                -13.296874681,37.030738334,0
                -13.298225314,37.077790694,0
                -13.298723642,37.1252259010001,0
                -13.32635314,37.163090535,0
                -13.358018628,37.20900884,0
                -13.3990322679999,37.2716622610001,0
                -13.4269639139999,37.3162977900001,0
                -13.4571072809999,37.366282293,0
                -13.483197205,37.4111258570001,0
                -13.510287051,37.459326671,0
                -13.535983631,37.5066929390001,0
                -13.562172166,37.5567413850001,0
                -13.591112734,37.6143253380001,0
                -13.620209369,37.6748926720001,0
                -13.65283914,37.746434423,0
                -13.68506343,37.821452865,0
                -13.7110791769999,37.88575288,0
                -13.7364247959999,37.952217982,0
                -13.755270439,38.0045268710001,0
                -13.773538328,38.0580146290001,0
                -13.791148338,38.1126418430001,0
                -13.808020348,38.1683690990001,0
                -13.8247544139999,38.227656767,0
                -13.8405063829999,38.2880547780001,0
                -13.8551851899999,38.3495183380001,0
                -13.8686997629999,38.4120026470001,0
                -13.8831767409999,38.4878410630001,0
                -13.8957113399999,38.5649931610001,0
                -13.90276912,38.6160062100001,0
                -13.908891061,38.6675249940001,0
                -13.914034171,38.7195283630001,0
                -13.91815546,38.77199517,0
                -13.921647875,38.8345233480001,0
                -13.923584471,38.8976335250001,0
                -13.9239765579999,38.941727465,0
                -13.9235625819999,38.986072984,0
                -13.935318883,39.033320314,0
                -13.9475357159999,39.0892841510001,0
                -13.961775189,39.164056703,0
                -13.971380758,39.222076529,0
                -13.9806836559999,39.286667601,0
                -13.989223178,39.357254573,0
                -13.996538625,39.433262101,0
                -13.9998620069999,39.4770014000001,0
                -14.002603759,39.5221007750001,0
                -14.004688088,39.568465572,0
                -14.0060392029999,39.6160011370001,0
                -14.006463943,39.696743338,0
                -14.004345648,39.7799901120001,0
                -14.00003085,39.856047376,0
                -13.9931777739999,39.9334583900001,0
                -13.984366274,40.0060247050001,0
                -13.9729830969999,40.0792518860001,0
                -13.961102352,40.1420300790001,0
                -13.947093921,40.204966363,0
                -13.9295895929999,40.2724023100001,0
                -13.909360512,40.339666987,0
                -13.889066052,40.398911937,0
                -13.866421413,40.457753306,0
                -13.8330725439999,40.533927164,0
                -13.804115289,40.5923112830001,0
                -13.772380051,40.649843278,0
                -13.5670759129999,40.6506066910001,0
                -13.355726047,40.6513925840001,0
                -13.1549424529999,40.652139187,0
                -12.9436487429999,40.65292487,0
                -12.753488079,40.653631972,0
                -12.5315289979999,40.6544573150001,0
                -12.3201929209999,40.655243157,0
                -11.9502714349999,40.6566186900001,0
                -11.7495583209999,40.657365031,0
                -11.554057671,40.6580919900001,0
                -11.326885901,40.658936715,0
                -11.03629925,40.6600172460001,0
                -10.787979315,40.6609406100001,0
                -10.354656457,40.6625518980001,0
                -10.074719995,40.6635928260001,0
                -9.80523921799994,40.6645948760001,0
                -9.53577156799997,40.6655968760001,0
                -9.31922213299993,40.666402104,0
                -9.08672451499996,40.667266634,0
                -8.86452948899995,40.6680928540001,0
                -8.78027130199996,40.6681828700001,0
                -8.69580329099995,40.7311908990001,0
                -8.61650635899997,40.6890079510001,0
                -8.53717555999998,40.6151242940001,0
                -8.53702880299994,40.4777545480001,0
                -8.48409268599994,40.382708861,0
                -8.47869069999996,40.2717620190001,0
                -8.31497142799998,40.335338418,0
                -8.19878628999993,40.3830136620001,0
                -8.06672257299994,40.4042885810001,0
                -7.91357584999997,40.4731371440001,0
                -7.75516260799998,40.557841706,0
                -7.66012256599993,40.616061276,0
                -7.61269567799997,40.7323480150001,0
                -7.62865892199994,40.838000117,0
                -7.73445213599996,40.954123167,0
                -7.75041538099993,41.0597752690001,0
                -7.82970102499996,41.091391312,0
                -7.94591438599997,41.0701333270001,0
                -8.09911755399997,41.054119282,0
                -8.18364149299993,41.0434620670001,0
                -8.29458833499996,41.0380600820001,0
                -8.40025737099995,41.037947192,0
                -8.44258142999996,41.090736554,0
                -8.38455941599995,41.180617323,0
                -8.17850479699996,41.180837458,0
                -8.02002946699997,41.207424051,0
                -7.90910520199998,41.233959843,0
                -7.85629890599995,41.2604335460001,0
                -7.81940317399994,41.3432471360001,0
                -7.74201038599995,41.4349097520001,0
                -7.74921303299993,41.582838876,0
                -7.66387342899998,41.654256726,0
                -7.60316171199997,41.6992309780001,0
                -7.60586270499994,41.754704399,0
                -7.65611476399994,41.81012702,0
                -7.67731912699998,41.8761475900001,0
                -7.74341025199993,41.9209863740001,0
                -7.92568933799993,41.9207916400001,0
                -7.98911333699994,41.941857713,0
                -8.01030641199998,41.9973113790001,0
                -7.96547044899995,42.06604423,0
                -7.88361363599995,42.100474155,0
                -7.76737769699997,42.100598334,0
                -7.66435038699996,42.1007084010001,0
                -7.60623241799993,42.1007704900001,0
                -7.52164638999994,42.0533097360001,0
                -7.45296151599996,42.053383114,0
                -7.38165749499996,42.0745931210001,0
                -7.36057730999994,42.1248084910001,0
                -7.38970967299997,42.193462319,0
                -7.38978869599993,42.2674306440001,0
                -7.33965234899995,42.3203187840001,0
                -7.40047413399998,42.378371842,0
                -7.49559602099993,42.3967623240001,0
                -7.54841360499995,42.380855524,0
                -7.64614335199997,42.367542471,0
                -7.75974320899996,42.372704567,0
                -7.83910223099997,42.4730054830001,0
                -7.75992383199997,42.5417750230001,0
                -7.67280896699998,42.5999861270001,0
                -7.59362210199993,42.660830489,0
                -7.53817690299996,42.6899487410001,0
                -7.43779131999997,42.6900559860001,0
                -7.37168608299993,42.6320085720001,0
                -7.32405881699998,42.560732773,0
                -7.27910149899998,42.515871411,0
                -7.20775796599997,42.5000972560001,0
                -7.10738931699996,42.516054857,0
                -7.05463099899993,42.5874379000001,0
                -6.97810561599994,42.666771522,0
                -6.89364376499998,42.735546706,0
                -6.81179541899996,42.7779018090001,0
                -6.72200778299998,42.8070567500001,0
                -6.61898047299997,42.8071668170001,0
                -6.51326345999996,42.762370366,0
                -6.42870565299995,42.7413268710001,0
                -6.33096179599994,42.7414312940001,0
                -6.25700193799997,42.7494354940001,0
                -6.17512819099994,42.768015065,0
                -6.08799357099997,42.807734086,0
                -6.01935385299993,42.8500750790001,0
                -5.87401659599993,42.8106044130001,0
                -5.75777501199997,42.8054451400001,0
                -5.65738942899998,42.8055523850001,0
                -5.54116477899993,42.816243467,0
                -5.41704035099997,42.850718548,0
                -5.33250512299998,42.85080886,0
                -5.20040471799996,42.8377413420001,0
                -5.12643357099995,42.8351786380001,0
                -5.01811998699998,42.832652624,0
                -4.91508985599995,42.830120965,0
                -4.80942081999996,42.8302338550001,0
                -4.68260951099995,42.8224441450001,0
                -4.61656918599994,42.825156426,0
                -4.52677872799995,42.8516696410001,0
                -4.43171046299994,42.883471953,0
                -4.35245868599998,42.883556619,0
                -4.24936928799997,42.8255487170001,0
                -4.17536991899993,42.7965687550001,0
                -4.07498151199997,42.7940342730001,0
                -3.99837146199997,42.7941161190001,0
                -3.90855560399996,42.7968538000001,0
                -3.81875385799998,42.812800112,0
                -3.70253202999993,42.826132919,0
                -3.55451917999994,42.7549643660001,0
                -3.45409408499995,42.7180874480001,0
                -3.36160545599995,42.6917689680001,0
                -3.23475463699998,42.6469950950001,0
                -3.09473751999997,42.6418612210001,0
                -2.94151459599993,42.639383185,0
                -2.83846188699994,42.615717719,0
                -2.74334564299994,42.6026106900001,0
                -2.62446797899997,42.60273769,0
                -2.51616003999993,42.6054951290001,0
                -2.41315813099993,42.6293807280001,0
                -2.33920673899996,42.6453101060001,0
                -2.24146288099996,42.645414529,0
                -2.13579948999995,42.65081087,0
                -2.07508212799996,42.6905016700001,0
                -1.94563191599997,42.6853565070001,0
                -1.83203205799992,42.680194412,0
                -1.72637431199996,42.6908742040001,0
                -1.64445823099993,42.6698278870001,0
                -1.55988631399993,42.635575762,0
                -1.49913790799997,42.646207577,0
                -1.49916330699995,42.66998311,0
                -1.49396734599998,42.751882257,0
                -1.50195461199996,42.8099917590001,0
                -1.44922451699995,42.9077920620001,0
                -1.38051988799998,42.889373359,0
                -1.34340872599995,42.770535205,0
                -1.35651010899994,42.6701355110001,0
                -1.30630885099993,42.6622639550001,0
                -1.21650428299995,42.6755685410001,0
                -1.15574458699996,42.6756334520001,0
                -1.05445114599996,42.6502049540001,0
                -0.943461028999934,42.6151004760001,0
                -0.908158994999951,42.5411697810001,0
                -0.823604951999926,42.523648587,0
                -0.693273222999949,42.5176237900001,0
                -0.595546298999977,42.5335785680001,0
                -0.492538744999933,42.5521807160001,0
                -0.455458626999928,42.4624015470001,0
                -0.513494751999929,42.385729407,0
                -0.45270401099998,42.3567353350001,0
                -0.365518590999955,42.3489032900001,0
                -0.31001976899995,42.32782875,0
                -0.238729858999932,42.3622473880001,0
                -0.13045578699996,42.3967055350001,0
                -0.0538908919999699,42.4390549940001,0
                -0.0169998629999668,42.526271459,0
                0.0340942000000268,42.5069533660001,0
                0.0993376760000615,42.431293506,0
                0.196208485000056,42.4243523850001,0
                0.286027165000064,42.4244483410001,0
                0.365288348000036,42.415727256,0
                0.404054358000053,42.3963959920001,0
                0.441051691000041,42.38410745,0
                0.451686328000051,42.3207173170001,0
                0.504562238000062,42.2820284480001,0
                0.555618672000037,42.297933367,0
                0.629538078000053,42.3438023050001,0
                0.729957529000046,42.312208839,0
                0.784553197000037,42.312267166,0
                0.904324608000024,42.3000670530001,0
                0.958950379000044,42.2719469690001,0
                1.03121023600005,42.222711894,0
                1.06823202800007,42.187528394,0
                0.999678859000028,42.064174474,0
                1.09654966700003,42.0572333540001,0
                1.18459026400006,42.0731777830001,0
                1.25328830700005,42.0609231080001,0
                1.34481921900004,42.1068108600001,0
                1.38881599900003,42.1367974570001,0
                1.46627087600007,42.170342104,0
                1.53317390200004,42.189786258,0
                1.60893159900007,42.1634499030001,0
                1.68817585000005,42.170579172,0
                1.71983328600004,42.211119502,0
                1.73562155300004,42.269254405,0
                1.81133221300007,42.2869468150001,0
                1.91347894700004,42.2870559420001,0
                2.05788765100004,42.292493676,0
                2.16707898800007,42.2926103280001,0
                2.27095300600007,42.3244220460001,0
                2.37133482600007,42.3280515920001,0
                2.41005379900002,42.3527490930001,0
                2.41878993600005,42.4179210730001,0
                2.44868622200005,42.4584595220001,0
                2.52256799900005,42.539551471,0
                2.48905345500003,42.5888279390001,0
                2.43090726400004,42.61518311,0
                2.34109799100003,42.606281401,0
                2.26187443700007,42.5797794740001,0
                2.15623550500004,42.551488175,0
                2.12797054700007,42.6324709990001,0
                2.20188054600004,42.6871456900001,0
                2.26345308300006,42.750612964,0
                2.24753311300003,42.8157586020001,0
                2.19289981500003,42.8509232870001,0
                2.12599867000006,42.8297179840001,0
                2.05550937200007,42.870149187,0
                2.08009022100003,42.940621552,0
                2.07997168700007,43.0515740390001,0
                2.04822017700008,43.099091238,0
                2.04548813900004,43.1836236440001,0
                2.11149741900005,43.215394911,0
                2.20128505500003,43.244549851,0
                2.18802280200003,43.2947285320001,0
                2.06644696800004,43.3474332270001,0
                2.04787304100006,43.424023522,0
                2.22484892000006,43.4427046930001,0
                2.37810288800006,43.411167672,0
                2.49958841200004,43.442998206,0
                2.59992601800008,43.4880147900001,0
                2.58401075100005,43.548757553,0
                2.50738658900002,43.561884337,0
                2.45449562700003,43.6146624100001,0
                2.47022180400006,43.7309152830001,0
                2.52563313600007,43.791734245,0
                2.47800869100007,43.860368318,0
                2.50170238000004,43.9370037680001,0
                2.50424815000002,44.0268252710001,0
                2.54381759400007,44.0797021220001,0
                2.52523802300004,44.1615758680001,0
                2.52247494100004,44.2751672590001,0
                2.51179232600003,44.383466732,0
                2.45629914900007,44.3992578200001,0
                2.37968909800003,44.399175975,0
                2.32416487700004,44.4440260490001,0
                2.34258075800005,44.5153724030001,0
                2.44029357100004,44.5445358100001,0
                2.53538159200002,44.5578460400001,0
                2.63840890100005,44.5579561070001,0
                2.73088341800008,44.544846256,0
                2.78902961000006,44.518491087,0
                2.88415149700006,44.500100606,0
                2.97134538500006,44.4843433840001,0
                3.05059716200003,44.4844280510001,0
                3.11925381300006,44.5109186880001,0
                3.16148473700002,44.54530628,0
                3.16934218200004,44.6087161680001,0
                3.21157592900005,44.640462035,0
                3.28026080200004,44.6405354120001,0
                3.31465686100006,44.5903793100001,0
                3.39655036300007,44.5904668000001,0
                3.51008813200002,44.643422673,0
                3.65006573700003,44.6752729620001,0
                3.70566051400004,44.564379741,0
                3.60269247100007,44.5087934310001,0
                3.51027722200007,44.4664270380001,0
                3.46277977800003,44.416183446,0
                3.46812249600003,44.360712848,0
                3.46292088900003,44.2840971520001,0
                3.37053668400006,44.212671776,0
                3.29933708500005,44.0937179100001,0
                3.28089016000007,44.0514305400001,0
                3.44731889100007,44.0516083410001,0
                3.52126181500006,44.075462896,0
                3.56611471100007,44.1283453930001,0
                3.63745259900003,44.1178546890001,0
                3.66643538300002,44.1892123320001,0
                3.74829501800002,44.2210005320001,0
                3.83281613600008,44.2342994740001,0
                3.84859593500005,44.3003595540001,0
                3.89341214200005,44.387584486,0
                3.96206032500004,44.422000301,0
                4.05441630900003,44.5198429370001,0
                4.15470593600003,44.6097688610001,0
                4.21273359400004,44.694366179,0
                4.28666240800004,44.7314293650001,0
                4.37381960700003,44.75001458,0
                4.42663154700006,44.771204831,0
                4.42919989400002,44.839892526,0
                4.43439303400004,44.9244333990001,0
                4.52419478100006,44.9403797100001,0
                4.58227041700007,44.9800676880001,0
                4.58749460200005,45.0355495760001,0
                4.59800788300004,45.0857536570001,0
                4.63756886000004,45.1465556850001,0
                4.64014003000005,45.2126016550001,0
                4.63207938500005,45.33939603,0
                4.60821918500005,45.418622407,0
                4.59494282200006,45.482009717,0
                4.62395100600003,45.529591828,0
                4.73490349300005,45.5297103610001,0
                4.75348306400002,45.447836614,0
                4.76598754100007,45.389567965,0
                4.77889189000007,45.329435979,0
                4.80392703500007,45.212776633,0
                4.80136433100006,45.1388054860001,0
              </coordinates>
            </LinearRing>
          </outerBoundaryIs>
        </Polygon>
      </Placemark>
    </Document>
  </Document>
</kml>
