<?xml version="1.0" encoding="UTF-8"?>
<kml xmlns="http://www.opengis.net/kml/2.2">
  <Document id="root_doc">
    <Schema id="Bioregions_PA21.schema">
      <SimpleField name="OBJECTID" type="float"/>
      <SimpleField name="Shape_Leng" type="float"/>
      <SimpleField name="Shape_Area" type="float"/>
      <SimpleField name="Bioregions" type="string"/>
    </Schema>
    <Document id="Bioregions_PA21">
      <name>Bioregions_PA21</name>
      <Placemark id="Bioregions_PA21.1">
        <ExtendedData>
          <SchemaData schemaUrl="#Bioregions_PA21.schema">
            <SimpleData name="OBJECTID">130</SimpleData>
            <SimpleData name="Shape_Leng">38.64144314320</SimpleData>
            <SimpleData name="Shape_Area">99.54823789120</SimpleData>
            <SimpleData name="Bioregions">PA21</SimpleData>
          </SchemaData>
        </ExtendedData>
        <Polygon>
          <outerBoundaryIs>
            <LinearRing>
              <coordinates>
                -31.454295762,43.089559197,0
                -31.4215389779999,43.0892723000001,0
                -31.38886374,43.0888026280001,0
                -31.356272223,43.0881528290001,0
                -31.3237665999999,43.0873255550001,0
                -31.291349044,43.0863234540001,0
                -31.2590217279999,43.0851491760001,0
                -31.226786827,43.083805371,0
                -31.1946465139999,43.08229469,0
                -31.1626029609999,43.0806197810001,0
                -31.130658344,43.0787832940001,0
                -31.0988148349999,43.0767878790001,0
                -31.0670746059999,43.074636185,0
                -31.0354398329999,43.072330863,0
                -31.003912688,43.0698745620001,0
                -30.972495344,43.067269932,0
                -30.941189977,43.064519621,0
                -30.909998757,43.0616262820001,0
                -30.8789238599999,43.058592563,0
                -30.847967459,43.0554211140001,0
                -30.8171317269999,43.052114584,0
                -30.7864188359999,43.0486756220001,0
                -30.7558309619999,43.04510688,0
                -30.725370278,43.041411006,0
                -30.695038956,43.0375906510001,0
                -30.664839171,43.0336484650001,0
                -30.634773094,43.0295870950001,0
                -30.604842902,43.0254091940001,0
                -30.5750507659999,43.02111741,0
                -30.54539886,43.016714392,0
                -30.4865244329999,43.0075852570001,0
                -30.428237007,42.9980429870001,0
                -30.3705539699999,42.9881087790001,0
                -30.3134927099999,42.9778038310001,0
                -30.2570706139999,42.9671493430001,0
                -30.201305072,42.9561665090001,0
                -30.1462134679999,42.9448765290001,0
                -30.091813192,42.9333006000001,0
                -30.03812163,42.9214599210001,0
                -29.985156171,42.9093756890001,0
                -29.9329342029999,42.897069102,0
                -29.8814731109999,42.884561358,0
                -29.830790285,42.8718736540001,0
                -29.780903112,42.8590271890001,0
                -29.731828978,42.846043159,0
                -29.6835852739999,42.8329427640001,0
                -29.636189384,42.8197472000001,0
                -29.5896586979999,42.806477666,0
                -29.5440106029999,42.793155359,0
                -29.499262485,42.779801478,0
                -29.4554317339999,42.7664372190001,0
                -29.4125357369999,42.753083781,0
                -29.3705918799999,42.739762361,0
                -29.3296175519999,42.726494158,0
                -29.2896301399999,42.7133003690001,0
                -29.250647032,42.7002021920001,0
                -29.2126856159999,42.6872208250001,0
                -29.17576328,42.6743774650001,0
                -29.139897409,42.6616933110001,0
                -29.105105393,42.64918956,0
                -29.071404619,42.63688741,0
                -29.0388124739999,42.624808058,0
                -29.007346345,42.6129727040001,0
                -28.977023623,42.6014025430001,0
                -28.947861691,42.5901187750001,0
                -28.9198779399999,42.579142597,0
                -28.867514527,42.5581978020001,0
                -28.820072484,42.538737741,0
                -28.777690912,42.5209319960001,0
                -28.7405089119999,42.5049501500001,0
                -28.682300029,42.4791364820001,0
                -28.634397556,42.456857556,0
                -28.6014721449999,42.4581600750001,0
                -28.568642019,42.459317152,0
                -28.535907445,42.4603298930001,0
                -28.503268685,42.461199397,0
                -28.470726003,42.4619267670001,0
                -28.4382796629999,42.462513109,0
                -28.4059299309999,42.462959525,0
                -28.373677067,42.4632671160001,0
                -28.341521337,42.463436986,0
                -28.3094630059999,42.4634702380001,0
                -28.2775023359999,42.463367975,0
                -28.2456395909999,42.4631313,0
                -28.213875037,42.4627613160001,0
                -28.1822089349999,42.4622591240001,0
                -28.150641551,42.4616258300001,0
                -28.119173147,42.460862535,0
                -28.087803989,42.4599703420001,0
                -28.0565343399999,42.4589503540001,0
                -28.025364463,42.457803674,0
                -27.994294623,42.4565314050001,0
                -27.963325084,42.45513465,0
                -27.9324561089999,42.4536145120001,0
                -27.901687963,42.4519720930001,0
                -27.871020909,42.4502084960001,0
                -27.8404552109999,42.448324825,0
                -27.809991133,42.4463221830001,0
                -27.779628938,42.444201671,0
                -27.7493688919999,42.4419643940001,0
                -27.719211258,42.4396114530001,0
                -27.6891562989999,42.437143953,0
                -27.6592042789999,42.4345629950001,0
                -27.629355463,42.4318696830001,0
                -27.5699684959999,42.426150406,0
                -27.5109975089999,42.4199949480001,0
                -27.4524446139999,42.41341213,0
                -27.39431192,42.406410776,0
                -27.3366015409999,42.3989997080001,0
                -27.2793155859999,42.3911877510001,0
                -27.222456166,42.3829837270001,0
                -27.166025394,42.3743964600001,0
                -27.11002538,42.365434771,0
                -27.054458234,42.356107486,0
                -26.9993260689999,42.3464234260001,0
                -26.944630995,42.336391415,0
                -26.8903751239999,42.3260202760001,0
                -26.8365605659999,42.315318833,0
                -26.783189432,42.3042959090001,0
                -26.730263834,42.2929603260001,0
                -26.6777858839999,42.2813209080001,0
                -26.6257576899999,42.2693864780001,0
                -26.5741813669999,42.2571658590001,0
                -26.523059024,42.2446678750001,0
                -26.4723927709999,42.2319013470001,0
                -26.4221847219999,42.218875101,0
                -26.372436985,42.205597959,0
                -26.323151674,42.192078743,0
                -26.2743308989999,42.178326278,0
                -26.2259767699999,42.164349386,0
                -26.178091399,42.1501568910001,0
                -26.1306768969999,42.1357576140001,0
                -26.083735377,42.121160382,0
                -26.037268946,42.106374015,0
                -25.991279719,42.0914073370001,0
                -25.9457698059999,42.076269171,0
                -25.900741317,42.0609683420001,0
                -25.856196363,42.045513671,0
                -25.812137057,42.029913981,0
                -25.76856551,42.0141780960001,0
                -25.725483831,41.99831484,0
                -25.6828941319999,41.9823330350001,0
                -25.640798525,41.966241504,0
                -25.59919912,41.9500490710001,0
                -25.5580980299999,41.93376456,0
                -25.517497364,41.917396791,0
                -25.477399234,41.9009545910001,0
                -25.4378057509999,41.8844467800001,0
                -25.398719026,41.8678821830001,0
                -25.36014117,41.8512696220001,0
                -25.3220742949999,41.8346179220001,0
                -25.284520512,41.8179359040001,0
                -25.2474819299999,41.801232392,0
                -25.210960663,41.78451621,0
                -25.17495882,41.7677961810001,0
                -25.139478514,41.7510811270001,0
                -25.104521854,41.734379871,0
                -25.070090953,41.7177012380001,0
                -25.036187921,41.701054049,0
                -25.002814869,41.684447129,0
                -24.969973909,41.6678893000001,0
                -24.937667152,41.6513893870001,0
                -24.9058967079999,41.634956211,0
                -24.8746646889999,41.618598596,0
                -24.8439732059999,41.6023253640001,0
                -24.813824371,41.5861453410001,0
                -24.784220294,41.5700673480001,0
                -24.755163086,41.5541002080001,0
                -24.726654859,41.5382527450001,0
                -24.698697722,41.522533782,0
                -24.6712937899999,41.506952142,0
                -24.64444517,41.4915166480001,0
                -24.5924223169999,41.461119393,0
                -24.5426460529999,41.431412601,0
                -24.495133267,41.402466857,0
                -24.449900847,41.3743527460001,0
                -24.406965682,41.3471408550001,0
                -24.3663446629999,41.3209017680001,0
                -24.328054677,41.2957060700001,0
                -24.292112613,41.271624348,0
                -24.2585353589999,41.2487271860001,0
                -24.227339808,41.2270851700001,0
                -24.198542844,41.206768885,0
                -24.172161358,41.1878489160001,0
                -24.126712378,41.154480268,0
                -24.0911279759999,41.1275439090001,0
                -24.065543266,41.107604522,0
                -24.044913364,41.0909753940001,0
                -23.989176718,41.074832433,0
                -23.934175614,41.0584342220001,0
                -23.8799053339999,41.0417868000001,0
                -23.82636116,41.0248962050001,0
                -23.773538373,41.0077684720001,0
                -23.7214322579999,40.9904096400001,0
                -23.6700380959999,40.9728257450001,0
                -23.619351169,40.9550228260001,0
                -23.56936676,40.93700692,0
                -23.52008015,40.918784063,0
                -23.471486623,40.9003602940001,0
                -23.42358146,40.881741649,0
                -23.3763599439999,40.862934167,0
                -23.329817358,40.8439438830001,0
                -23.283948983,40.8247768360001,0
                -23.238750102,40.805439064,0
                -23.194215997,40.785936603,0
                -23.150341951,40.7662754900001,0
                -23.107123246,40.7464617640001,0
                -23.0645551649999,40.7265014610001,0
                -23.0226329879999,40.7064006190001,0
                -22.981352,40.6861652750001,0
                -22.9407074809999,40.6658014670001,0
                -22.9006947149999,40.645315231,0
                -22.8613089849999,40.6247126050001,0
                -22.822545571,40.6039996270001,0
                -22.784399757,40.5831823340001,0
                -22.7468668249999,40.562266763,0
                -22.709942057,40.541258951,0
                -22.6736207349999,40.5201649370001,0
                -22.637898143,40.4989907570001,0
                -22.6027695619999,40.4777424490001,0
                -22.568230274,40.456426048,0
                -22.5342755619999,40.4350475950001,0
                -22.500900708,40.413613125,0
                -22.4681009949999,40.3921286770001,0
                -22.435871704,40.3706002870001,0
                -22.404208119,40.349033992,0
                -22.373105521,40.3274358300001,0
                -22.3425591929999,40.3058118390001,0
                -22.312564417,40.2841680560001,0
                -22.2831164749999,40.2625105170001,0
                -22.2542106509999,40.2408452610001,0
                -22.225842225,40.219178325,0
                -22.1980064809999,40.1975157460001,0
                -22.1706987009999,40.175863561,0
                -22.1439141669999,40.154227808,0
                -22.117648161,40.1326145250001,0
                -22.091895966,40.1110297480001,0
                -22.0666528639999,40.0894795150001,0
                -22.041914138,40.067969863,0
                -22.0176750699999,40.0465068290001,0
                -21.9939309399999,40.0250964520001,0
                -21.9706770349999,40.0037447670001,0
                -21.9479086329999,39.982457814,0
                -21.9256210189999,39.961241628,0
                -21.903809474,39.9401022480001,0
                -21.8824692809999,39.91904571,0
                -21.841184079,39.877205313,0
                -21.801727672,39.8357687340001,0
                -21.7640623189999,39.7947842720001,0
                -21.7281502769999,39.754300227,0
                -21.693953807,39.7143648970001,0
                -21.6614351659999,39.6750265810001,0
                -21.630556613,39.6363335780001,0
                -21.6012804059999,39.598334186,0
                -21.573568805,39.5610767050001,0
                -21.5473840679999,39.5246094330001,0
                -21.5226884539999,39.4889806680001,0
                -21.4994442199999,39.4542387110001,0
                -21.4776136259999,39.4204318590001,0
                -21.457158931,39.387608411,0
                -21.4380423929999,39.3558166660001,0
                -21.4202262709999,39.325104923,0
                -21.403672823,39.29552148,0
                -21.388344307,39.2671146370001,0
                -21.374202984,39.239932692,0
                -21.349330946,39.1894366930001,0
                -21.328754778,39.14441987,0
                -21.312172549,39.105268617,0
                -21.2992823289999,39.072369323,0
                -21.2833701869999,39.026872171,0
                -21.2786029059999,39.011019538,0
                -21.2604172389999,38.9845517570001,0
                -21.242582451,38.958113283,0
                -21.225096343,38.9317047010001,0
                -21.2079567179999,38.9053265950001,0
                -21.191161377,38.8789795490001,0
                -21.174708122,38.8526641460001,0
                -21.158594756,38.8263809700001,0
                -21.14281908,38.800130605,0
                -21.127378896,38.7739136340001,0
                -21.112272006,38.7477306420001,0
                -21.083049316,38.695468927,0
                -21.0551334259999,38.643350131,0
                -21.028506751,38.591378923,0
                -21.003151708,38.5395599730001,0
                -20.97905071,38.487897952,0
                -20.956186175,38.4363975310001,0
                -20.934540517,38.385063378,0
                -20.914096152,38.3339001640001,0
                -20.894835497,38.2829125590001,0
                -20.8767409669999,38.2321052340001,0
                -20.8597949759999,38.181482858,0
                -20.8439799399999,38.131050101,0
                -20.829278275,38.080811635,0
                -20.8156723979999,38.0307721280001,0
                -20.8031447229999,37.9809362510001,0
                -20.7916776659999,37.931308674,0
                -20.781253642,37.8818940670001,0
                -20.771855068,37.8326971000001,0
                -20.763464358,37.783722444,0
                -20.7560639289999,37.734974767,0
                -20.7496361949999,37.6864587420001,0
                -20.744163573,37.638179037,0
                -20.7396284779999,37.5901403230001,0
                -20.7360133249999,37.5423472700001,0
                -20.7333005309999,37.4948045470001,0
                -20.7314725109999,37.447516826,0
                -20.7305116799999,37.4004887770001,0
                -20.7304004539999,37.3537250680001,0
                -20.731121249,37.3072303710001,0
                -20.732656479,37.261009356,0
                -20.734988562,37.2150666920001,0
                -20.7380999109999,37.1694070500001,0
                -20.7419729439999,37.1240351010001,0
                -20.746590075,37.0789555120001,0
                -20.75193372,37.0341729570001,0
                -20.757986295,36.989692104,0
                -20.764730216,36.9455176220001,0
                -20.772147897,36.9016541830001,0
                -20.780221754,36.8581064580001,0
                -20.7889342029999,36.8148791140001,0
                -20.798267661,36.771976824,0
                -20.808204541,36.7294042570001,0
                -20.8187272599999,36.687166082,0
                -20.829818234,36.6452669710001,0
                -20.8414598759999,36.6037115940001,0
                -20.853634605,36.562504619,0
                -20.8663248349999,36.521650718,0
                -20.8795129819999,36.481154561,0
                -20.8931814609999,36.441020817,0
                -20.9073126869999,36.401254158,0
                -20.9218890779999,36.3618592510001,0
                -20.936893047,36.32284077,0
                -20.952307011,36.284203383,0
                -20.968113385,36.24595176,0
                -20.9842945849999,36.2080905720001,0
                -21.0008330269999,36.1706244870001,0
                -21.0177111249999,36.133558178,0
                -21.034911296,36.096896314,0
                -21.052415955,36.060643564,0
                -21.070207517,36.024804599,0
                -21.0882683999999,35.98938409,0
                -21.1065810169999,35.954386705,0
                -21.125127784,35.919817116,0
                -21.143891117,35.8856799930001,0
                -21.162853433,35.851980005,0
                -21.181997145,35.818721823,0
                -21.2013046709999,35.7859101170001,0
                -21.2207584239999,35.7535495560001,0
                -21.240340821,35.7216448120001,0
                -21.260034279,35.6902005540001,0
                -21.279821211,35.6592214520001,0
                -21.2996840339999,35.6287121770001,0
                -21.3196051639999,35.5986773980001,0
                -21.3395670149999,35.569121786,0
                -21.359552004,35.5400500100001,0
                -21.379542546,35.511466741,0
                -21.399521056,35.483376649,0
                -21.4194699519999,35.455784405,0
                -21.439371647,35.4286946770001,0
                -21.459208557,35.402112136,0
                -21.478963098,35.376041453,0
                -21.4986176859999,35.3504872980001,0
                -21.518154737,35.3254543410001,0
                -21.537556665,35.300947251,0
                -21.5568058859999,35.2769706990001,0
                -21.594775871,35.2306278890001,0
                -21.631924016,35.186463272,0
                -21.6681096469999,35.144514208,0
                -21.703192088,35.1048180600001,0
                -21.7370306629999,35.0674121870001,0
                -21.7694846979999,35.0323339510001,0
                -21.800413517,34.999620712,0
                -21.829676444,34.969309831,0
                -21.8571328039999,34.94143867,0
                -21.8826419229999,34.9160445890001,0
                -21.906063124,34.89316495,0
                -21.946079074,34.855098437,0
                -21.9760552499999,34.8275380200001,0
                -22.0013866749999,34.8051310210001,0
                -22.041086225,34.775811402,0
                -22.080712261,34.7469126450001,0
                -22.1202643519999,34.718432546,0
                -22.1597420699999,34.690368902,0
                -22.1991449839999,34.66271951,0
                -22.238472666,34.6354821680001,0
                -22.277724684,34.6086546720001,0
                -22.3169006099999,34.5822348190001,0
                -22.342014341,34.565485057,0
                -22.367096412,34.548901861,0
                -22.4171651139999,34.5162328330001,0
                -22.467105804,34.484223071,0
                -22.5169175739999,34.452867907,0
                -22.566599513,34.4221626780001,0
                -22.616150712,34.392102718,0
                -22.66557026,34.362683362,0
                -22.714857246,34.3338999440001,0
                -22.7669092369999,34.3041049650001,0
                -22.8188104459999,34.2750124770001,0
                -22.8705597929999,34.246616938,0
                -22.9221561969999,34.2189128040001,0
                -22.973598576,34.1918945350001,0
                -23.0248858489999,34.1655565890001,0
                -23.076016936,34.139893424,0
                -23.126990755,34.1148995,0
                -23.161539115,34.0982942540001,0
                -23.1960140149999,34.0819937470001,0
                -23.230415116,34.0659962400001,0
                -23.264742078,34.0502999920001,0
                -23.298994563,34.0349032660001,0
                -23.333172229,34.0198043240001,0
                -23.36727474,34.0050014240001,0
                -23.401301756,33.9904928290001,0
                -23.441016684,33.9738892070001,0
                -23.4806272609999,33.957683284,0
                -23.520132943,33.9418722780001,0
                -23.5595331879999,33.9264534010001,0
                -23.598827451,33.9114238700001,0
                -23.63801519,33.8967809000001,0
                -23.6770958609999,33.882521706,0
                -23.7160689209999,33.8686435020001,0
                -23.759298897,33.853648449,0
                -23.8023942689999,33.8391176390001,0
                -23.8453542899999,33.8250472400001,0
                -23.8881782129999,33.811433417,0
                -23.930865287,33.798272334,0
                -23.973414767,33.7855601570001,0
                -24.0158259039999,33.773293052,0
                -24.0580979489999,33.761467184,0
                -24.098103436,33.7506440490001,0
                -24.137982226,33.740211926,0
                -24.1777336769999,33.7301675310001,0
                -24.217357153,33.720507583,0
                -24.2568520089999,33.7112288020001,0
                -24.2962176089999,33.702327903,0
                -24.3354533099999,33.6938016070001,0
                -24.374558473,33.6856466310001,0
                -24.4135324559999,33.677859692,0
                -24.452374623,33.6704375090001,0
                -24.4910843289999,33.663376801,0
                -24.529660937,33.6566742860001,0
                -24.568103805,33.65032668,0
                -24.6064122929999,33.644330704,0
                -24.644585762,33.638683074,0
                -24.682623572,33.6333805090001,0
                -24.72052508,33.6284197270001,0
                -24.7582896489999,33.6237974470001,0
                -24.7959166369999,33.6195103860001,0
                -24.833405405,33.615555263,0
                -24.870755311,33.611928795,0
                -24.907965717,33.6086277000001,0
                -24.9450359809999,33.605648699,0
                -24.9819654639999,33.6029885070001,0
                -25.018753525,33.6006438430001,0
                -25.0553995239999,33.598611426,0
                -25.091902821,33.596887973,0
                -25.1282627759999,33.5954702020001,0
                -25.164478749,33.5943548340001,0
                -25.200550098,33.5935385830001,0
                -25.236476185,33.5930181690001,0
                -25.2722563679999,33.592790311,0
                -25.307890008,33.592851727,0
                -25.3433764649999,33.593199133,0
                -25.3787150979999,33.5938292500001,0
                -25.413905268,33.5947387940001,0
                -25.448946333,33.5959244840001,0
                -25.483837654,33.597383038,0
                -25.5185785909999,33.599111174,0
                -25.5531685019999,33.601105611,0
                -25.587606749,33.603363066,0
                -25.621892691,33.6058802580001,0
                -25.656025687,33.608653905,0
                -25.690005098,33.6116807240001,0
                -25.723830284,33.6149574350001,0
                -25.757500604,33.6184807550001,0
                -25.791015417,33.622247401,0
                -25.8243740839999,33.626254094,0
                -25.857575965,33.6304975510001,0
                -25.890620418,33.6349744880001,0
                -25.923506806,33.639681626,0
                -25.956234486,33.6446156820001,0
                -25.9888028189999,33.6497733740001,0
                -26.021211164,33.65515142,0
                -26.053458883,33.6607465390001,0
                -26.085545332,33.6665554480001,0
                -26.1174698739999,33.672574866,0
                -26.149231868,33.6788015110001,0
                -26.1808306729999,33.685232102,0
                -26.212265649,33.6918633540001,0
                -26.2435361569999,33.6986919890001,0
                -26.2746415559999,33.705714723,0
                -26.305581205,33.712928274,0
                -26.3363544649999,33.720329361,0
                -26.3669606949999,33.7279147030001,0
                -26.397399255,33.7356810160001,0
                -26.427669505,33.743625019,0
                -26.4577708049999,33.75174343,0
                -26.487702516,33.7600329680001,0
                -26.517463994,33.768490351,0
                -26.5470546019999,33.777112296,0
                -26.5764737,33.785895522,0
                -26.605720646,33.7948367480001,0
                -26.6347948,33.8039326890001,0
                -26.663695522,33.813180066,0
                -26.6924221739999,33.8225755980001,0
                -26.720974112,33.832116,0
                -26.7493507,33.8417979920001,0
                -26.8055752559999,33.8615736180001,0
                -26.8610907199999,33.881876221,0
                -26.915891971,33.9026795440001,0
                -26.969973889,33.9239573350001,0
                -27.02333135,33.945683338,0
                -27.0759592329999,33.967831297,0
                -27.1278524169999,33.9903749580001,0
                -27.17900578,34.013288066,0
                -27.2294142009999,34.036544367,0
                -27.2790725579999,34.0601176060001,0
                -27.3279757289999,34.083981527,0
                -27.3761185929999,34.1081098760001,0
                -27.4234960279999,34.1324763980001,0
                -27.470102912,34.157054837,0
                -27.5159341249999,34.18181894,0
                -27.560984543,34.20674245,0
                -27.605249047,34.2317991150001,0
                -27.6487225139999,34.256962677,0
                -27.691399823,34.2822068840001,0
                -27.733275851,34.307505479,0
                -27.7743454779999,34.332832207,0
                -27.814603583,34.3581608150001,0
                -27.8540450419999,34.3834650470001,0
                -27.8926647339999,34.408718648,0
                -27.930457539,34.4338953640001,0
                -27.9674183339999,34.4589689380001,0
                -28.0035419979999,34.483913118,0
                -28.03882341,34.5087016470001,0
                -28.0732574469999,34.5333082710001,0
                -28.106838989,34.5577067350001,0
                -28.139562913,34.581870785,0
                -28.1714240979999,34.605774164,0
                -28.2024174219999,34.6293906180001,0
                -28.232537764,34.652693893,0
                -28.261780002,34.6756577350001,0
                -28.290139015,34.698255885,0
                -28.31760968,34.720462093,0
                -28.344186878,34.742250101,0
                -28.3698654839999,34.7635936560001,0
                -28.394640379,34.7844665010001,0
                -28.4185064399999,34.8048423830001,0
                -28.4634915779999,34.8439982360001,0
                -28.504779921,34.8808511770001,0
                -28.5423304999999,34.9151911650001,0
                -28.576102341,34.9468081630001,0
                -28.6060544709999,34.975492129,0
                -28.6321459169999,35.0010330270001,0
                -28.6725828679999,35.04184546,0
                -28.705325767,35.0765117810001,0
                -28.741751816,35.076260898,0
                -28.778130169,35.0763785190001,0
                -28.8144570659999,35.0768588460001,0
                -28.850728741,35.0776960860001,0
                -28.8869414329999,35.078884443,0
                -28.9230913769999,35.080418122,0
                -28.9591748139999,35.0822913280001,0
                -28.9951879769999,35.0844982670001,0
                -29.031127107,35.0870331420001,0
                -29.066988437,35.089890161,0
                -29.1027682069999,35.093063525,0
                -29.138462653,35.096547442,0
                -29.1740680139999,35.1003361150001,0
                -29.209580525,35.10442375,0
                -29.244996423,35.108804553,0
                -29.280311947,35.113472727,0
                -29.3155233329999,35.118422476,0
                -29.350626817,35.1236480090001,0
                -29.385618639,35.129143528,0
                -29.4204950339999,35.134903238,0
                -29.4552522399999,35.140921346,0
                -29.489886493,35.1471920540001,0
                -29.524394032,35.1537095690001,0
                -29.558771092,35.1604680950001,0
                -29.5930139119999,35.1674618380001,0
                -29.627118728,35.174685002,0
                -29.661081778,35.1821317920001,0
                -29.6948992989999,35.1897964130001,0
                -29.7285675269999,35.197673072,0
                -29.7620827,35.20575597,0
                -29.795441056,35.214039315,0
                -29.8286388299999,35.222517312,0
                -29.861672262,35.2311841640001,0
                -29.8945375869999,35.240034076,0
                -29.927231042,35.2490612550001,0
                -29.9597488649999,35.258259905,0
                -29.9920872929999,35.26762423,0
                -30.024242563,35.2771484370001,0
                -30.056210913,35.286826729,0
                -30.087988579,35.2966533110001,0
                -30.119571799,35.30662239,0
                -30.150956809,35.316728169,0
                -30.182139847,35.326964853,0
                -30.2131171509999,35.337326648,0
                -30.2438849549999,35.347807759,0
                -30.2744395,35.35840239,0
                -30.3047770209999,35.3691047460001,0
                -30.3348937549999,35.379909033,0
                -30.3647859399999,35.3908094540001,0
                -30.394449814,35.4018002170001,0
                -30.423881611,35.4128755240001,0
                -30.453077572,35.4240295820001,0
                -30.4820339309999,35.4352565940001,0
                -30.510746926,35.4465507670001,0
                -30.539212796,35.4579063050001,0
                -30.5674277759999,35.4693174130001,0
                -30.5953881039999,35.4807782950001,0
                -30.623090017,35.4922831580001,0
                -30.677703546,35.515401642,0
                -30.7312382609999,35.538626505,0
                -30.7836640589999,35.5619113880001,0
                -30.834950836,35.585209928,0
                -30.885068492,35.608475766,0
                -30.9339869199999,35.6316625420001,0
                -30.98167602,35.6547238950001,0
                -31.028105689,35.677613465,0
                -31.073245824,35.7002848920001,0
                -31.117066321,35.722691814,0
                -31.159537078,35.7447878730001,0
                -31.200627993,35.766526706,0
                -31.240308961,35.787861955,0
                -31.2785498809999,35.808747259,0
                -31.3153206489999,35.8291362570001,0
                -31.3505911629999,35.8489825880001,0
                -31.3843313199999,35.868239895,0
                -31.4165110169999,35.8868618130001,0
                -31.44710015,35.9048019850001,0
                -31.4760686179999,35.922014049,0
                -31.503386318,35.938451646,0
                -31.552948999,35.9688179940001,0
                -31.5955473729999,35.9955301460001,0
                -31.6309406139999,36.018217221,0
                -31.6791484079999,36.050032603,0
                -31.6956458029999,36.0612970780001,0
                -31.7538921469999,36.076537525,0
                -31.810994067,36.0905352770001,0
                -31.866994463,36.103379513,0
                -31.921936237,36.1151594090001,0
                -31.9758622909999,36.1259641450001,0
                -32.028815526,36.135882897,0
                -32.080838843,36.145004844,0
                -32.1319751419999,36.153419163,0
                -32.1822673259999,36.1612150300001,0
                -32.231758294,36.168481625,0
                -32.280490948,36.1753081260001,0
                -32.32850819,36.1817837090001,0
                -32.3758529199999,36.1879975520001,0
                -32.4225680389999,36.194038834,0
                -32.4686964489999,36.1999967310001,0
                -32.514281051,36.2059604200001,0
                -32.559364746,36.212019082,0
                -32.603990434,36.218261892,0
                -32.6482010189999,36.2247780280001,0
                -32.692039398,36.2316566690001,0
                -32.735548476,36.238986991,0
                -32.7787711519999,36.2468581730001,0
                -32.821750328,36.2553593920001,0
                -32.8645289039999,36.264579826,0
                -32.907149782,36.2746086510001,0
                -32.949655863,36.285535048,0
                -32.992090049,36.297448193,0
                -33.034495239,36.3104372620001,0
                -33.076914335,36.324591436,0
                -33.11939024,36.3399998890001,0
                -33.161965852,36.3567518020001,0
                -33.2046840749999,36.374936351,0
                -33.2587790439999,36.399102031,0
                -33.312138714,36.423422439,0
                -33.3647675459999,36.447895175,0
                -33.416669998,36.4725178350001,0
                -33.467850531,36.4972880180001,0
                -33.518313607,36.5222033210001,0
                -33.568063684,36.5472613430001,0
                -33.617105223,36.5724596800001,0
                -33.652448439,36.5909352310001,0
                -33.687418448,36.609483292,0
                -33.722016981,36.6281029290001,0
                -33.7562457729999,36.6467932090001,0
                -33.7901065569999,36.6655531970001,0
                -33.823601067,36.684381962,0
                -33.8567310339999,36.703278568,0
                -33.8894981939999,36.7222420840001,0
                -33.9359114339999,36.74958331,0
                -33.981585534,36.777057766,0
                -34.0265256239999,36.8046626890001,0
                -34.070736831,36.8323953170001,0
                -34.114224286,36.860252888,0
                -34.15699312,36.8882326360001,0
                -34.19904846,36.916331804,0
                -34.240395436,36.944547625,0
                -34.266933625,36.962977186,0
                -34.2931752069999,36.9814542490001,0
                -34.3191216,36.999978055,0
                -34.344774215,37.0185478400001,0
                -34.370134471,37.037162842,0
                -34.395203782,37.0558223,0
                -34.419983562,37.0745254510001,0
                -34.4444752279999,37.0932715330001,0
                -34.4781280029999,37.119465495,0
                -34.511227834,37.1457392890001,0
                -34.54377855,37.172090848,0
                -34.575783981,37.1985181140001,0
                -34.607247957,37.22501902,0
                -34.6381743069999,37.2515915060001,0
                -34.6685668609999,37.2782335100001,0
                -34.6984294499999,37.304942967,0
                -34.722520742,37.32689062,0
                -34.746260467,37.3488810920001,0
                -34.769650735,37.3709132490001,0
                -34.792693659,37.392985953,0
                -34.8153913479999,37.415098067,0
                -34.8377459129999,37.437248454,0
                -34.859759464,37.459435979,0
                -34.8814341139999,37.481659504,0
                -34.9050952649999,37.50636481,0
                -34.928344462,37.5311115050001,0
                -34.951184589,37.5558980340001,0
                -34.9736185319999,37.580722844,0
                -34.995649175,37.6055843820001,0
                -35.0172794059999,37.630481091,0
                -35.038512109,37.6554114200001,0
                -35.059350169,37.6803738130001,0
                -35.0797964729999,37.7053667160001,0
                -35.099853906,37.730388577,0
                -35.119525353,37.7554378400001,0
                -35.138813699,37.780512951,0
                -35.15772183,37.8056123580001,0
                -35.1762526319999,37.8307345050001,0
                -35.1944089899999,37.855877838,0
                -35.21219379,37.8810408050001,0
                -35.2296099169999,37.9062218510001,0
                -35.246660257,37.9314194200001,0
                -35.263347693,37.95663196,0
                -35.2796751139999,37.9818579180001,0
                -35.311261449,38.032343865,0
                -35.341442343,38.082864832,0
                -35.370240881,38.1334083850001,0
                -35.397680146,38.1839620920001,0
                -35.4237832229999,38.234513522,0
                -35.4485731949999,38.285050244,0
                -35.4725866049999,38.3366944850001,0
                -35.4952760369999,38.388297063,0
                -35.516666168,38.4398446870001,0
                -35.5367816739999,38.491324069,0
                -35.5548438819999,38.540464522,0
                -35.5717851759999,38.589518841,0
                -35.587627116,38.638475413,0
                -35.602391267,38.6873226270001,0
                -35.6164020699999,38.737167522,0
                -35.629330608,38.786873386,0
                -35.641199964,38.836427789,0
                -35.65203322,38.8858182990001,0
                -35.6618534629999,38.935032483,0
                -35.6706837749999,38.9840579090001,0
                -35.6785472399999,39.0328821460001,0
                -35.6854669429999,39.081492761,0
                -35.691465966,39.129877322,0
                -35.6965673939999,39.1780233970001,0
                -35.700794311,39.2259185550001,0
                -35.704169801,39.273550362,0
                -35.706716946,39.320906388,0
                -35.708458832,39.3679742,0
                -35.709418543,39.414741366,0
                -35.709619161,39.4611954540001,0
                -35.7090837719999,39.507324032,0
                -35.7078354569999,39.553114668,0
                -35.705897303,39.5985549310001,0
                -35.703292392,39.643632387,0
                -35.700043808,39.6883346060001,0
                -35.696174636,39.7326491540001,0
                -35.691707959,39.7765636010001,0
                -35.6866668599999,39.820065513,0
                -35.681074425,39.8631424590001,0
                -35.674953736,39.9057820080001,0
                -35.668327878,39.947971726,0
                -35.661219933,39.989699182,0
                -35.653652988,40.030951945,0
                -35.645650125,40.07171758,0
                -35.637234427,40.111983658,0
                -35.628428979,40.151737746,0
                -35.619256864,40.190967411,0
                -35.609741168,40.2296602220001,0
                -35.599904973,40.2678037470001,0
                -35.5897713639999,40.3053855540001,0
                -35.579363422,40.3423932100001,0
                -35.568704235,40.378814284,0
                -35.557816884,40.414636344,0
                -35.546724454,40.4498469580001,0
                -35.5354500289999,40.484433693,0
                -35.524016692,40.5183841190001,0
                -35.5124475269999,40.5516858010001,0
                -35.5007656189999,40.5843263100001,0
                -35.48899405,40.616293211,0
                -35.477155906,40.6475740750001,0
                -35.465274269,40.6781564670001,0
                -35.453372224,40.7080279580001,0
                -35.441472855,40.7371761140001,0
                -35.429599245,40.765588504,0
                -35.406021638,40.8201562560001,0
                -35.382824075,40.871631758,0
                -35.360191227,40.9199155530001,0
                -35.338307765,40.964908187,0
                -35.317358359,41.006510201,0
                -35.297527681,41.044622141,0
                -35.279000402,41.0791445510001,0
                -35.261961191,41.1099779730001,0
                -35.24659472,41.1370229520001,0
                -35.221618685,41.1793497570001,0
                -35.1998650149999,41.214165979,0
                -35.172926097,41.251609682,0
                -35.14582711,41.2885900970001,0
                -35.11857007,41.3251096810001,0
                -35.091156989,41.361170886,0
                -35.063589878,41.396776167,0
                -35.035870754,41.4319279800001,0
                -35.0080016269999,41.466628777,0
                -34.9799845119999,41.5008810140001,0
                -34.9503607029999,41.5364237370001,0
                -34.9205777679999,41.571475864,0
                -34.8906380499999,41.606040251,0
                -34.860543889,41.640119752,0
                -34.83029763,41.673717223,0
                -34.799901613,41.706835518,0
                -34.76935818,41.739477493,0
                -34.7386696729999,41.771646005,0
                -34.709018855,41.802141583,0
                -34.6792380869999,41.832204362,0
                -34.649329452,41.861836882,0
                -34.6192950339999,41.8910416850001,0
                -34.589136915,41.919821309,0
                -34.558857181,41.948178295,0
                -34.5284579149999,41.976115183,0
                -34.4979412,42.003634515,0
                -34.466440475,42.031499958,0
                -34.4348200279999,42.0589293200001,0
                -34.403082124,42.085925364,0
                -34.371229031,42.1124908530001,0
                -34.3392630119999,42.1386285500001,0
                -34.307186335,42.164341215,0
                -34.275001264,42.189631612,0
                -34.242710067,42.2145025030001,0
                -34.210528869,42.2387968210001,0
                -34.178247397,42.2626825790001,0
                -34.14586787,42.286162484,0
                -34.1133925089999,42.309239244,0
                -34.080823536,42.331915569,0
                -34.0481631719999,42.354194164,0
                -34.0154136369999,42.376077738,0
                -33.9825771549999,42.397569,0
                -33.950131809,42.418368779,0
                -33.917606291,42.4387927120001,0
                -33.885002727,42.4588433930001,0
                -33.8523232439999,42.478523415,0
                -33.819569966,42.497835369,0
                -33.786745023,42.5167818470001,0
                -33.7538505379999,42.535365443,0
                -33.720888639,42.553588749,0
                -33.687619325,42.571583892,0
                -33.654285936,42.589218728,0
                -33.620890646,42.6064959070001,0
                -33.587435629,42.623418078,0
                -33.5539230589999,42.63998789,0
                -33.5203551069999,42.6562079940001,0
                -33.48673395,42.6720810400001,0
                -33.453061759,42.6876096770001,0
                -33.4193407069999,42.7027965550001,0
                -33.385572969,42.7176443230001,0
                -33.351760719,42.7321556310001,0
                -33.3179061289999,42.74633313,0
                -33.284011372,42.760179469,0
                -33.2500786219999,42.7736972970001,0
                -33.216110054,42.7868892640001,0
                -33.18210784,42.7997580200001,0
                -33.148074153,42.812306215,0
                -33.1140111669999,42.824536498,0
                -33.0799210559999,42.836451519,0
                -33.0458059929999,42.8480539280001,0
                -33.011668152,42.859346375,0
                -32.9775097039999,42.870331509,0
                -32.943332826,42.88101198,0
                -32.909139689,42.891390438,0
                -32.8749324679999,42.9014695320001,0
                -32.840713335,42.9112519130001,0
                -32.8064844639999,42.92074023,0
                -32.772248029,42.929937131,0
                -32.7380062029999,42.9388452690001,0
                -32.703761159,42.9474672910001,0
                -32.669515071,42.9558058490001,0
                -32.6352701129999,42.9638635910001,0
                -32.601028457,42.971643167,0
                -32.566792278,42.979147228,0
                -32.532563749,42.986378422,0
                -32.498345042,42.993339399,0
                -32.4641383319999,43.0000328100001,0
                -32.429945792,43.006461303,0
                -32.395769596,43.012627529,0
                -32.3616119169999,43.0185341380001,0
                -32.327474927,43.0241837780001,0
                -32.2933608019999,43.0295791010001,0
                -32.259271715,43.0347227550001,0
                -32.225209837,43.03961739,0
                -32.191177344,43.0442656560001,0
                -32.15717641,43.048670203,0
                -32.123209205,43.052833681,0
                -32.089277905,43.056758738,0
                -32.0553846839999,43.060448025,0
                -32.0215317139999,43.0639041920001,0
                -31.987721168,43.0671298880001,0
                -31.9539552209999,43.0701277640001,0
                -31.920236046,43.0729004680001,0
                -31.886565816,43.075450651,0
                -31.852946705,43.0777809620001,0
                -31.819380886,43.0798940510001,0
                -31.7858705319999,43.081792568,0
                -31.752417818,43.0834791620001,0
                -31.719024915,43.084956483,0
                -31.685694,43.086227181,0
                -31.652427243,43.0872939050001,0
                -31.6192268189999,43.0881593070001,0
                -31.586094901,43.0888260340001,0
                -31.553033663,43.089296737,0
                -31.5200452789999,43.089574064,0
                -31.48713192,43.0896606680001,0
                -31.454295762,43.089559197,0
              </coordinates>
            </LinearRing>
          </outerBoundaryIs>
        </Polygon>
      </Placemark>
    </Document>
  </Document>
</kml>
