<?xml version="1.0" encoding="UTF-8"?>
<kml xmlns="http://www.opengis.net/kml/2.2">
  <Document id="root_doc">
    <Schema id="Bioregions_PA22.schema">
      <SimpleField name="OBJECTID" type="float"/>
      <SimpleField name="Shape_Leng" type="float"/>
      <SimpleField name="Shape_Area" type="float"/>
      <SimpleField name="Bioregions" type="string"/>
    </Schema>
    <Document id="Bioregions_PA22">
      <name>Bioregions_PA22</name>
      <Placemark id="Bioregions_PA22.1">
        <ExtendedData>
          <SchemaData schemaUrl="#Bioregions_PA22.schema">
            <SimpleData name="OBJECTID">112</SimpleData>
            <SimpleData name="Shape_Leng">25.30873686000</SimpleData>
            <SimpleData name="Shape_Area">43.98701674500</SimpleData>
            <SimpleData name="Bioregions">PA22</SimpleData>
          </SchemaData>
        </ExtendedData>
        <Polygon>
          <outerBoundaryIs>
            <LinearRing>
              <coordinates>
                -16.352620096,36.5078741930001,0
                -16.326624017,36.507666382,0
                -16.3007325099999,36.5073299000001,0
                -16.274945655,36.5068658820001,0
                -16.2492635259999,36.506275465,0
                -16.223686205,36.5055597840001,0
                -16.198213766,36.504719976,0
                -16.1728462899999,36.5037571760001,0
                -16.141123013,36.502374903,0
                -16.109565705,36.5008025230001,0
                -16.0781745199999,36.499042289,0
                -16.046949613,36.4970964560001,0
                -16.015891139,36.4949672750001,0
                -15.984999251,36.4926570000001,0
                -15.954274105,36.4901678850001,0
                -15.923715854,36.487502181,0
                -15.893404314,36.484669834,0
                -15.8632590999999,36.4816663030001,0
                -15.8332803669999,36.4784938230001,0
                -15.803468267,36.475154629,0
                -15.771858852,36.471412356,0
                -15.740439314,36.4674857300001,0
                -15.7092098369999,36.463377462,0
                -15.678170608,36.459090265,0
                -15.6482801729999,36.45476856,0
                -15.6185686589999,36.450283912,0
                -15.5890362329999,36.4456387880001,0
                -15.559683064,36.4408356530001,0
                -15.5305093219999,36.4358769720001,0
                -15.501515175,36.430765212,0
                -15.4727007929999,36.4255028380001,0
                -15.444066345,36.420092315,0
                -15.416074345,36.414627829,0
                -15.3882567859999,36.409024716,0
                -15.360613827,36.4032853250001,0
                -15.333145631,36.397412004,0
                -15.305852358,36.391407099,0
                -15.278734169,36.385272957,0
                -15.2517912239999,36.3790119240001,0
                -15.2250236849999,36.3726263500001,0
                -15.205145601,36.3677771330001,0
                -15.185365525,36.3628607260001,0
                -15.1656835229999,36.357878107,0
                -15.146099664,36.3528302560001,0
                -15.1266140139999,36.3477181480001,0
                -15.10722664,36.3425427620001,0
                -15.0879376089999,36.3373050760001,0
                -15.0687469879999,36.3320060670001,0
                -15.041128059,36.3242248540001,0
                -15.0137158929999,36.316320037,0
                -14.9865106939999,36.3082945890001,0
                -14.959512665,36.3001514790001,0
                -14.939667227,36.294051451,0
                -14.919935435,36.2878898210001,0
                -14.900317371,36.2816677920001,0
                -14.880813116,36.2753865670001,0
                -14.8614227539999,36.2690473500001,0
                -14.8421463679999,36.262651346,0
                -14.8229840399999,36.256199759,0
                -14.8039358519999,36.249693791,0
                -14.781691995,36.241978553,0
                -14.7596060879999,36.2341918010001,0
                -14.7376782649999,36.2263354880001,0
                -14.715908659,36.218411572,0
                -14.685692242,36.207206349,0
                -14.6557866659999,36.1958777780001,0
                -14.626192299,36.1844312270001,0
                -14.596909511,36.1728720630001,0
                -14.5744366329999,36.1638424000001,0
                -14.5521511749999,36.1547508570001,0
                -14.53005331,36.145599933,0
                -14.5081432069999,36.136392121,0
                -14.4864210389999,36.1271299210001,0
                -14.4648869769999,36.1178158270001,0
                -14.44354119,36.1084523370001,0
                -14.4223838509999,36.0990419450001,0
                -14.4036569699999,36.090604123,0
                -14.3850805079999,36.0821326940001,0
                -14.366654586,36.0736294330001,0
                -14.348379329,36.0650961170001,0
                -14.330254856,36.0565345200001,0
                -14.3122812889999,36.047946419,0
                -14.2944587499999,36.0393335890001,0
                -14.2767873609999,36.030697806,0
                -14.2558079569999,36.020320299,0
                -14.2350460399999,36.009915429,0
                -14.214501819,35.9994862560001,0
                -14.194175505,35.989035834,0
                -14.1740673059999,35.9785672200001,0
                -14.154177433,35.968083472,0
                -14.134506094,35.9575876440001,0
                -14.1150534999999,35.9470827960001,0
                -14.090516216,35.9336517450001,0
                -14.0663368539999,35.920217333,0
                -14.042515852,35.9067859350001,0
                -14.019053646,35.8933639270001,0
                -13.995950674,35.879957688,0
                -13.973207373,35.866573594,0
                -13.950824181,35.853218021,0
                -13.9288015339999,35.839897346,0
                -13.9006331259999,35.822594365,0
                -13.873079208,35.8053756640001,0
                -13.84614075,35.788255372,0
                -13.819818719,35.7712476180001,0
                -13.789187833,35.749519138,0
                -13.7703874109999,35.7354296250001,0
                -13.750665824,35.72043698,0
                -13.731074693,35.705476489,0
                -13.7126656359999,35.691483437,0
                -13.6836002119999,35.6701407990001,0
                -13.496887181,35.5238834670001,0
                -13.380772878,35.4248605170001,0
                -13.3110166669999,35.3568726830001,0
                -13.1806128439999,35.2240119260001,0
                -13.115882875,35.1524919840001,0
                -13.0331823079999,35.054492107,0
                -12.95663825,34.956323523,0
                -12.836573093,34.7843065010001,0
                -12.776915339,34.688587845,0
                -12.712934681,34.5765167640001,0
                -12.6390900129999,34.454944633,0
                -12.652320904,34.3527122420001,0
                -12.6695703149999,34.2194295470001,0
                -12.692871657,34.0393848300001,0
                -12.7160850889999,33.8600193620001,0
                -12.737866019,33.691722558,0
                -12.7659619849999,33.474630753,0
                -12.7868848419999,33.3129641,0
                -12.805201788,33.204329945,0
                -12.832635259,33.119948676,0
                -12.8561700729999,33.0475590980001,0
                -12.873803977,32.9933198370001,0
                -12.8903185309999,32.942523527,0
                -12.906788788,32.8918634720001,0
                -12.925936055,32.8329693330001,0
                -12.9406512529999,32.7877075760001,0
                -12.9656358519999,32.710858676,0
                -12.975372599,32.6809098950001,0
                -12.996560893,32.6157378620001,0
                -13.0095396639999,32.575817097,0
                -13.041812353,32.4765511160001,0
                -13.05448604,32.4375687400001,0
                -13.093596566,32.317270594,0
                -13.230086512,32.2366030000001,0
                -13.373654443,32.154695207,0
                -13.5139289419999,32.061295242,0
                -13.667626367,31.9589577950001,0
                -13.8164303029999,31.859878614,0
                -13.926420805,31.7627453210001,0
                -13.997665657,31.593463716,0
                -14.063385598,31.437309595,0
                -14.069739039,31.4222134770001,0
                -14.1296737019999,31.279805487,0
                -14.1697879669999,31.184491834,0
                -14.190793835,31.1345807590001,0
                -14.2351753209999,31.0291279580001,0
                -14.257414233,30.9762871040001,0
                -14.296010977,30.88457916,0
                -14.3383071439999,30.7840811880001,0
                -14.393191573,30.6536728310001,0
                -14.405495989,30.6244368750001,0
                -14.45369476,30.5099139970001,0
                -14.471215752,30.4682831760001,0
                -14.529869296,30.3289191960001,0
                -14.614461403,30.127923792,0
                -14.682550998,29.9661392470001,0
                -14.771928228,29.7928899500001,0
                -14.837492367,29.685345125,0
                -14.9090337,29.583764735,0
                -14.9746233549999,29.5001031670001,0
                -15.040213009,29.4164416,0
                -15.1044337449999,29.337996004,0
                -15.2026540429999,29.2772117550001,0
                -15.2372022659999,29.279263337,0
                -15.415119741,29.289828936,0
                -15.677452478,29.305407927,0
                -15.7736977279999,29.311123706,0
                -15.9475777379999,29.321449698,0
                -16.1427931929999,29.333042533,0
                -16.1434879999999,29.3330837940001,0
                -16.413066774,29.349093037,0
                -16.44733186,29.3535106410001,0
                -16.597731284,29.3729013340001,0
                -16.77197575,29.395366901,0
                -16.7875007649999,29.397368611,0
                -16.976093292,29.4216839430001,0
                -17.117650558,29.5888047450001,0
                -17.1453726509999,29.6215310470001,0
                -17.213901286,29.702433265,0
                -17.3651089009999,29.8809463960001,0
                -17.505879582,30.047139019,0
                -17.559688609,30.1106659970001,0
                -17.631807221,30.195811652,0
                -17.814684041,30.411710601,0
                -17.994756137,30.6243074230001,0
                -18.072585907,30.716184538,0
                -18.150378003,30.8080221750001,0
                -18.258967132,30.9362223410001,0
                -18.4197683579999,30.9526929210001,0
                -18.459230727,30.956735021,0
                -18.482399508,30.9591080870001,0
                -18.7105637349999,30.98247823,0
                -18.990954474,31.029903319,0
                -19.129147368,31.0532772890001,0
                -19.188063246,31.063242491,0
                -19.215654553,31.066567347,0
                -19.337773564,31.081283624,0
                -19.508201479,31.101821773,0
                -19.706070589,31.125667164,0
                -19.942784613,31.154193322,0
                -20.1436010479999,31.178393686,0
                -20.3727676729999,31.18973472,0
                -20.4734462009999,31.1947172320001,0
                -20.510658797,31.19655893,0
                -20.770010257,31.209393762,0
                -20.7801015969999,31.226537579,0
                -20.790086227,31.2436490970001,0
                -20.799964691,31.2607282810001,0
                -20.8097372949999,31.2777751410001,0
                -20.819404349,31.2947896860001,0
                -20.8289661599999,31.3117719260001,0
                -20.8384230359999,31.328721869,0
                -20.847775285,31.3456395270001,0
                -20.857570973,31.36353002,0
                -20.8672499049999,31.3813842870001,0
                -20.876812446,31.3992023390001,0
                -20.886258965,31.416984187,0
                -20.8955898249999,31.434729845,0
                -20.9048053939999,31.4524393200001,0
                -20.913906036,31.470112628,0
                -20.92289212,31.4877497780001,0
                -20.9335764219999,31.5089700070001,0
                -20.944095311,31.5301376960001,0
                -20.954449429,31.551252861,0
                -20.964639419,31.5723155250001,0
                -20.974665923,31.5933257070001,0
                -20.9845295819999,31.614283427,0
                -20.994231037,31.6351887060001,0
                -21.0037709329999,31.656041563,0
                -21.014430756,31.679706459,0
                -21.0248831609999,31.7033035320001,0
                -21.035129094,31.726832814,0
                -21.045169502,31.7502943320001,0
                -21.05500533,31.7736881170001,0
                -21.064637524,31.7970141980001,0
                -21.07406703,31.8202726050001,0
                -21.0832947929999,31.843463367,0
                -21.0935806639999,31.8698471480001,0
                -21.1036064149999,31.896142909,0
                -21.113373452,31.9223506910001,0
                -21.1228831789999,31.9484705400001,0
                -21.132137004,31.974502499,0
                -21.1411363299999,32.0004466120001,0
                -21.149882566,32.0263029230001,0
                -21.1583771169999,32.052071477,0
                -21.1687521979999,32.0845044020001,0
                -21.1787305679999,32.1167973890001,0
                -21.1883150579999,32.148950524,0
                -21.1975085079999,32.180963897,0
                -21.206313753,32.212837596,0
                -21.2147336269999,32.2445717100001,0
                -21.222770968,32.2761663260001,0
                -21.2304286099999,32.3076215340001,0
                -21.238198607,32.341096044,0
                -21.2455413279999,32.3744114240001,0
                -21.2524602399999,32.407567783,0
                -21.2589588069999,32.4405652290001,0
                -21.2650404949999,32.473403869,0
                -21.270708767,32.506083813,0
                -21.2759670909999,32.538605169,0
                -21.28081893,32.570968044,0
                -21.2833490369999,32.588944488,0
                -21.2857544419999,32.606871712,0
                -21.288035747,32.6247497350001,0
                -21.2901935539999,32.642578574,0
                -21.292228461,32.6603582500001,0
                -21.294141071,32.6780887800001,0
                -21.2959319839999,32.695770184,0
                -21.2976017999999,32.7134024800001,0
                -21.300004475,32.7412815340001,0
                -21.30210613,32.769037052,0
                -21.303909167,32.796669109,0
                -21.3054159869999,32.8241777810001,0
                -21.3065278019999,32.849003882,0
                -21.307400037,32.873728742,0
                -21.308034483,32.898352415,0
                -21.3084329239999,32.9228749590001,0
                -21.3085971479999,32.947296427,0
                -21.308528942,32.971616877,0
                -21.3082300949999,32.9958363640001,0
                -21.307702392,33.0199549440001,0
                -21.3071611619999,33.037869459,0
                -21.3064944769999,33.0557279490001,0
                -21.3057030799999,33.0735304360001,0
                -21.30478771,33.0912769440001,0
                -21.30374911,33.108967497,0
                -21.302588016,33.1266021160001,0
                -21.301305171,33.144180825,0
                -21.2999013159999,33.161703647,0
                -21.2983771899999,33.1791706060001,0
                -21.2967335339999,33.196581725,0
                -21.2949710899999,33.2139370260001,0
                -21.293090596,33.2312365330001,0
                -21.288978422,33.265668256,0
                -21.284402938,33.29987708,0
                -21.2801530799999,33.3287849700001,0
                -21.275576273,33.3575319990001,0
                -21.270676157,33.3861182840001,0
                -21.2654563729999,33.4145439370001,0
                -21.2591324279999,33.4466949910001,0
                -21.252404628,33.4786383630001,0
                -21.245278335,33.5103742160001,0
                -21.237758914,33.541902722,0
                -21.2312406949999,33.5678454810001,0
                -21.2244597979999,33.59364636,0
                -21.217419263,33.6193054550001,0
                -21.210122134,33.64482286,0
                -21.202571454,33.670198672,0
                -21.194770263,33.695432983,0
                -21.1867216059999,33.72052589,0
                -21.178428524,33.7454774870001,0
                -21.1721543099999,33.7637981510001,0
                -21.165749896,33.7820419670001,0
                -21.1592165019999,33.800208974,0
                -21.152555352,33.818299208,0
                -21.145767667,33.8363127100001,0
                -21.138854669,33.854249515,0
                -21.1318175819999,33.8721096630001,0
                -21.124657627,33.889893193,0
                -21.117376027,33.907600142,0
                -21.1099740029999,33.9252305470001,0
                -21.102452779,33.9427844480001,0
                -21.094813576,33.9602618820001,0
                -21.087057616,33.9776628880001,0
                -21.0791861229999,33.9949875030001,0
                -21.071200318,34.012235767,0
                -21.063101423,34.029407716,0
                -21.0538562039999,34.04863562,0
                -21.044471135,34.067767035,0
                -21.034947954,34.086802016,0
                -21.025288405,34.105740617,0
                -21.0154942249999,34.124582892,0
                -21.005567157,34.1433288960001,0
                -20.995508941,34.161978683,0
                -20.9853213169999,34.1805323070001,0
                -20.975345314,34.198387822,0
                -20.96525143,34.21615346,0
                -20.955041244,34.233829271,0
                -20.944716327,34.2514153020001,0
                -20.934278256,34.268911605,0
                -20.9237286069999,34.286318227,0
                -20.913068955,34.3036352180001,0
                -20.9023008739999,34.3208626270001,0
                -20.890700657,34.339134422,0
                -20.878980848,34.3573044680001,0
                -20.8671433559999,34.375372826,0
                -20.8551900909999,34.3933395550001,0
                -20.843122966,34.4112047150001,0
                -20.830943888,34.4289683650001,0
                -20.8186547679999,34.4466305660001,0
                -20.8062575169999,34.464191376,0
                -20.794918148,34.480035765,0
                -20.783492775,34.4957967930001,0
                -20.771982823,34.511474504,0
                -20.7603897189999,34.5270689430001,0
                -20.7487148879999,34.5425801550001,0
                -20.7369597589999,34.558008183,0
                -20.7251257569999,34.5733530730001,0
                -20.7132143069999,34.588614868,0
                -20.6968632919999,34.609274896,0
                -20.6803747669999,34.6297808730001,0
                -20.6637523389999,34.6501329060001,0
                -20.646999616,34.670331113,0
                -20.630120206,34.6903756030001,0
                -20.613117717,34.710266491,0
                -20.5959957549999,34.7300038870001,0
                -20.5787579289999,34.749587906,0
                -20.561847626,34.7685295420001,0
                -20.544834008,34.787325664,0
                -20.527720417,34.8059763790001,0
                -20.5105101939999,34.8244817890001,0
                -20.493206678,34.842841998,0
                -20.4758132119999,34.861057111,0
                -20.458333136,34.8791272330001,0
                -20.440769792,34.897052467,0
                -20.42691494,34.9110338420001,0
                -20.4130123739999,34.9249259010001,0
                -20.3990637119999,34.9387286950001,0
                -20.385070576,34.952442273,0
                -20.371034586,34.9660666870001,0
                -20.356957361,34.9796019890001,0
                -20.342840522,34.993048226,0
                -20.3286856889999,35.006405451,0
                -20.314494483,35.0196737150001,0
                -20.3002685229999,35.0328530670001,0
                -20.2860094279999,35.045943558,0
                -20.271718822,35.058945238,0
                -20.257398321,35.071858159,0
                -20.2430495469999,35.084682372,0
                -20.2286741209999,35.0974179250001,0
                -20.2142736609999,35.1100648710001,0
                -20.19662835,35.1254133400001,0
                -20.1789509769999,35.1406294170001,0
                -20.1612445069999,35.1557131920001,0
                -20.1435119029999,35.170664759,0
                -20.125756133,35.185484209,0
                -20.107980159,35.2001716360001,0
                -20.090186945,35.2147271320001,0
                -20.0723794589999,35.2291507890001,0
                -20.058381916,35.2403895250001,0
                -20.0443788319999,35.251546997,0
                -20.030371643,35.262623252,0
                -20.016361785,35.2736183330001,0
                -20.002350699,35.2845322850001,0
                -19.988339819,35.295365152,0
                -19.974330583,35.3061169810001,0
                -19.96032443,35.316787816,0
                -19.944474683,35.3287697550001,0
                -19.9286328119999,35.3406480250001,0
                -19.9128009029999,35.35242269,0
                -19.8969810409999,35.3640938180001,0
                -19.8811753109999,35.3756614700001,0
                -19.8653857969999,35.387125713,0
                -19.8496145849999,35.398486613,0
                -19.8338637599999,35.4097442340001,0
                -19.8077445079999,35.4282205650001,0
                -19.7816968559999,35.446412267,0
                -19.7557303679999,35.464319635,0
                -19.7298546069999,35.481942971,0
                -19.701536646,35.5009814570001,0
                -19.673352479,35.519677728,0
                -19.6453147949999,35.538032178,0
                -19.617436283,35.5560452070001,0
                -19.589729635,35.5737172070001,0
                -19.5622075379999,35.591048576,0
                -19.5348826859999,35.6080397110001,0
                -19.507767767,35.624691005,0
                -19.4829390359999,35.6397582600001,0
                -19.4583099239999,35.654536669,0
                -19.433890412,35.6690265440001,0
                -19.4096904739999,35.6832281970001,0
                -19.385720088,35.6971419390001,0
                -19.3619892309999,35.710768081,0
                -19.3385078819999,35.7241069350001,0
                -19.3152860169999,35.7371588130001,0
                -19.2952555439999,35.7483063940001,0
                -19.2754365929999,35.7592361920001,0
                -19.255835781,35.7699484140001,0
                -19.2364597239999,35.7804432680001,0
                -19.217315038,35.7907209580001,0
                -19.198408338,35.800781693,0
                -19.179746242,35.8106256780001,0
                -19.161335365,35.8202531200001,0
                -19.1325175979999,35.8351554720001,0
                -19.104382065,35.8495087320001,0
                -19.076955583,35.8633137350001,0
                -19.050264963,35.8765713180001,0
                -19.0243370219999,35.889282318,0
                -18.9991985739999,35.9014475720001,0
                -18.974876433,35.913067918,0
                -18.9513974129999,35.924144191,0
                -18.920340261,35.938579126,0
                -18.89102087,35.95197553,0
                -18.863510348,35.9643356230001,0
                -18.8378797999999,35.9756616220001,0
                -18.80694596,35.9890754620001,0
                -18.7796005,36.0006840570001,0
                -18.7560086679999,36.0104925630001,0
                -18.7363357099999,36.0185061390001,0
                -18.700137518,36.032714293,0
                -18.678963322,36.0410706210001,0
                -18.6578274419999,36.049342176,0
                -18.636729896,36.057529233,0
                -18.6156707019999,36.06563207,0
                -18.594649881,36.0736509610001,0
                -18.57366745,36.081586182,0
                -18.552723428,36.089438009,0
                -18.531817836,36.097206719,0
                -18.504828604,36.1071344870001,0
                -18.477903765,36.1169241960001,0
                -18.4510433579999,36.1265764400001,0
                -18.424247427,36.13609182,0
                -18.3975160099999,36.14547093,0
                -18.370849149,36.1547143700001,0
                -18.344246886,36.1638227350001,0
                -18.317709259,36.1727966230001,0
                -18.289227599,36.1823028200001,0
                -18.2608208689999,36.1916547640001,0
                -18.2324891229999,36.2008532,0
                -18.2042324089999,36.2098988710001,0
                -18.17605078,36.2187925200001,0
                -18.147944287,36.2275348920001,0
                -18.11991298,36.23612673,0
                -18.091956911,36.2445687790001,0
                -18.064886836,36.252622424,0
                -18.037887774,36.2605362580001,0
                -18.0109597749999,36.2683109610001,0
                -17.984102884,36.2759472120001,0
                -17.9640204319999,36.281580181,0
                -17.943977972,36.2871360450001,0
                -17.9239755209999,36.2926150920001,0
                -17.9040130999999,36.2980176070001,0
                -17.884090729,36.303343877,0
                -17.864208425,36.3085941890001,0
                -17.844366211,36.3137688300001,0
                -17.824564105,36.3188680850001,0
                -17.7976223489999,36.3257015410001,0
                -17.770755282,36.33239604,0
                -17.743962951,36.3389523120001,0
                -17.7172454079999,36.345371082,0
                -17.690602702,36.351653077,0
                -17.6640348829999,36.3577990270001,0
                -17.6375420009999,36.3638096560001,0
                -17.6111241049999,36.3696856920001,0
                -17.593313102,36.373580931,0
                -17.575536386,36.3774152550001,0
                -17.557793972,36.3811888880001,0
                -17.5400858739999,36.384902056,0
                -17.522412107,36.3885549820001,0
                -17.5047726889999,36.392147891,0
                -17.487167633,36.3956810070001,0
                -17.469596957,36.3991545550001,0
                -17.4520606729999,36.4025687590001,0
                -17.4345587989999,36.405923844,0
                -17.417091349,36.4092200330001,0
                -17.3996583389999,36.412457553,0
                -17.382259785,36.415636626,0
                -17.364895701,36.418757477,0
                -17.347566103,36.4218203300001,0
                -17.330271006,36.424825411,0
                -17.312231927,36.42790467,0
                -17.29423057,36.4309213220001,0
                -17.276266952,36.4338756240001,0
                -17.2583410899999,36.436767833,0
                -17.240453003,36.439598204,0
                -17.222602707,36.4423669930001,0
                -17.2047902209999,36.445074457,0
                -17.1870155629999,36.4477208530001,0
                -17.1683584689999,36.4504390820001,0
                -17.1497432739999,36.453090316,0
                -17.131169997,36.455674851,0
                -17.1126386609999,36.4581929870001,0
                -17.094149285,36.4606450210001,0
                -17.075701888,36.46303125,0
                -17.057296494,36.4653519760001,0
                -17.03893312,36.467607494,0
                -17.010446913,36.4709876970001,0
                -16.9820625469999,36.4742119110001,0
                -16.953780098,36.4772812570001,0
                -16.9255996429999,36.48019686,0
                -16.8975212579999,36.4829598420001,0
                -16.8695450229999,36.4855713270001,0
                -16.8416710119999,36.488032436,0
                -16.813899304,36.490344296,0
                -16.782158489,36.4928146280001,0
                -16.7505525899999,36.4950916230001,0
                -16.7190817219999,36.4971769740001,0
                -16.687746003,36.4990723820001,0
                -16.6565455479999,36.5007795400001,0
                -16.625480474,36.5023001480001,0
                -16.594550898,36.5036359010001,0
                -16.563756935,36.504788497,0
                -16.540350245,36.505545855,0
                -16.5170226389999,36.506198307,0
                -16.4937741699999,36.506746605,0
                -16.470604888,36.507191505,0
                -16.4475148449999,36.5075337600001,0
                -16.4245040929999,36.507774125,0
                -16.401572684,36.5079133520001,0
                -16.378720669,36.5079521960001,0
                -16.352620096,36.5078741930001,0
              </coordinates>
            </LinearRing>
          </outerBoundaryIs>
        </Polygon>
      </Placemark>
    </Document>
  </Document>
</kml>
