<?xml version="1.0" encoding="UTF-8"?>
<kml xmlns="http://www.opengis.net/kml/2.2">
  <Document id="root_doc">
    <Schema id="Bioregions_PA23.schema">
      <SimpleField name="OBJECTID" type="float"/>
      <SimpleField name="Shape_Leng" type="float"/>
      <SimpleField name="Shape_Area" type="float"/>
      <SimpleField name="Bioregions" type="string"/>
    </Schema>
    <Document id="Bioregions_PA23">
      <name>Bioregions_PA23</name>
      <Placemark id="Bioregions_PA23.1">
        <ExtendedData>
          <SchemaData schemaUrl="#Bioregions_PA23.schema">
            <SimpleData name="OBJECTID">117</SimpleData>
            <SimpleData name="Shape_Leng">120.66455777800</SimpleData>
            <SimpleData name="Shape_Area">181.09477436200</SimpleData>
            <SimpleData name="Bioregions">PA23</SimpleData>
          </SchemaData>
        </ExtendedData>
        <Polygon>
          <outerBoundaryIs>
            <LinearRing>
              <coordinates>
                6.06180100400007,38.8195887850001,0
                6.20986302900008,38.7352675810001,0
                6.35677772900004,38.6515997750001,0
                6.50560172700006,38.5668446270001,0
                6.61569470100005,38.504146765,0
                6.72676972700003,38.4408896260001,0
                6.86068496200005,38.3917613570001,0
                7.04571811900007,38.32387992,0
                7.16836270100004,38.2788864130001,0
                7.30734158700005,38.227900489,0
                7.43929566300005,38.179491693,0
                7.57321075200002,38.130363478,0
                7.71390874000002,38.0787468830001,0
                7.84407937600002,38.1060643820001,0
                8.01717698800007,38.1423905,0
                8.16454082300004,38.1733161500001,0
                8.29699741300004,38.2011133770001,0
                8.41963273200003,38.2268495220001,0
                8.57800751100007,38.253288094,0
                8.74049294300005,38.2804128860001,0
                8.84800764700003,38.287827952,0
                9.01349814500003,38.2992414890001,0
                9.17245358000002,38.3102043160001,0
                9.30639100100007,38.3194417020001,0
                9.43696838600005,38.328447354,0
                9.53215500400006,38.304743462,0
                9.59616641400004,38.2888029900001,0
                9.69694051400006,38.293566884,0
                9.83048546600003,38.2998799550001,0
                9.92825875600005,38.3210237330001,0
                10.0302088060001,38.3430707480001,0
                10.1624508460001,38.371668501,0
                10.3170589370001,38.4051029820001,0
                10.4656599690001,38.4372384170001,0
                10.58787082,38.463666893,0
                10.6084431630001,38.4253365220001,0
                10.648714393,38.3503032020001,0
                10.71290007,38.230712506,0
                10.768210432,38.1276582900001,0
                10.8400732160001,38.0722231720001,0
                10.9655601330001,37.975422274,0
                11.055338857,37.906166758,0
                11.154643074,37.829563256,0
                11.242924757,37.7614625620001,0
                11.316551813,37.7046664810001,0
                11.404122838,37.6371139890001,0
                11.46651595,37.5889837980001,0
                11.526902653,37.542401356,0
                11.5854124000001,37.4972668010001,0
                11.636771998,37.465671033,0
                11.721971458,37.4132574130001,0
                11.7561618340001,37.3648405920001,0
                11.7967796990001,37.307321836,0
                11.869531178,37.20429883,0
                11.912072058,37.1296413860001,0
                11.8855115110001,37.1251385100001,0
                11.819310085,37.1096362260001,0
                11.787370504,37.1000466340001,0
                11.7536944080001,37.0881886650001,0
                11.713105969,37.0709409460001,0
                11.6736792630001,37.04996758,0
                11.6335160780001,37.02186182,0
                11.599927689,36.9883731520001,0
                11.5802843930001,36.9587382340001,0
                11.563771844,36.9074881560001,0
                11.566482804,36.8475376330001,0
                11.584008953,36.7956436260001,0
                11.598430197,36.767584361,0
                11.6169286640001,36.738072038,0
                11.6534592420001,36.6944195660001,0
                11.6973383330001,36.6544184270001,0
                11.7251607040001,36.634122474,0
                11.756706625,36.6152480170001,0
                11.7974774960001,36.5968444330001,0
                11.842766754,36.5837962620001,0
                11.902110248,36.577819677,0
                11.933932489,36.579618225,0
                11.967124862,36.585126406,0
                12.000901388,36.594486439,0
                12.035900713,36.60813934,0
                12.0811695460001,36.63171973,0
                12.128182107,36.663242831,0
                12.1630223400001,36.6912198860001,0
                12.198687493,36.723933324,0
                12.236872407,36.6770648350001,0
                12.3001146080001,36.599440815,0
                12.368646401,36.515324304,0
                12.4338563760001,36.435285021,0
                12.4354166270001,36.3843404150001,0
                12.437390699,36.3198840150001,0
                12.513855053,36.2476863160001,0
                12.5645428510001,36.19982686,0
                12.6046637640001,36.1619446660001,0
                12.5567669390001,36.120584109,0
                12.516991182,36.0744610740001,0
                12.4990073380001,36.046665241,0
                12.4845259580001,36.0163331640001,0
                12.474917309,35.9822339200001,0
                12.4727127840001,35.951365524,0
                12.4774706870001,35.9195411200001,0
                12.497821174,35.874640201,0
                12.5371529880001,35.829492384,0
                12.475196946,35.8223766260001,0
                12.3835480280001,35.8118505910001,0
                12.3487985040001,35.820766964,0
                12.31074097,35.8276047680001,0
                12.2636765830001,35.832199948,0
                12.2155126870001,35.8319785750001,0
                12.1655534760001,35.8251944150001,0
                12.1330502050001,35.816070331,0
                12.1017733850001,35.8025002730001,0
                12.070577245,35.78234329,0
                12.04266718,35.7555919550001,0
                12.020713072,35.7244595970001,0
                12.0031291870001,35.6864681550001,0
                11.9956509240001,35.6191111960001,0
                12.010374842,35.556965959,0
                12.0299681290001,35.5235005100001,0
                12.060548636,35.4915279590001,0
                12.094645842,35.4681001550001,0
                12.138398151,35.447792463,0
                12.171293797,35.437069674,0
                12.2087143210001,35.428191348,0
                12.268444233,35.419392535,0
                12.318173356,35.3936798510001,0
                12.3616392230001,35.3752742400001,0
                12.414615574,35.3573406520001,0
                12.4745942600001,35.343265246,0
                12.506338731,35.338762054,0
                12.5388099210001,35.336520541,0
                12.5814668960001,35.337684934,0
                12.6335381480001,35.346646084,0
                12.6697041510001,35.358915881,0
                12.7046760010001,35.3767903880001,0
                12.747102113,35.4089802990001,0
                12.7946749500001,35.464365473,0
                12.8062092100001,35.528760972,0
                12.8031086710001,35.5603459290001,0
                12.7944513460001,35.5964089550001,0
                12.7762746990001,35.6438590550001,0
                12.7606723980001,35.6752630390001,0
                12.7411156590001,35.709085433,0
                12.7956897080001,35.7026418,0
                12.8412595880001,35.703651198,0
                12.883426618,35.711021703,0
                12.924308508,35.7271965140001,0
                12.959827773,35.7548329640001,0
                12.98590948,35.7965905340001,0
                13.049802605,35.7627418440001,0
                13.11320915,35.729150931,0
                13.200304526,35.6414434390001,0
                13.331925181,35.5088977410001,0
                13.4819391890001,35.357829419,0
                13.596985117,35.241974935,0
                13.5442083500001,35.188189477,0
                13.577652953,35.0693222250001,0
                13.617945746,34.926115451,0
                13.6620134070001,34.769492223,0
                13.8073527080001,34.7312681510001,0
                13.9694345840001,34.688640799,0
                14.045137063,34.67780535,0
                14.183461193,34.6580067360001,0
                14.345428639,34.634824006,0
                14.5502233500001,34.6055113240001,0
                14.7056111860001,34.592258977,0
                14.890085449,34.5765259770001,0
                15.0758984510001,34.560678802,0
                15.0819420280001,34.4437011680001,0
                15.0901662910001,34.284514852,0
                15.284464165,34.3184963480001,0
                15.526571545,34.360839431,0
                15.7264700640001,34.3958004450001,0
                15.935578945,34.464251706,0
                16.1133547480001,34.522446164,0
                16.3214322110001,34.5905597930001,0
                16.484638074,34.643984817,0
                16.6486222890001,34.7275899840001,0
                16.808487207,34.809094981,0
                16.9517119330001,34.8821161990001,0
                17.1158432440001,34.9657963600001,0
                17.2695930690001,35.0441836590001,0
                17.397517238,35.109404092,0
                17.501189959,35.156649185,0
                17.6022549420001,35.2027058950001,0
                17.7701657010001,35.279225151,0
                17.9126128090001,35.344140269,0
                18.058239653,35.4105044360001,0
                18.208340069,35.4789072720001,0
                18.343442103,35.434033013,0
                18.514686383,35.3771540750001,0
                18.6795891890001,35.3223814630001,0
                18.8682746010001,35.2597094380001,0
                19.0823307810001,35.188610489,0
                19.2726018590001,35.1254117830001,0
                19.4612881030001,35.062739482,0
                19.6528122390001,34.999124572,0
                19.798923012,34.983169106,0
                20.0320825540001,34.9577078140001,0
                20.258870211,34.9329423410001,0
                20.418512166,34.915509254,0
                20.501430032,34.9141075420001,0
                20.596598049,34.9124987430001,0
                20.7658068160001,34.9096382980001,0
                20.8885875490001,34.9075627120001,0
                21.0143252780001,34.8962470710001,0
                21.1258072740001,34.886214361,0
                21.2499581910001,34.875041524,0
                21.3849393240001,34.805463446,0
                21.54675468,34.7220532600001,0
                21.723243699,34.6310793100001,0
                21.852027488,34.564695747,0
                21.96251505,34.514475799,0
                22.068000462,34.466529479,0
                22.2124946920001,34.400852469,0
                22.330723183,34.347114033,0
                22.468458254,34.2845092650001,0
                22.6232111480001,34.21416938,0
                22.7804558280001,34.128790318,0
                22.950554341,34.036432017,0
                23.110274039,33.9497090950001,0
                23.239230052,33.879689915,0
                23.367523767,33.8372330660001,0
                23.5420202620001,33.7794861100001,0
                23.677704304,33.734583544,0
                23.834546635,33.685550763,0
                24.026158401,33.6256481980001,0
                24.1338604320001,33.591977888,0
                24.2429274150001,33.5524496830001,0
                24.3691087450001,33.5067188720001,0
                24.4704454490001,33.5012066520001,0
                24.605280657,33.526615554,0
                24.7219736650001,33.5486056660001,0
                24.861979461,33.5453358770001,0
                25.080696249,33.5402278190001,0
                25.235032088,33.512848021,0
                25.523465243,33.4616788220001,0
                25.6747249100001,33.43484475,0
                25.9082884470001,33.3934096400001,0
                26.091858528,33.360843571,0
                26.29925388,33.365250797,0
                26.5738762290001,33.37108662,0
                26.7955796100001,33.3757978960001,0
                26.993620532,33.3800063370001,0
                27.1428926680001,33.4036028300001,0
                27.328191528,33.4328943200001,0
                27.5674737350001,33.4707193360001,0
                27.746810737,33.4990683930001,0
                27.9264275840001,33.502341103,0
                28.0847912950001,33.50522657,0
                28.2393860010001,33.5080433640001,0
                28.386692759,33.5260830450001,0
                28.527888568,33.54337436,0
                28.726268657,33.5676686530001,0
                28.888077218,33.6628823820001,0
                29.0496859140001,33.7579785030001,0
                29.1543035720001,33.819539134,0
                29.3055082600001,33.8332047270001,0
                29.4789342400001,33.848878638,0
                29.642814521,33.863689827,0
                29.8098175820001,33.8787830360001,0
                29.809872285,33.8758015120001,0
                29.8129546590001,33.7077455510001,0
                29.8138831370001,33.656076763,0
                29.819858676,33.3214073570001,0
                29.8248046090001,33.0468340250001,0
                29.8319045980001,32.6526782810001,0
                29.8392159850001,32.2467868620001,0
                29.847176141,31.8048789690001,0
                29.8521257250001,31.530103013,0
                29.8565588860001,31.2839961610001,0
                29.856572586,31.283176699,0
                30.0004549490001,31.327972979,0
                30.168807434,31.380387914,0
                30.3178079520001,31.578568063,0
                30.4240175800001,31.475896377,0
                30.5090670290001,31.393678449,0
                30.4214799270001,31.2921863820001,0
                30.3783306760001,31.242185165,0
                30.318241507,31.17255419,0
                30.2078592350001,31.0978010160001,0
                30.04476978,31.0111230360001,0
                29.8317769350001,30.8979223790001,0
                29.8311079050001,30.897567737,0
                29.631561177,30.861714045,0
                29.535293203,30.8444171290001,0
                29.313387156,30.84418006,0
                29.0492020470001,30.854464783,0
                28.8890698010001,30.9381266070001,0
                28.8271756460001,30.970463593,0
                28.758763808,31.026679487,0
                28.647378297,31.118208296,0
                28.4043062960001,31.14964939,0
                28.1401323870001,31.1493671640001,0
                27.949933088,31.149163974,0
                27.770179667,31.2546411000001,0
                27.558855286,31.2438484780001,0
                27.4036620480001,31.316676962,0
                27.379124959,31.328191717,0
                27.351351197,31.3662952820001,0
                27.2944662570001,31.444337422,0
                27.0619938950001,31.4440890650001,0
                27.03902076,31.448117779,0
                26.882320916,31.4755977520001,0
                26.7222051420001,31.501041194,0
                26.6181063440001,31.517583234,0
                26.417313118,31.538502523,0
                26.163443623,31.610742825,0
                26.121347137,31.62272169,0
                25.9311555790001,31.6542115130001,0
                25.8042837470001,31.675217559,0
                25.6246892940001,31.632757929,0
                25.4348119320001,31.571772712,0
                25.360610417,31.547940693,0
                25.128115747,31.568826019,0
                25.106234004,31.659569714,0
                25.0644303890001,31.832930764,0
                25.040740278,31.9019410180001,0
                25.0184997470001,31.9667294120001,0
                24.8745005820001,32.0179837860001,0
                24.821174054,32.0369646190001,0
                24.637969237,32.0790365990001,0
                24.5721662230001,32.067997098,0
                24.468929706,32.0506775480001,0
                24.296215331,32.063777644,0
                24.285755507,32.0645710060001,0
                24.144863018,32.0644205360001,0
                23.975703722,32.1487751400001,0
                23.778362885,32.233099684,0
                23.56696578,32.289230549,0
                23.370563444,32.2786834140001,0
                23.2992834,32.274855562,0
                23.216438081,32.3102563640001,0
                23.151281738,32.3380989250001,0
                23.0774438670001,32.343699257,0
                23.01389821,32.3485189200001,0
                22.813183872,32.29546996,0
                22.7917389360001,32.2887432200001,0
                22.644171128,32.2424549580001,0
                22.5922783990001,32.2359121040001,0
                22.3905966950001,32.2104832900001,0
                22.0841605040001,32.210155892,0
                21.8516990590001,32.199340593,0
                21.6834349100001,32.192430046,0
                21.5875366430001,32.1884915470001,0
                21.333973283,32.145952901,0
                21.0910257140001,32.061157984,0
                20.890356667,31.9658414140001,0
                20.81855104,31.9075850950001,0
                20.6686464040001,31.7859670010001,0
                20.5673595860001,31.6527352840001,0
                20.499809871,31.563881462,0
                20.4154898940001,31.3630198590001,0
                20.29940047,31.225526044,0
                20.199948906,31.1569958490001,0
                20.1304555790001,31.109109414,0
                20.054264339,31.016390411,0
                19.982709732,30.929314004,0
                19.782210019,30.675493859,0
                19.6238872280001,30.5062541410001,0
                19.359848621,30.3791690890001,0
                19.2567851160001,30.3348679200001,0
                19.1380477870001,30.2838299590001,0
                19.0418072790001,30.2962782320001,0
                18.8949721720001,30.315270879,0
                18.743795832,30.421743124,0
                18.7152017110001,30.441881799,0
                18.471994496,30.6001257290001,0
                18.281699057,30.6844578010001,0
                18.038469263,30.8638355080001,0
                17.64736931,30.9796536750001,0
                17.3619287280001,31.1061517040001,0
                17.055385819,31.200926565,0
                16.73828868,31.285123008,0
                16.631529076,31.3038451400001,0
                16.5586153670001,31.3166318450001,0
                16.262744141,31.316315757,0
                15.935167415,31.315965797,0
                15.660427843,31.3156722850001,0
                15.311719462,31.3152997490001,0
                15.058115554,31.3150288160001,0
                15.041030757,31.321414846,0
                14.804410531,31.4098599610001,0
                14.737435443,31.454405353,0
                14.6775137710001,31.4942597670001,0
                14.622827654,31.592450109,0
                14.571644658,31.6843511980001,0
                14.450254952,31.8153005130001,0
                14.441167191,31.8251039790001,0
                14.34951204,31.8954522070001,0
                14.120531086,31.926908224,0
                13.9972344550001,31.940865865,0
                13.8070293280001,31.9406626630001,0
                13.61330066,31.943977896,0
                13.465735255,31.929860154,0
                13.3526727030001,31.919043297,0
                13.120234209,31.8870943540001,0
                12.9018714580001,31.869249488,0
                12.718734306,31.8479200360001,0
                12.5250241100001,31.833623888,0
                12.3769967010001,31.835642523,0
                12.28550239,31.836890216,0
                12.2851818120001,31.8368848640001,0
                12.0600793310001,31.833127204,0
                11.9319985830001,31.8463306620001,0
                11.8909916870001,31.850557941,0
                11.6972659840001,31.850351,0
                11.3594679190001,31.827681225,0
                11.3239278720001,31.8252961210001,0
                11.135717218,31.827783647,0
                11.0773611130001,31.8285549140001,0
                10.9787399580001,31.824927422,0
                10.851915369,31.8459256470001,0
                10.8377647180001,31.902267352,0
                10.859349949,31.9365219600001,0
                10.8799650610001,31.9692362160001,0
                10.9185687180001,31.9858305120001,0
                10.9538954820001,32.0010159830001,0
                11.1088444540001,32.032882295,0
                11.1379853550001,32.0412418870001,0
                11.33068352,32.0965207040001,0
                11.4112731430001,32.1163486930001,0
                11.50322787,32.138972794,0
                11.6214575180001,32.1543564250001,0
                11.721584036,32.167384482,0
                11.890592762,32.2239218440001,0
                11.9359122650001,32.2397396920001,0
                12.0525564930001,32.2804518400001,0
                12.1334915,32.354506697,0
                12.121628393,32.4158430460001,0
                12.1157826570001,32.4460677440001,0
                12.108887343,32.450271296,0
                12.05233824,32.4847452750001,0
                11.980152538,32.539252199,0
                11.9219106520001,32.583230499,0
                11.8739846450001,32.6177647960001,0
                11.8584584170001,32.628952693,0
                11.79501028,32.671152589,0
                11.7279926160001,32.7591385900001,0
                11.6945978790001,32.7882976450001,0
                11.6715865420001,32.808390613,0
                11.520098422,32.8364071760001,0
                11.512939465,32.8696305080001,0
                11.5094753380001,32.885708117,0
                11.5202206720001,32.926173164,0
                11.537543769,32.991407269,0
                11.6125986060001,33.009749287,0
                11.667832027,33.0232472380001,0
                11.660696494,33.107774911,0
                11.484498731,33.1850772220001,0
                11.325956816,33.1584793650001,0
                11.3154600570001,33.1567183670001,0
                11.3296784300001,33.036975183,0
                11.3028719910001,32.7867696120001,0
                10.8578392210001,32.8955788600001,0
                10.829281409,32.8980314460001,0
                10.6957999520001,32.9094949620001,0
                10.5478700260001,32.9022923750001,0
                10.433176712,32.8748550930001,0
                10.3999699780001,32.866911315,0
                10.3787025,32.8698216230001,0
                10.19564911,32.894871413,0
                10.1191833230001,32.9542119380001,0
                10.0687372400001,32.9933604020001,0
                10.009665516,33.049500128,0
                9.92065363300003,33.1340944510001,0
                9.92050311300005,33.2749864640001,0
                9.87107006700006,33.3876474250001,0
                9.85386942000002,33.4731658110001,0
                9.83565538300007,33.563724849,0
                9.77406854500003,33.82117528,0
                9.76489516700008,33.8595228830001,0
                9.86345996300003,33.9159846650001,0
                9.98847003300006,33.79955783,0
                10.0750072010001,33.7189619700001,0
                10.237035576,33.71913507,0
                10.2527811590001,33.782411994,0
                10.2580766900001,33.80369288,0
                10.1523085530001,33.8951598150001,0
                10.0183108580001,34.035908874,0
                9.92653532600002,34.2189707050001,0
                9.94422358200006,34.331768513,0
                9.94752808000004,34.352840724,0
                9.96619215900006,34.405619399,0
                10.0247841070001,34.57130619,0
                10.1015955500001,34.699634282,0
                10.130266356,34.747534139,0
                9.90472673200003,34.852962045,0
                9.89826290200006,34.6388237460001,0
                9.89792193600005,34.6275275360001,0
                9.89572166000005,34.625452217,0
                9.77828562700006,34.5146859550001,0
                9.66867521100005,34.500270034,0
                9.61627993700006,34.493379056,0
                9.66003809700004,34.3788841780001,0
                9.67279595000002,34.3455026180001,0
                9.67998416500006,34.2116626870001,0
                9.59903516800006,34.156343991,0
                9.52511390800004,34.1058283030001,0
                9.45750990000005,34.1263246570001,0
                9.36303710500005,34.154967191,0
                9.07420746900004,34.1546586310001,0
                8.83467494200005,34.16849197,0
                8.56929480700006,34.199062956,0
                8.53172091800008,34.2033913600001,0
                8.26397404000005,34.2524176040001,0
                8.09229005600002,34.2825255110001,0
                8.02441120200007,34.294429317,0
                7.84116117500002,34.3787688740001,0
                7.79503183300005,34.3986998880001,0
                7.62972707900008,34.4701229400001,0
                7.43945421800004,34.533321153,0
                7.39173092900006,34.5592855780001,0
                7.28438092800008,34.617690802,0
                7.20441312600008,34.6889382160001,0
                7.08694709400004,34.7935951420001,0
                6.88963624900003,34.8497412300001,0
                6.74169855700006,34.849583185,0
                6.50218126600004,34.8493273,0
                6.26932447900003,34.797319891,0
                6.24863744400005,34.7926995500001,0
                5.95980752400004,34.7923909830001,0
                5.83930692900003,34.778488929,0
                5.71327887600006,34.7639491680001,0
                5.53017936900005,34.707396675,0
                5.21333805100005,34.5520767580001,0
                5.11780820000007,34.4964720630001,0
                4.99508719400006,34.425040612,0
                4.74219617800003,34.2701233970001,0
                4.61493019100004,34.192162334,0
                4.40236463200006,34.0292527030001,0
                4.37560836400007,34.0087468030001,0
                4.00247681200005,33.789965233,0
                3.68565060700007,33.620556101,0
                3.60474776600006,33.5968654070001,0
                3.34761759800006,33.5215704080001,0
                3.07830774700005,33.444313972,0
                3.05183262600002,33.4367191160001,0
                2.89977283700006,33.406734693,0
                2.69263366500007,33.3658892940001,0
                2.34040568900002,33.365512978,0
                2.01645046500005,33.273586933,0
                1.74883137400008,33.202854937,0
                1.33332734800007,33.082652668,0
                1.19279729700003,33.031892613,0
                0.981229335000023,32.9554735410001,0
                0.73664042300004,32.865493568,0
                0.558722210000042,32.8000407100001,0
                0.217339732000028,32.673188323,0
                0.178462835000062,32.658742293,0
                -0.0961488179999606,32.5386905440001,0
                -0.384866318999968,32.432712929,0
                -0.606768036999938,32.302951201,0
                -0.638311761999944,32.284505376,0
                -0.905900748999954,32.1855949390001,0
                -1.17353489199996,32.128952069,0
                -1.39890924199995,32.079399075,0
                -1.53970380099997,31.987668698,0
                -1.77210079599996,31.916974269,0
                -1.88389187999996,31.8937207490001,0
                -1.97635175099992,31.8744884480001,0
                -2.16655595299994,31.874285242,0
                -2.25817343999995,31.9094103800001,0
                -2.33571553699994,31.958639884,0
                -2.31542754099996,32.0174513640001,0
                -2.27250792799992,32.141867195,0
                -2.51206331599997,32.176834436,0
                -2.53880087899995,32.1844427770001,0
                -2.61071851799994,32.2049074390001,0
                -2.80800630399995,32.2399196850001,0
                -2.97003037599995,32.2397465700001,0
                -3.12490830299993,32.1409565500001,0
                -3.25103264199993,32.1111375570001,0
                -3.36436108999993,32.0843439270001,0
                -3.65313842199993,32.0347230730001,0
                -3.75595061199994,32.0239024910001,0
                -3.99124380099994,31.9991388440001,0
                -4.20958773699994,31.963682578,0
                -4.44747795299998,31.919597679,0
                -4.47722919499995,31.914084299,0
                -4.67447887499998,31.9138735340001,0
                -4.81624107399995,31.8448299350001,0
                -4.92091009799998,31.793851929,0
                -5.16029960499998,31.6738378210001,0
                -5.16305773799996,31.672693082,0
                -5.36450526899995,31.589084428,0
                -5.25168384699998,31.4905803890001,0
                -5.13185981099997,31.427306833,0
                -5.19348174299995,31.322289486,0
                -5.20217559899993,31.3074733490001,0
                -5.28656724199993,31.1735356130001,0
                -5.30905987999995,31.144846611,0
                -5.36395587399994,31.0748283630001,0
                -5.49767503099997,30.954927135,0
                -5.56195227699993,30.941999842,0
                -5.63853282099996,30.9265982480001,0
                -5.74608485999994,30.8995886020001,0
                -5.75121820199996,30.8982994510001,0
                -5.74405260199995,30.785593337,0
                -5.87081692599997,30.7502347710001,0
                -5.96941942699993,30.7289956230001,0
                -6.10325856999998,30.721808106,0
                -6.20190657899997,30.7428364420001,0
                -6.30056635999995,30.7779530930001,0
                -6.32231949599998,30.7810376100001,0
                -6.39920957099997,30.7919380160001,0
                -6.57535416799993,30.8199282460001,0
                -6.56925736299996,30.8358301370001,0
                -6.50510107199995,31.003163237,0
                -6.50104348199994,31.0650616450001,0
                -6.49817430899998,31.1088394550001,0
                -6.54822104599998,31.0987742900001,0
                -6.56860245899998,31.0946752200001,0
                -6.65687973199994,31.086555006,0
                -6.72357057699998,31.0804204470001,0
                -6.85739509699994,31.0591436760001,0
                -6.99826501499996,31.0378593780001,0
                -7.13914998599995,31.030664266,0
                -7.18046270099995,30.947813578,0
                -7.20241303799997,30.9037937000001,0
                -7.12413748599994,30.8698598340001,0
                -7.04031399599995,30.8335207160001,0
                -7.02946024899995,30.7956899110001,0
                -7.01202747999997,30.734926376,0
                -7.07307579499997,30.6669507500001,0
                -7.07535520799996,30.664412703,0
                -7.15380534999997,30.6220620830001,0
                -7.16688239299998,30.6150025520001,0
                -7.16988881899994,30.612623838,0
                -7.30061666299997,30.509190527,0
                -7.39962827399995,30.4099674010001,0
                -7.44135857899994,30.368147981,0
                -7.44766181499995,30.3594613280001,0
                -7.55390447999997,30.213046364,0
                -7.62547733099996,30.1186650280001,0
                -7.68756801499995,30.0367882350001,0
                -7.79608449199998,29.9527476010001,0
                -7.84241840499993,29.9168644430001,0
                -7.97626578399996,29.916721468,0
                -8.11716509899998,29.923615586,0
                -8.12386416399994,29.8145755210001,0
                -8.12409032399995,29.810894354,0
                -8.24371910099995,29.691008181,0
                -8.38447602999997,29.5640549550001,0
                -8.57452291999994,29.415914888,0
                -8.80686723199995,29.2959082950001,0
                -8.97525039099997,29.1987209160001,0
                -9.03919657599994,29.1618124820001,0
                -9.05402707799993,29.1361324170001,0
                -9.11654291399998,29.027882301,0
                -9.25028472699995,28.929114982,0
                -9.42627880499998,28.816213067,0
                -9.57408848099993,28.696296783,0
                -9.70784534399996,28.611618654,0
                -9.74994709099997,28.456592163,0
                -9.79915426699995,28.3579151540001,0
                -9.82599860499994,28.3481214560001,0
                -9.87661809199994,28.329653998,0
                -10.027269904,28.2864357820001,0
                -10.073803805,28.2730865090001,0
                -10.2639933319999,28.2587941470001,0
                -10.4259693399999,28.2093087380001,0
                -10.6090989649999,28.1809346920001,0
                -10.8063630419999,28.159279311,0
                -10.933108873,28.145365382,0
                -11.200705386,28.053499538,0
                -11.4541964049999,27.9475595590001,0
                -11.6430520009999,27.9029109410001,0
                -11.693657984,27.8909469160001,0
                -11.954251729,27.8343117110001,0
                -12.1044753159999,27.80409895,0
                -12.1303234659999,27.798900448,0
                -12.3557533109999,27.7986596040001,0
                -12.471229218,27.7561777560001,0
                -12.567004305,27.720943173,0
                -12.76606406,27.6676334140001,0
                -12.7782847359999,27.664360635,0
                -12.7839458989999,27.6584034860001,0
                -12.9190150379999,27.516273502,0
                -13.0316402469999,27.431617697,0
                -13.1295019849999,27.3212880510001,0
                -13.144220371,27.3046945790001,0
                -13.2426951149999,27.16369704,0
                -13.271901068,27.1490545730001,0
                -13.383507988,27.0931006010001,0
                -13.5170571789999,27.055355567,0
                -13.678554151,27.0928227200001,0
                -13.820559078,27.1257678170001,0
                -13.9717612699999,27.1608472190001,0
                -14.1453449909999,27.2011192090001,0
                -14.3232121899999,27.242384283,0
                -14.4348977719999,27.2682950560001,0
                -14.554050818,27.2503106780001,0
                -14.6085899729999,27.242078776,0
                -14.7816785159999,27.2159535970001,0
                -14.790857057,27.260897917,0
                -14.81389287,27.373708793,0
                -14.8156162989999,27.3821474860001,0
                -14.83287252,27.466620662,0
                -14.842309891,27.512819064,0
                -14.8526723869999,27.5635499250001,0
                -14.885909311,27.7263066800001,0
                -14.886875596,27.7310378110001,0
                -14.9148667389999,27.868088228,0
                -14.9374673299999,27.978738166,0
                -14.9441052089999,28.0112410040001,0
                -14.978715284,28.180711651,0
                -14.9987680089999,28.2789043490001,0
                -15.003401019,28.301591919,0
                -15.0157275669999,28.361951103,0
                -15.0260017589999,28.4122505350001,0
                -15.028283829,28.4234225490001,0
                -15.0504650999999,28.5320169410001,0
                -15.071666292,28.635827507,0
                -15.093590954,28.743180502,0
                -15.112676942,28.8366340740001,0
                -15.136716808,28.9543440620001,0
                -15.1480040889999,29.0096176010001,0
                -15.169898599,29.116838371,0
                -15.183999166,29.1858799080001,0
                -15.2026540429999,29.2772117550001,0
                -15.1044337449999,29.337996004,0
                -15.040213009,29.4164416,0
                -14.9746233549999,29.5001031670001,0
                -14.9090337,29.583764735,0
                -14.837492367,29.685345125,0
                -14.771928228,29.7928899500001,0
                -14.682550998,29.9661392470001,0
                -14.614461403,30.127923792,0
                -14.529869296,30.3289191960001,0
                -14.471215752,30.4682831760001,0
                -14.45369476,30.5099139970001,0
                -14.405495989,30.6244368750001,0
                -14.393191573,30.6536728310001,0
                -14.3383071439999,30.7840811880001,0
                -14.296010977,30.88457916,0
                -14.257414233,30.9762871040001,0
                -14.2351753209999,31.0291279580001,0
                -14.190793835,31.1345807590001,0
                -14.1697879669999,31.184491834,0
                -14.1296737019999,31.279805487,0
                -14.069739039,31.4222134770001,0
                -14.063385598,31.437309595,0
                -13.997665657,31.593463716,0
                -13.926420805,31.7627453210001,0
                -13.8164303029999,31.859878614,0
                -13.667626367,31.9589577950001,0
                -13.5139289419999,32.061295242,0
                -13.373654443,32.154695207,0
                -13.230086512,32.2366030000001,0
                -13.093596566,32.317270594,0
                -13.05448604,32.4375687400001,0
                -13.041812353,32.4765511160001,0
                -13.0095396639999,32.575817097,0
                -12.996560893,32.6157378620001,0
                -12.975372599,32.6809098950001,0
                -12.9656358519999,32.710858676,0
                -12.9406512529999,32.7877075760001,0
                -12.925936055,32.8329693330001,0
                -12.906788788,32.8918634720001,0
                -12.8903185309999,32.942523527,0
                -12.873803977,32.9933198370001,0
                -12.8561700729999,33.0475590980001,0
                -12.832635259,33.119948676,0
                -12.805201788,33.204329945,0
                -12.7868848419999,33.3129641,0
                -12.7659619849999,33.474630753,0
                -12.737866019,33.691722558,0
                -12.7160850889999,33.8600193620001,0
                -12.692871657,34.0393848300001,0
                -12.6695703149999,34.2194295470001,0
                -12.652320904,34.3527122420001,0
                -12.6390900129999,34.454944633,0
                -12.599906303,34.5352093830001,0
                -12.501467659,34.6436004170001,0
                -12.40350145,34.751471253,0
                -12.35093211,34.8093554820001,0
                -12.266858672,34.901928954,0
                -12.118554203,34.915729862,0
                -11.8746873769999,34.938423605,0
                -11.652738147,34.9590777430001,0
                -11.3522100669999,34.9870442660001,0
                -11.0883519249999,35.0115983600001,0
                -10.770662688,35.041161865,0
                -10.469170257,35.069218129,0
                -10.0681445819999,35.1065367510001,0
                -9.75713895699994,35.1354782930001,0
                -9.55332971699994,35.1544443610001,0
                -9.27106197499995,35.1934754920001,0
                -8.99645840799997,35.231446846,0
                -8.79586810499995,35.259183868,0
                -8.59413134099998,35.2870794190001,0
                -8.37263371399996,35.404921604,0
                -8.11633509799998,35.5412787710001,0
                -7.85927867699996,35.6780391090001,0
                -7.62881901299994,35.8006493190001,0
                -7.35342746399994,35.840369572,0
                -7.06916421899996,35.8813694070001,0
                -6.75633648899998,35.9264891540001,0
                -6.48122640099996,35.966168812,0
                -6.33554143599997,35.987181235,0
                -6.18805817899994,36.0084530290001,0
                -6.03232270499996,36.0005420110001,0
                -5.87478234099996,35.9925393080001,0
                -5.72443203799997,35.984901844,0
                -5.61031215299994,36.0156223560001,0
                -5.45267465699993,36.058057596,0
                -5.40609606199996,36.0004163730001,0
                -5.36098641499996,35.944592979,0
                -5.31583326899994,35.8348616660001,0
                -5.20903674799996,35.838899676,0
                -5.04000664699993,35.845290757,0
                -4.89735812599997,35.8506843430001,0
                -4.77731307199997,35.855223284,0
                -4.72741593499995,35.9240335920001,0
                -4.61892240799995,35.9610616530001,0
                -4.53078436299995,35.933044415,0
                -4.45919054299998,35.924738624,0
                -4.29286427299996,35.975631483,0
                -4.15100910399997,36.019036622,0
                -4.01847463199994,36.0595897950001,0
                -3.91441006299993,35.9865843360001,0
                -3.82086947699997,35.9209618730001,0
                -3.69968314499994,35.8359448140001,0
                -3.52321956999998,35.712148556,0
                -3.30630792099993,35.7296373630001,0
                -3.01589947299993,35.7530519520001,0
                -2.74690826699998,35.7747397470001,0
                -2.48915201399996,35.795521707,0
                -2.36370194299997,35.861182086,0
                -2.21844593199995,35.9372088650001,0
                -2.20090780399994,36.005912553,0
                -2.06898091899996,36.0860428400001,0
                -1.90713344399995,36.1843464150001,0
                -1.74142408999995,36.284995635,0
                -1.56331048099997,36.3931790010001,0
                -1.42826317099997,36.475204584,0
                -1.27061871199993,36.544577449,0
                -1.10191663599994,36.618816317,0
                -0.967125821999957,36.741631274,0
                -0.793747873999962,36.771911188,0
                -0.663596544999962,36.794641708,0
                -0.486467177999941,36.8689477620001,0
                -0.354446735999943,36.930729145,0
                -0.183692269999938,37.0031188240001,0
                -0.0164268659999607,37.100057701,0
                0.154239799000038,37.198967785,0
                0.249933615000032,37.282565177,0
                0.370826419000025,37.3881762140001,0
                0.474876130000041,37.479073251,0
                0.599537833000056,37.587976768,0
                0.689130983000041,37.666244664,0
                0.824761745000046,37.6670528290001,0
                0.937455097000054,37.66772432,0
                1.08892609500003,37.668626869,0
                1.19459191400006,37.6692564850001,0
                1.32241562900003,37.6700181310001,0
                1.46159675400003,37.6776811560001,0
                1.61336523800003,37.6860372150001,0
                1.78324574900006,37.6953904860001,0
                1.87676055800006,37.7164310470001,0
                1.96174658300004,37.735552657,0
                2.07250511000007,37.760473006,0
                2.19896589500007,37.823195232,0
                2.31325904700003,37.879882534,0
                2.41064186700004,37.928182624,0
                2.52779298000007,37.9862874240001,0
                2.64776350800003,38.0457906010001,0
                2.76157674800004,38.044661132,0
                2.93062854400006,38.0429834820001,0
                3.05746109300003,38.0417248100001,0
                3.16318055800002,38.054195556,0
                3.25867090500003,38.0654596690001,0
                3.38737391100005,38.102958818,0
                3.53833448500006,38.1469429740001,0
                3.69484869600007,38.192545248,0
                3.84486646000005,38.2362547050001,0
                3.99446515300002,38.2798420610001,0
                4.14029235200007,38.322330548,0
                4.27690028700005,38.362132892,0
                4.37212810400007,38.389878647,0
                4.46108209800002,38.4157964500001,0
                4.59276406000004,38.429726541,0
                4.77574134900004,38.4490829530001,0
                4.90682721400003,38.4629499850001,0
                5.07238526600003,38.480463688,0
                5.21593644900003,38.495649375,0
                5.33531974100003,38.5546500070001,0
                5.46807796700006,38.6202606890001,0
                5.60354770600003,38.6872114330001,0
                5.77259198200005,38.770755111,0
                5.87337382500004,38.8205626870001,0
                5.97334010000003,38.8699672000001,0
                6.06180100400007,38.8195887850001,0
              </coordinates>
            </LinearRing>
          </outerBoundaryIs>
        </Polygon>
      </Placemark>
    </Document>
  </Document>
</kml>
