<?xml version="1.0" encoding="UTF-8"?>
<kml xmlns="http://www.opengis.net/kml/2.2">
  <Document id="root_doc">
    <Schema id="Bioregions_PA24.schema">
      <SimpleField name="OBJECTID" type="float"/>
      <SimpleField name="Shape_Leng" type="float"/>
      <SimpleField name="Shape_Area" type="float"/>
      <SimpleField name="Bioregions" type="string"/>
    </Schema>
    <Document id="Bioregions_PA24">
      <name>Bioregions_PA24</name>
      <Placemark id="Bioregions_PA24.1">
        <ExtendedData>
          <SchemaData schemaUrl="#Bioregions_PA24.schema">
            <SimpleData name="OBJECTID">108</SimpleData>
            <SimpleData name="Shape_Leng">202.86257461200</SimpleData>
            <SimpleData name="Shape_Area">441.00941525300</SimpleData>
            <SimpleData name="Bioregions">PA24</SimpleData>
          </SchemaData>
        </ExtendedData>
        <Polygon>
          <outerBoundaryIs>
            <LinearRing>
              <coordinates>
                9.92653532600002,34.2189707050001,0
                10.0183108580001,34.035908874,0
                10.1523085530001,33.8951598150001,0
                10.2580766900001,33.80369288,0
                10.2527811590001,33.782411994,0
                10.237035576,33.71913507,0
                10.0750072010001,33.7189619700001,0
                9.98847003300006,33.79955783,0
                9.86345996300003,33.9159846650001,0
                9.76489516700008,33.8595228830001,0
                9.77406854500003,33.82117528,0
                9.83565538300007,33.563724849,0
                9.85386942000002,33.4731658110001,0
                9.87107006700006,33.3876474250001,0
                9.92050311300005,33.2749864640001,0
                9.92065363300003,33.1340944510001,0
                10.009665516,33.049500128,0
                10.0687372400001,32.9933604020001,0
                10.1191833230001,32.9542119380001,0
                10.19564911,32.894871413,0
                10.3787025,32.8698216230001,0
                10.3999699780001,32.866911315,0
                10.433176712,32.8748550930001,0
                10.5478700260001,32.9022923750001,0
                10.6957999520001,32.9094949620001,0
                10.829281409,32.8980314460001,0
                10.8578392210001,32.8955788600001,0
                11.3028719910001,32.7867696120001,0
                11.3296784300001,33.036975183,0
                11.3154600570001,33.1567183670001,0
                11.325956816,33.1584793650001,0
                11.484498731,33.1850772220001,0
                11.660696494,33.107774911,0
                11.667832027,33.0232472380001,0
                11.6125986060001,33.009749287,0
                11.537543769,32.991407269,0
                11.5202206720001,32.926173164,0
                11.5094753380001,32.885708117,0
                11.512939465,32.8696305080001,0
                11.520098422,32.8364071760001,0
                11.6715865420001,32.808390613,0
                11.6945978790001,32.7882976450001,0
                11.7279926160001,32.7591385900001,0
                11.79501028,32.671152589,0
                11.8584584170001,32.628952693,0
                11.8739846450001,32.6177647960001,0
                11.9219106520001,32.583230499,0
                11.980152538,32.539252199,0
                12.05233824,32.4847452750001,0
                12.108887343,32.450271296,0
                12.1157826570001,32.4460677440001,0
                12.121628393,32.4158430460001,0
                12.1334915,32.354506697,0
                12.0525564930001,32.2804518400001,0
                11.9359122650001,32.2397396920001,0
                11.890592762,32.2239218440001,0
                11.721584036,32.167384482,0
                11.6214575180001,32.1543564250001,0
                11.50322787,32.138972794,0
                11.4112731430001,32.1163486930001,0
                11.33068352,32.0965207040001,0
                11.1379853550001,32.0412418870001,0
                11.1088444540001,32.032882295,0
                10.9538954820001,32.0010159830001,0
                10.9185687180001,31.9858305120001,0
                10.8799650610001,31.9692362160001,0
                10.859349949,31.9365219600001,0
                10.8377647180001,31.902267352,0
                10.851915369,31.8459256470001,0
                10.9787399580001,31.824927422,0
                11.0773611130001,31.8285549140001,0
                11.135717218,31.827783647,0
                11.3239278720001,31.8252961210001,0
                11.3594679190001,31.827681225,0
                11.6972659840001,31.850351,0
                11.8909916870001,31.850557941,0
                11.9319985830001,31.8463306620001,0
                12.0600793310001,31.833127204,0
                12.2851818120001,31.8368848640001,0
                12.28550239,31.836890216,0
                12.3769967010001,31.835642523,0
                12.5250241100001,31.833623888,0
                12.718734306,31.8479200360001,0
                12.9018714580001,31.869249488,0
                13.120234209,31.8870943540001,0
                13.3526727030001,31.919043297,0
                13.465735255,31.929860154,0
                13.61330066,31.943977896,0
                13.8070293280001,31.9406626630001,0
                13.9972344550001,31.940865865,0
                14.120531086,31.926908224,0
                14.34951204,31.8954522070001,0
                14.441167191,31.8251039790001,0
                14.450254952,31.8153005130001,0
                14.571644658,31.6843511980001,0
                14.622827654,31.592450109,0
                14.6775137710001,31.4942597670001,0
                14.737435443,31.454405353,0
                14.804410531,31.4098599610001,0
                15.041030757,31.321414846,0
                15.058115554,31.3150288160001,0
                15.311719462,31.3152997490001,0
                15.660427843,31.3156722850001,0
                15.935167415,31.315965797,0
                16.262744141,31.316315757,0
                16.5586153670001,31.3166318450001,0
                16.631529076,31.3038451400001,0
                16.73828868,31.285123008,0
                17.055385819,31.200926565,0
                17.3619287280001,31.1061517040001,0
                17.64736931,30.9796536750001,0
                18.038469263,30.8638355080001,0
                18.281699057,30.6844578010001,0
                18.471994496,30.6001257290001,0
                18.7152017110001,30.441881799,0
                18.743795832,30.421743124,0
                18.8949721720001,30.315270879,0
                19.0418072790001,30.2962782320001,0
                19.1380477870001,30.2838299590001,0
                19.2567851160001,30.3348679200001,0
                19.359848621,30.3791690890001,0
                19.6238872280001,30.5062541410001,0
                19.782210019,30.675493859,0
                19.982709732,30.929314004,0
                20.054264339,31.016390411,0
                20.1304555790001,31.109109414,0
                20.199948906,31.1569958490001,0
                20.29940047,31.225526044,0
                20.4154898940001,31.3630198590001,0
                20.499809871,31.563881462,0
                20.5673595860001,31.6527352840001,0
                20.6686464040001,31.7859670010001,0
                20.81855104,31.9075850950001,0
                20.890356667,31.9658414140001,0
                21.0910257140001,32.061157984,0
                21.333973283,32.145952901,0
                21.5875366430001,32.1884915470001,0
                21.6834349100001,32.192430046,0
                21.8516990590001,32.199340593,0
                22.0841605040001,32.210155892,0
                22.3905966950001,32.2104832900001,0
                22.5922783990001,32.2359121040001,0
                22.644171128,32.2424549580001,0
                22.7917389360001,32.2887432200001,0
                22.813183872,32.29546996,0
                23.01389821,32.3485189200001,0
                23.0774438670001,32.343699257,0
                23.151281738,32.3380989250001,0
                23.216438081,32.3102563640001,0
                23.2992834,32.274855562,0
                23.370563444,32.2786834140001,0
                23.56696578,32.289230549,0
                23.778362885,32.233099684,0
                23.975703722,32.1487751400001,0
                24.144863018,32.0644205360001,0
                24.285755507,32.0645710060001,0
                24.296215331,32.063777644,0
                24.468929706,32.0506775480001,0
                24.5721662230001,32.067997098,0
                24.637969237,32.0790365990001,0
                24.821174054,32.0369646190001,0
                24.8745005820001,32.0179837860001,0
                25.0184997470001,31.9667294120001,0
                25.040740278,31.9019410180001,0
                25.0644303890001,31.832930764,0
                25.106234004,31.659569714,0
                25.128115747,31.568826019,0
                25.360610417,31.547940693,0
                25.4348119320001,31.571772712,0
                25.6246892940001,31.632757929,0
                25.8042837470001,31.675217559,0
                25.9311555790001,31.6542115130001,0
                26.121347137,31.62272169,0
                26.163443623,31.610742825,0
                26.417313118,31.538502523,0
                26.6181063440001,31.517583234,0
                26.7222051420001,31.501041194,0
                26.882320916,31.4755977520001,0
                27.03902076,31.448117779,0
                27.0619938950001,31.4440890650001,0
                27.2944662570001,31.444337422,0
                27.351351197,31.3662952820001,0
                27.379124959,31.328191717,0
                27.4036620480001,31.316676962,0
                27.558855286,31.2438484780001,0
                27.770179667,31.2546411000001,0
                27.949933088,31.149163974,0
                28.1401323870001,31.1493671640001,0
                28.4043062960001,31.14964939,0
                28.647378297,31.118208296,0
                28.758763808,31.026679487,0
                28.8271756460001,30.970463593,0
                28.8890698010001,30.9381266070001,0
                29.0492020470001,30.854464783,0
                29.313387156,30.84418006,0
                29.535293203,30.8444171290001,0
                29.631561177,30.861714045,0
                29.8311079050001,30.897567737,0
                29.8317769350001,30.8979223790001,0
                30.04476978,31.0111230360001,0
                30.2078592350001,31.0978010160001,0
                30.318241507,31.17255419,0
                30.3783306760001,31.242185165,0
                30.4214799270001,31.2921863820001,0
                30.5090670290001,31.393678449,0
                30.4240175800001,31.475896377,0
                30.3178079520001,31.578568063,0
                30.168807434,31.380387914,0
                30.0004549490001,31.327972979,0
                29.856572586,31.283176699,0
                29.8565588860001,31.2839961610001,0
                29.8521257250001,31.530103013,0
                29.847176141,31.8048789690001,0
                29.8392159850001,32.2467868620001,0
                29.8319045980001,32.6526782810001,0
                29.8248046090001,33.0468340250001,0
                29.819858676,33.3214073570001,0
                29.8138831370001,33.656076763,0
                29.8129546590001,33.7077455510001,0
                29.809872285,33.8758015120001,0
                29.8098175820001,33.8787830360001,0
                29.9150253820001,33.83853635,0
                29.9669361380001,33.818678145,0
                30.084611523,33.769262434,0
                30.239976557,33.7040199200001,0
                30.384078421,33.6420567050001,0
                30.437589458,33.6190473020001,0
                30.5304156510001,33.5791330980001,0
                30.7333638060001,33.5134109860001,0
                30.882271754,33.4651887680001,0
                30.9384393330001,33.4469996120001,0
                31.1148337440001,33.389876728,0
                31.126032364,33.3862502200001,0
                31.28191272,33.3357756620001,0
                31.2860267930001,33.3344448330001,0
                31.297162165,33.3308404950001,0
                31.305199638,33.3282394340001,0
                31.3183622780001,33.323979201,0
                31.4843685820001,33.2702447630001,0
                31.493208936,33.267390516,0
                31.5216131060001,33.2582214880001,0
                31.7716371660001,33.207349978,0
                31.8563351500001,33.1901174720001,0
                32.0234085540001,33.15612529,0
                32.165719718,33.127171414,0
                32.2853295190001,33.102836477,0
                32.5329010610001,33.052466812,0
                32.7285083370001,32.9715179500001,0
                32.9165061570001,32.893718673,0
                32.890473249,32.681796074,0
                32.8709691230001,32.5230191960001,0
                32.8350207400001,32.2303621,0
                32.822146592,32.125544529,0
                32.804024193,31.977979249,0
                32.77513774,31.742835417,0
                32.7714247170001,31.7126080530001,0
                32.738025228,31.4406978710001,0
                32.7284734080001,31.3629311060001,0
                32.719811065,31.2923999930001,0
                32.6967297850001,31.1044926010001,0
                32.698935513,31.0467724270001,0
                32.7053291500001,30.8795045250001,0
                32.6632536170001,30.699822012,0
                32.6202124800001,30.5355503420001,0
                32.610634648,30.498994284,0
                32.6005524030001,30.4415051880001,0
                32.579125128,30.319323121,0
                32.5370383060001,30.150207542,0
                32.5346683650001,30.121394663,0
                32.526608437,30.0233934410001,0
                32.4637448290001,29.99913852,0
                32.3892930160001,29.970412068,0
                32.359122051,29.914956578,0
                32.326018586,29.854108378,0
                32.312107455,29.7701010540001,0
                32.305017772,29.727283089,0
                32.267790984,29.6609356720001,0
                32.2100984150001,29.558111018,0
                32.252568722,29.367952046,0
                32.3689968950001,29.188438874,0
                32.369211385,28.9876675410001,0
                32.36589451,28.9129726470001,0
                32.3588900870001,28.7551842890001,0
                32.339631168,28.6648330630001,0
                32.327350681,28.607213702,0
                32.3380850730001,28.4487216210001,0
                32.560229604,28.227053805,0
                32.7295012320001,28.037029869,0
                32.7818974790001,27.949912818,0
                32.8565288560001,27.8258273590001,0
                32.9413911240001,27.519477549,0
                33.03268933,27.3191910790001,0
                33.0473094810001,27.287118375,0
                33.0689026540001,27.25749402,0
                33.2166273760001,27.0548273050001,0
                33.3436216220001,26.8753254150001,0
                33.4177482690001,26.7274678090001,0
                33.4987684390001,26.575946496,0
                33.587160661,26.410641345,0
                33.624492075,26.2743242080001,0
                33.650807387,26.17823709,0
                33.711736155,26.090852151,0
                33.8201411860001,25.935379169,0
                33.9894918360001,25.6713869380001,0
                34.10602161,25.396771917,0
                33.9581436710001,25.340256788,0
                33.818861923,25.4792388870001,0
                33.741923935,25.5497471680001,0
                33.732483228,25.5583987270001,0
                33.659633722,25.626898495,0
                33.640811275,25.644597031,0
                33.566748046,25.732575911,0
                33.5552311370001,25.7437814250001,0
                33.4962301570001,25.801185419,0
                33.4449948710001,25.853353816,0
                33.409836924,25.889150839,0
                33.389674115,25.9111586490001,0
                33.353417317,25.9507307440001,0
                33.2459398560001,25.9946448000001,0
                33.204036436,25.9963458390001,0
                33.1613989620001,25.998076455,0
                33.136852203,25.976990222,0
                33.112135983,25.955756364,0
                33.0922474990001,25.918375101,0
                33.0840105790001,25.9028918560001,0
                33.0752670460001,25.8447644250001,0
                33.070601143,25.81106049,0
                33.064782349,25.769023836,0
                33.0512202030001,25.6966204130001,0
                33.0420159500001,25.647479789,0
                33.0362498740001,25.621664524,0
                33.0227372580001,25.561162543,0
                33.012361363,25.529275871,0
                32.9946486010001,25.474836301,0
                32.9637726490001,25.4196204240001,0
                32.929614056,25.358530506,0
                32.8716125780001,25.249277389,0
                32.903049212,25.2026506440001,0
                32.9368748910001,25.1524835120001,0
                32.9704496030001,25.046850362,0
                32.9790542590001,24.9972655220001,0
                32.988174337,24.944722595,0
                32.997420177,24.8645534,0
                33.0023915900001,24.8214568060001,0
                33.0081490100001,24.7677252190001,0
                33.014846302,24.7052343500001,0
                33.0150984210001,24.4692398550001,0
                33.015250822,24.3265866520001,0
                32.9995879470001,24.1504547700001,0
                32.959311961,23.933789996,0
                32.94481574,23.873634671,0
                32.9189837120001,23.7664373150001,0
                32.8539562010001,23.639565078,0
                32.8225406400001,23.624965441,0
                32.781788131,23.606025597,0
                32.716790304,23.610955726,0
                32.690198933,23.6129726610001,0
                32.664398572,23.6315065040001,0
                32.6461331850001,23.6446267100001,0
                32.637899867,23.7122562270001,0
                32.6336985830001,23.7467600300001,0
                32.6423856710001,23.857721767,0
                32.6563457600001,23.9792562960001,0
                32.663440059,24.028504608,0
                32.6720751330001,24.088464705,0
                32.6834900420001,24.1540860120001,0
                32.684331381,24.1589236130001,0
                32.700076596,24.2575650630001,0
                32.699969351,24.3579508170001,0
                32.715708922,24.4618754110001,0
                32.7060018240001,24.512540583,0
                32.701539585,24.5358284380001,0
                32.696153596,24.6291639450001,0
                32.611626733,24.623790371,0
                32.563344312,24.5435847590001,0
                32.550096932,24.521577882,0
                32.483293856,24.4087929570001,0
                32.4729841880001,24.383737771,0
                32.4376207390001,24.2977912110001,0
                32.396165153,24.2136409280001,0
                32.3655725940001,24.1515388500001,0
                32.296694964,24.025992742,0
                32.2688952710001,23.9753201770001,0
                32.2021277900001,23.829073002,0
                32.1492943540001,23.72451943,0
                32.1353451950001,23.696914964,0
                32.042097814,23.6105187590001,0
                31.9761903030001,23.5774780140001,0
                31.9364836230001,23.5575718370001,0
                31.8719872410001,23.541894776,0
                31.8273206800001,23.531037531,0
                31.677664066,23.4921324700001,0
                31.5455955960001,23.474379777,0
                31.3853438190001,23.463641786,0
                31.2497615980001,23.440601945,0
                31.0754504810001,23.3999091270001,0
                30.9815628270001,23.3740792890001,0
                30.9469216460001,23.3645488400001,0
                30.846568163,23.3345022500001,0
                30.763842858,23.288623897,0
                30.707775396,23.2436709190001,0
                30.684660858,23.2251379030001,0
                30.584431785,23.0788546250001,0
                30.5411823950001,22.9969533120001,0
                30.521156316,22.959028882,0
                30.4649852270001,22.784614892,0
                30.438711353,22.650739093,0
                30.4388806870001,22.4922356010001,0
                30.4579699560001,22.358179749,0
                30.4619494940001,22.3302346020001,0
                30.5184753790001,22.1735520010001,0
                30.5463282310001,22.12107324,0
                30.582002091,22.053861542,0
                30.6385080860001,21.914790742,0
                30.661382831,21.8843593130001,0
                30.702002023,21.8303231400001,0
                30.703955514,21.6489266830001,0
                30.695283739,21.5238756540001,0
                30.6372610940001,21.434435029,0
                30.5817937350001,21.4141363300001,0
                30.5298720340001,21.3951349330001,0
                30.411899782,21.372113911,0
                30.293905527,21.370226614,0
                30.255222379,21.367090433,0
                30.161829615,21.35951864,0
                30.049128072,21.347070123,0
                29.9152995960001,21.329315599,0
                29.867563325,21.327392478,0
                29.735672661,21.3220789110001,0
                29.578928992,21.3219114560001,0
                29.441562172,21.316481341,0
                29.4100500590001,21.317534385,0
                29.3394130610001,21.31989473,0
                29.2513357510001,21.31695918,0
                29.230225853,21.3162555320001,0
                29.098138568,21.3161144200001,0
                29.025533093,21.3167284360001,0
                28.9132168690001,21.31767817,0
                28.824092605,21.3222733850001,0
                28.7458991,21.3263049,0
                28.696305651,21.3297941880001,0
                28.622607939,21.3349792560001,0
                28.5650811020001,21.335627919,0
                28.4799535430001,21.336587572,0
                28.389876766,21.3417283630001,0
                28.328485201,21.3452319090001,0
                28.1699741840001,21.3521072450001,0
                28.091490757,21.3574622960001,0
                27.9920817080001,21.364244753,0
                27.841967289,21.3764644820001,0
                27.821237823,21.378151862,0
                27.6873773620001,21.3903369700001,0
                27.5710189640001,21.397409543,0
                27.516531951,21.400721322,0
                27.379165347,21.400574571,0
                27.347956525,21.4022943640001,0
                27.222412638,21.409212483,0
                27.112256921,21.4118838590001,0
                27.083276681,21.4125866530001,0
                26.981111706,21.430529055,0
                26.838439137,21.4493088680001,0
                26.690778504,21.4461378820001,0
                26.6658489370001,21.4456024880001,0
                26.6402243260001,21.445321387,0
                26.4879763000001,21.4436510640001,0
                26.3788002840001,21.429885588,0
                26.303080064,21.4208828860001,0
                26.225596701,21.411670293,0
                26.042461469,21.388579657,0
                25.8575825030001,21.3496368470001,0
                25.6726997750001,21.3142162300001,0
                25.6574099580001,21.310988292,0
                25.496625545,21.277043614,0
                25.3902265630001,21.256332851,0
                25.3328706360001,21.2451682180001,0
                25.1585523140001,21.211520127,0
                25.015929505,21.1831893350001,0
                24.866252333,21.1636566380001,0
                24.805555468,21.1508105840001,0
                24.698980786,21.1282547070001,0
                24.5299292930001,21.1122239210001,0
                24.484260018,21.1096379050001,0
                24.371433918,21.103248964,0
                24.214704265,21.090753412,0
                24.013944617,21.079972061,0
                23.9207468230001,21.07241594,0
                23.8378454,21.0656945690001,0
                23.667010315,21.0672733060001,0
                23.5543035360001,21.0618694620001,0
                23.4415907040001,21.059987806,0
                23.4180113300001,21.0596482030001,0
                23.309504997,21.058085303,0
                23.1510016300001,21.057915968,0
                23.036873659,21.059169304,0
                23.004778496,21.0595204110001,0
                22.890353326,21.0576375100001,0
                22.781157084,21.0628042480001,0
                22.64905851,21.0732299110001,0
                22.5396230260001,21.07628535,0
                22.5275340970001,21.0766228430001,0
                22.3849240430001,21.0809738040001,0
                22.360218902,21.0817275410001,0
                22.3255217020001,21.0858206680001,0
                22.2122656120001,21.0991810200001,0
                22.082362871,21.110096662,0
                22.046703813,21.1130929940001,0
                22.0386626710001,21.1140649230001,0
                21.830052376,21.1392792290001,0
                21.650135748,21.14697763,0
                21.6292742110001,21.1478702430001,0
                21.449628209,21.152961716,0
                21.2928770130001,21.1598390660001,0
                21.1237916540001,21.1755086100001,0
                21.0144491470001,21.186527461,0
                20.9335656210001,21.1946783340001,0
                20.7885109210001,21.1989636430001,0
                20.7609667730001,21.199777356,0
                20.7085399000001,21.1941216700001,0
                20.579592717,21.1802106210001,0
                20.4532772950001,21.1669666380001,0
                20.392927915,21.1606388930001,0
                20.2361999830001,21.14638209,0
                20.2121772240001,21.1447964120001,0
                20.100601593,21.1374316050001,0
                19.891036323,21.126640847,0
                19.849479338,21.119002762,0
                19.7079129520001,21.092982793,0
                19.5159704160001,21.071644158,0
                19.441111677,21.0724347620001,0
                19.3645099620001,21.073243667,0
                19.303926802,21.0671801070001,0
                19.186650349,21.0554421260001,0
                19.0087749470001,21.0552520960001,0
                18.892538901,21.055127918,0
                18.893029278,21.0570057140001,0
                18.920599946,21.162588086,0
                18.9374348540001,21.2064921960001,0
                18.955728605,21.2542056360001,0
                18.9890737750001,21.3634327620001,0
                19.0066078790001,21.435658652,0
                19.028649629,21.536941997,0
                19.0434096170001,21.6047690080001,0
                19.1437214760001,21.6735611600001,0
                19.2414849690001,21.725834751,0
                19.2493320510001,21.730030604,0
                19.2586832170001,21.736105798,0
                19.3443658910001,21.791772467,0
                19.442914289,21.864084711,0
                19.4616447980001,21.8786843720001,0
                19.5221020770001,21.9258097420001,0
                19.529071774,21.9962633920001,0
                19.52794837,22.0505426300001,0
                19.527211435,22.086079909,0
                19.5190980470001,22.1470247130001,0
                19.514786186,22.179408031,0
                19.5107981730001,22.2099140510001,0
                19.502353731,22.2744967080001,0
                19.499350157,22.3285449910001,0
                19.496969861,22.3713545300001,0
                19.5042370040001,22.4300059930001,0
                19.5091905470001,22.4699921800001,0
                19.510366682,22.4976940770001,0
                19.5126285260001,22.5510089640001,0
                19.531893193,22.6514151280001,0
                19.5705320590001,22.7518422750001,0
                19.581023089,22.8222994010001,0
                19.598568481,22.8839587160001,0
                19.6143193400001,22.9773164490001,0
                19.61887541,23.0334869370001,0
                19.6247475910001,23.1058921040001,0
                19.621305605,23.1071271060001,0
                19.536659894,23.137497685,0
                19.490071863,23.0759539900001,0
                19.459275092,23.0352689000001,0
                19.43952762,23.0043397430001,0
                19.403016334,22.9471508140001,0
                19.380851992,22.9027105380001,0
                19.3678645800001,22.876667571,0
                19.265827573,22.7744117390001,0
                19.229118697,22.7789604290001,0
                19.153095552,22.7883802690001,0
                19.072076318,22.798860501,0
                18.9875834970001,22.7600250570001,0
                18.90662136,22.7106265960001,0
                18.887014422,22.684836128,0
                18.850342545,22.636597938,0
                18.868025285,22.569692821,0
                18.8922534330001,22.50653085,0
                18.9139454850001,22.4499832440001,0
                18.9101483900001,22.4219275020001,0
                18.903458501,22.372481705,0
                18.8365950630001,22.3160534250001,0
                18.7342121450001,22.294860317,0
                18.7168637400001,22.291269146,0
                18.6252955460001,22.280604576,0
                18.6247368310001,22.2662507840001,0
                18.621869831,22.192543728,0
                18.5765659530001,22.131249568,0
                18.551522543,22.09736587,0
                18.5155132420001,22.0759748130001,0
                18.456482609,22.0409074450001,0
                18.386860735,22.0139232330001,0
                18.301563383,21.9808629390001,0
                18.1043401210001,21.955996011,0
                17.981066131,21.952342109,0
                17.8965756220001,21.9099841170001,0
                17.8155618800001,21.9098975250001,0
                17.716891923,21.9520598930001,0
                17.607659439,21.990688494,0
                17.543961906,22.022452018,0
                17.445543835,22.0715286540001,0
                17.2869840230001,22.1241932020001,0
                17.1795377030001,22.1394261740001,0
                17.1143683870001,22.148665168,0
                17.050301631,22.1546976170001,0
                16.9664165,22.1625959090001,0
                16.8295163380001,22.1652438670001,0
                16.7938189660001,22.1659342670001,0
                16.596584235,22.1551567440001,0
                16.57111145,22.152298999,0
                16.4380956300001,22.1373761310001,0
                16.3675492130001,22.2324025240001,0
                16.3420952560001,22.270495738,0
                16.2828790400001,22.359115189,0
                16.173518615,22.517502028,0
                16.1420961590001,22.564526078,0
                16.110013904,22.612536081,0
                16.061968339,22.663476986,0
                15.997174337,22.7321741540001,0
                15.8705959960001,22.8448251830001,0
                15.866724204,22.8482709310001,0
                15.8585870740001,22.8557140390001,0
                15.7821065260001,22.925671166,0
                15.739744849,22.953444,0
                15.6587387330001,23.0065522830001,0
                15.537413298,23.0357680990001,0
                15.486353509,23.0480638220001,0
                15.4403004800001,23.059153678,0
                15.324032776,23.052321384,0
                15.2571520560001,23.048391198,0
                15.245350698,23.0469808990001,0
                15.105749959,23.0302980390001,0
                15.080490135,23.027279321,0
                14.9894925290001,23.016404095,0
                14.7922942540001,22.966881487,0
                14.7575828020001,22.96180487,0
                14.5739459960001,22.934947612,0
                14.4581788880001,22.908247944,0
                14.406276943,22.8962775700001,0
                14.3591376840001,22.8854055100001,0
                14.285237528,22.8634234310001,0
                14.16899339,22.8288456820001,0
                14.061410617,22.7922164600001,0
                14.0131256060001,22.775776105,0
                13.9718197660001,22.7617113800001,0
                13.8914530600001,22.733178352,0
                13.8572880900001,22.721048275,0
                13.7429533600001,22.680453738,0
                13.626385074,22.624792583,0
                13.5211604470001,22.574547765,0
                13.459398139,22.545055608,0
                13.425914709,22.5290663220001,0
                13.299370911,22.4686414390001,0
                13.226365453,22.430824042,0
                13.1902614210001,22.412121556,0
                13.0881469600001,22.3592243570001,0
                12.983324044,22.301902989,0
                12.894533869,22.2533484950001,0
                12.743184425,22.1510399540001,0
                12.6094580920001,22.0381828700001,0
                12.4610354640001,21.9211353270001,0
                12.39477736,21.868883238,0
                12.2645605270001,21.7665972990001,0
                12.0885436290001,21.6748293040001,0
                12.003876893,21.6354094280001,0
                11.8913958310001,21.583038674,0
                11.7118119200001,21.530012017,0
                11.53573149,21.4981235130001,0
                11.33850784,21.4732565370001,0
                11.2344299440001,21.4709770910001,0
                11.1694420910001,21.4695537540001,0
                10.9911152330001,21.4799301150001,0
                10.858113701,21.5061845450001,0
                10.8136389310001,21.514963707,0
                10.6621097290001,21.5817253920001,0
                10.531718171,21.641465705,0
                10.42242221,21.739972875,0
                10.344847111,21.8209031910001,0
                10.3321563820001,21.8398955480001,0
                10.2601768230001,21.9476158580001,0
                10.1940034720001,22.018363843,0
                10.1614390030001,22.05317918,0
                10.073291973,22.134098201,0
                9.95347987200006,22.1868050050001,0
                9.83015655500003,22.2254184340001,0
                9.70683700100005,22.260509889,0
                9.57297872900006,22.2709336730001,0
                9.43558977300006,22.2919204740001,0
                9.34399108200006,22.309434217,0
                9.20306080700004,22.344506859,0
                9.07269558800004,22.379590787,0
                9.01841696600007,22.42111434,0
                8.96694329700006,22.4604908580001,0
                8.88581682800003,22.566073225,0
                8.77299853600005,22.6610553670001,0
                8.67178908200003,22.784139279,0
                8.66014135700004,22.7983041840001,0
                8.65403297500006,22.8047041890001,0
                8.58961300500005,22.872197801,0
                8.55810052800007,22.925250589,0
                8.53315839900006,22.9672393560001,0
                8.49584351800007,23.019699514,0
                8.45554776900008,23.076348115,0
                8.52242610600007,23.1186867170001,0
                8.60338824100006,23.1680860380001,0
                8.64703421500008,23.184505818,0
                8.65972366600005,23.1892797680001,0
                8.71605468200005,23.213996176,0
                8.72254304700004,23.248263067,0
                8.73006162000007,23.2879797370001,0
                8.70439108000005,23.339188661,0
                8.70182554000007,23.344306223,0
                8.67711291700004,23.397114502,0
                8.74752558500006,23.425368366,0
                8.82848772100004,23.4747668260001,0
                8.82071324300006,23.4980115490001,0
                8.80728833400002,23.5381456650001,0
                8.74033881000003,23.5627298630001,0
                8.64170697300005,23.569669241,0
                8.61470303000004,23.56018619,0
                8.57128509200004,23.5449382150001,0
                8.50438778800003,23.5202105170001,0
                8.39525690400006,23.463737081,0
                8.36248421200003,23.4538669020001,0
                8.28962517800005,23.431923844,0
                8.26489560700003,23.4988209140001,0
                8.29275241200003,23.544515995,0
                8.30357077500003,23.562263188,0
                8.29000501300004,23.579492966,0
                8.26477519100007,23.611534482,0
                8.25816612000006,23.6509231430001,0
                8.25413758800005,23.6749247930001,0
                8.29230964100003,23.689815471,0
                8.31751485100006,23.699648294,0
                8.38088329700003,23.7314168990001,0
                8.44754760000006,23.7815273100001,0
                8.45127191900002,23.784326907,0
                8.45252822400005,23.786555203,0
                8.49697196900007,23.865388135,0
                8.48632412500007,23.9428679760001,0
                8.39469909400003,23.9850372450001,0
                8.39302678400003,24.006495176,0
                8.39112973200002,24.0308236390001,0
                8.41752748500005,24.0602182580001,0
                8.45445274300005,24.101337475,0
                8.43677052500004,24.1682421530001,0
                8.38000814000003,24.170364921,0
                8.34518814500007,24.171666966,0
                8.25750425100006,24.1693810250001,0
                8.20429800300008,24.167993795,0
                8.14778730900002,24.170624649,0
                8.13032707900004,24.1714375060001,0
                8.09507730000007,24.196055501,0
                8.05826455100004,24.2548192310001,0
                8.04215442100002,24.280534726,0
                8.03147524300005,24.3861923380001,0
                8.13361761500005,24.389823655,0
                8.21112621000003,24.372295018,0
                8.29561823300003,24.4111309310001,0
                8.29776391200005,24.450467664,0
                8.29907575100003,24.4745359770001,0
                8.31101037500002,24.5006497640001,0
                8.33772911700004,24.55911245,0
                8.38794039500004,24.552688276,0
                8.44693981600005,24.545139728,0
                8.51741657000002,24.5135146550001,0
                8.52201979000006,24.5080025390001,0
                8.58795195500005,24.4290548010001,0
                8.66042299900005,24.4270005180001,0
                8.70771543000006,24.4256599760001,0
                8.75613683600005,24.388325717,0
                8.78526916600003,24.3658638910001,0
                8.79705490500004,24.361635268,0
                8.87336292900005,24.3342569380001,0
                8.98257939200005,24.309718235,0
                9.04944617800004,24.3626236370001,0
                9.08996415000007,24.3747168560001,0
                9.17972623600002,24.401508661,0
                9.23236467700002,24.3970853270001,0
                9.34529195200003,24.3875959260001,0
                9.40616820100007,24.3471061830001,0
                9.44046419700004,24.3242960000001,0
                9.47642914100004,24.2927137,0
                9.52860216200003,24.246899641,0
                9.54386434300005,24.1974878930001,0
                9.55688108000004,24.155350034,0
                9.58690035200004,24.0855066440001,0
                9.62043789200004,24.0074810030001,0
                9.69071414500007,23.937355428,0
                9.70859090500005,23.9195173460001,0
                9.72157748000006,23.913281441,0
                9.80374057600005,23.8738291,0
                9.91692107300003,23.835159737,0
                9.92706646000005,23.831693457,0
                10.068461401,23.7566771410001,0
                10.09274671,23.743797295,0
                10.2477609860001,23.680576617,0
                10.325388767,23.55033439,0
                10.332581186,23.4129721030001,0
                10.3310790950001,23.3712578980001,0
                10.3291580010001,23.3178663260001,0
                10.2624375570001,23.1275904680001,0
                10.2308643420001,23.0077983630001,0
                10.2697082920001,22.9162599110001,0
                10.361363397,22.8459116240001,0
                10.43791227,22.8170408760001,0
                10.491742953,22.7967387840001,0
                10.6009293650001,22.800377585,0
                10.686592843,22.833236448,0
                10.720636648,22.846295189,0
                10.7771563970001,22.878453231,0
                10.850884761,22.9204029950001,0
                11.0093393330001,22.9663622510001,0
                11.2065898390001,22.9665728520001,0
                11.2370127830001,22.9623609270001,0
                11.358071024,22.945600972,0
                11.4391272340001,22.9069423880001,0
                11.511180224,22.7603438840001,0
                11.5273731340001,22.7273989330001,0
                11.5664257330001,22.6884300040001,0
                11.633156845,22.621842945,0
                11.767105429,22.5268840890001,0
                11.901023686,22.4601028390001,0
                11.9067124740001,22.456901739,0
                12.038474869,22.3827591900001,0
                12.102542257,22.354532496,0
                12.190009146,22.315997538,0
                12.2676206960001,22.314090117,0
                12.327379579,22.3126216310001,0
                12.375754697,22.3257011900001,0
                12.418932823,22.3373756820001,0
                12.461143484,22.390255579,0
                12.4223054620001,22.4747492560001,0
                12.3784922740001,22.545360977,0
                12.3764398600001,22.5486685980001,0
                12.2848035690001,22.6014053530001,0
                12.248255645,22.6196304280001,0
                12.186125395,22.6506120870001,0
                12.0945003630001,22.692782215,0
                12.065653678,22.714102912,0
                11.999324646,22.7631262350001,0
                11.9311959030001,22.816326729,0
                11.9182432800001,22.8264410510001,0
                11.9130193180001,22.8326964720001,0
                11.8477080660001,22.910901057,0
                11.827321811,22.949532925,0
                11.8124102690001,22.977787581,0
                11.762950744,23.1151047130001,0
                11.720578274,23.2136833800001,0
                11.671197771,23.2770322160001,0
                11.6215065800001,23.3177636200001,0
                11.5724906290001,23.3579399130001,0
                11.4491343670001,23.4282543310001,0
                11.357475499,23.5021248100001,0
                11.332799564,23.562507005,0
                11.3186271600001,23.597185487,0
                11.299766619,23.644193436,0
                11.2833112230001,23.6852054780001,0
                11.2251230040001,23.7059167,0
                11.184648474,23.720322701,0
                11.141851027,23.7178315130001,0
                11.0613745850001,23.7131470630001,0
                11.0507783680001,23.717107856,0
                11.0049976710001,23.734220318,0
                10.9168789500001,23.7904830270001,0
                10.8146462670001,23.871386886,0
                10.7650748460001,23.918103472,0
                10.751179698,23.931197964,0
                10.701697595,24.089648649,0
                10.6699052340001,24.174150712,0
                10.632750011,24.2353933700001,0
                10.5887525210001,24.307911276,0
                10.514716186,24.3712337060001,0
                10.490127671,24.424044511,0
                10.4688186700001,24.469809405,0
                10.459667402,24.5394016600001,0
                10.458166917,24.5508109990001,0
                10.4565792660001,24.578081953,0
                10.450989696,24.6740838970001,0
                10.450835414,24.818498516,0
                10.4436505200001,24.948815999,0
                10.44343603,25.1495873320001,0
                10.4503575160001,25.2658306910001,0
                10.443112414,25.4525048880001,0
                10.4374299900001,25.5031706570001,0
                10.4288905940001,25.5792927790001,0
                10.420531576,25.605938522,0
                10.411214692,25.6356307720001,0
                10.381480416,25.6367884150001,0
                10.323157194,25.639058978,0
                10.3115868200001,25.6306841580001,0
                10.2598034710001,25.5932013510001,0
                10.2669349770001,25.5121958930001,0
                10.26162644,25.462141913,0
                10.256474659,25.41356032,0
                10.2507002570001,25.3925437340001,0
                10.228403353,25.311383419,0
                10.2160691660001,25.256482681,0
                10.2038682730001,25.202165339,0
                10.1722603000001,25.1140744260001,0
                10.183285776,25.068342107,0
                10.193485665,25.0260392480001,0
                10.211239904,24.892210773,0
                10.236065438,24.733733622,0
                10.236185854,24.6210197670001,0
                10.204885382,24.5964692650001,0
                10.1552428040001,24.5575320630001,0
                10.114424753,24.574178719,0
                10.0777148400001,24.5891499470001,0
                10.0600213330001,24.666621402,0
                10.035252058,24.772264546,0
                9.98997510000004,24.8092296950001,0
                9.95769544200004,24.835583055,0
                9.92178502600007,24.8944366900001,0
                9.90829645600007,24.916542839,0
                9.88705034100008,25.01866691,0
                9.86849767600006,25.078233702,0
                9.85524450500003,25.120780327,0
                9.79878931200005,25.212299822,0
                9.74938283500006,25.300304651,0
                9.74781782600007,25.3024733550001,0
                9.68588475300004,25.388294328,0
                9.56950926200005,25.5184955890001,0
                9.50252556300006,25.5747808080001,0
                9.39326346800004,25.641587648,0
                9.34166789000005,25.6638812960001,0
                9.28754834600005,25.6872648080001,0
                9.25799702000006,25.7132826380001,0
                9.22760907400004,25.740035467,0
                9.18526294600002,25.8139586070001,0
                9.17214273000008,25.874879063,0
                9.16402651300007,25.912560382,0
                9.15455862100004,25.9627571950001,0
                9.14277006000003,26.025251563,0
                9.13560021800004,26.141479867,0
                9.08265140100002,26.250614881,0
                8.98398446900006,26.2892546510001,0
                8.86069677200004,26.296167645,0
                8.76448771100007,26.2916914480001,0
                8.70572544500004,26.2889573790001,0
                8.50143335100006,26.2852167200001,0
                8.33592303100005,26.249817072,0
                8.15276333900005,26.249621398,0
                8.05414082800007,26.249516036,0
                7.93829287900007,26.26763907,0
                7.92555311700005,26.269632017,0
                7.89716722500003,26.2806364040001,0
                7.83041320900003,26.30651449,0
                7.78113656300008,26.324373446,0
                7.74319983600003,26.338122189,0
                7.65070387300005,26.3723656670001,0
                7.59554681300006,26.36631063,0
                7.52920217900004,26.3590271460001,0
                7.48794220500002,26.3254324850001,0
                7.44473655800005,26.290252007,0
                7.39993253600005,26.1924602770001,0
                7.38286454400003,26.181302811,0
                7.33921689800007,26.1527692230001,0
                7.26787930000006,26.1606184820001,0
                7.23750107700005,26.1734682490001,0
                7.18066437700003,26.1975094630001,0
                7.13940660300005,26.240965594,0
                7.13305885800003,26.247651365,0
                7.06959000700004,26.308343031,0
                6.99299630700006,26.295052836,0
                6.99637369000004,26.2501169650001,0
                6.99835742600004,26.2237317550001,0
                7.05394607700003,26.120764093,0
                7.04874477900006,26.041506333,0
                7.01588331100004,26.036602348,0
                6.97742774700004,26.030863534,0
                6.90071330900003,26.1285254110001,0
                6.80561274900003,26.1284238220001,0
                6.71578792600008,26.133611296,0
                6.68424165400006,26.1398854660001,0
                6.64973048800005,26.1467492300001,0
                6.63959922600003,26.1498209710001,0
                6.58895172400003,26.1651765560001,0
                6.51496415900004,26.183589328,0
                6.50128118500004,26.1698785290001,0
                6.47010061000003,26.138632258,0
                6.47185973600006,26.082591871,0
                6.47283815000003,26.0514582930001,0
                6.43362824200005,26.033982071,0
                6.42530777200005,26.0302735550001,0
                6.41699287400007,26.03319829,0
                6.38038249900006,26.046075838,0
                6.35984048700004,26.063644642,0
                6.34336218800007,26.0777369420001,0
                6.32469309800007,26.103019159,0
                6.30632640900006,26.12789042,0
                6.28921121700006,26.154004834,0
                6.26134052100002,26.196527406,0
                6.19255008700003,26.2968396970001,0
                6.14494621600005,26.344339819,0
                6.07673833200005,26.374947057,0
                6.03922993700007,26.3917779070001,0
                6.00261752600005,26.416129364,0
                5.97578183300004,26.4339776580001,0
                5.97019778500004,26.4555245230001,0
                5.95456240200002,26.515848788,0
                5.95446644600003,26.6056673950001,0
                5.94643391200003,26.7060445400001,0
                5.88163564800004,26.72560457,0
                5.85922665900006,26.7323687860001,0
                5.84097418300007,26.735320184,0
                5.74561610200004,26.750739133,0
                5.67384394400005,26.7422181060001,0
                5.61090201600007,26.7347451260001,0
                5.50788119300006,26.7293516290001,0
                5.41808741400007,26.705480091,0
                5.38204655400006,26.670565525,0
                5.33891997000006,26.628785448,0
                5.32263312800006,26.558867994,0
                5.30999114600007,26.504593157,0
                5.31801803600007,26.409499586,0
                5.32061308300007,26.36618014,0
                5.32339914700003,26.319686431,0
                5.33821790500002,26.3027857660001,0
                5.37894074800005,26.256344293,0
                5.42410709000006,26.222157005,0
                5.45561625500005,26.198308324,0
                5.54810138100004,26.174631424,0
                5.57700857200007,26.1637282990001,0
                5.64588199700006,26.137751721,0
                5.69701431400006,26.117043306,0
                5.73045748500004,26.1034995590001,0
                5.83880210100006,26.0719145100001,0
                5.95508916200004,26.0244877650001,0
                6.03748366800005,25.9821519830001,0
                6.04231120500003,25.979671565,0
                6.13745471600004,25.9401472920001,0
                6.20450580700003,25.9117862640001,0
                6.22467264800002,25.903256411,0
                6.28815859000002,25.8267137280001,0
                6.32576662000002,25.76061137,0
                6.34373572100003,25.729029343,0
                6.35970765500002,25.6154519450001,0
                6.35324427800003,25.599538045,0
                6.33072767500005,25.544094172,0
                6.29113353300005,25.512351467,0
                6.26820835400002,25.5104926920001,0
                6.22509598400006,25.506997132,0
                6.21599487700007,25.509437092,0
                6.15639167700004,25.5254160280001,0
                6.09824543100007,25.5517712340001,0
                6.07664345500007,25.5707901960001,0
                6.05329082700007,25.5913491860001,0
                6.01968884200005,25.6290726830001,0
                5.98981614000007,25.6626079960001,0
                5.95542600600004,25.7074806100001,0
                5.92547747000003,25.747907561,0
                5.91044939300002,25.768192442,0
                5.89287411800007,25.808251102,0
                5.87337689300006,25.852688035,0
                5.84952764700006,25.9213475190001,0
                5.80722656600005,25.953002833,0
                5.74233570700005,25.9215189600001,0
                5.72537477800006,25.9132897280001,0
                5.72402613200006,25.9096169200001,0
                5.70693777300005,25.863076983,0
                5.72837599100006,25.8429418150001,0
                5.75189042300002,25.820857485,0
                5.77048642400007,25.7231333440001,0
                5.76262886800004,25.659723566,0
                5.73055880300006,25.650523284,0
                5.72565694400004,25.649116932,0
                5.67809258300002,25.6596333360001,0
                5.65350098200003,25.6859272300001,0
                5.64106848900008,25.699219618,0
                5.63313456700007,25.7114519570001,0
                5.61195862900007,25.744097851,0
                5.56176338600005,25.7466858940001,0
                5.54646941700003,25.7459412210001,0
                5.50629429900005,25.7439849680001,0
                5.47463740600006,25.7016835640001,0
                5.49848449800004,25.635665751,0
                5.53748690400005,25.5863688420001,0
                5.57784115500004,25.5353648170001,0
                5.61755226800005,25.4561554060001,0
                5.61929451100002,25.4383508940001,0
                5.62556521900007,25.374270488,0
                5.62395909300005,25.3645712900001,0
                5.60456564500004,25.247444925,0
                5.62050935700006,25.160284968,0
                5.68664580300003,25.073178489,0
                5.76069907100003,24.994005767,0
                5.78427319400004,24.939162115,0
                5.80042479200006,24.9015874890001,0
                5.83222561800005,24.809160773,0
                5.83484596600005,24.7133992450001,0
                5.83497247400004,24.7087783910001,0
                5.83102590900006,24.700559175,0
                5.80070659400008,24.6374153630001,0
                5.78971867400003,24.6340582390001,0
                5.73996830000004,24.6188584820001,0
                5.68183229500005,24.634646387,0
                5.67267821500008,24.6581089910001,0
                5.66328578600007,24.6821779650001,0
                5.64737267300006,24.740279163,0
                5.62797225400004,24.7958733190001,0
                5.62617747100006,24.801015899,0
                5.58381407000007,24.890789351,0
                5.56527892600008,24.9359591250001,0
                5.55997595600007,24.9488820180001,0
                5.55518503900004,24.957484365,0
                5.50704078000007,25.043927567,0
                5.43297622100005,25.133667438,0
                5.39580528200003,25.1552969040001,0
                5.36953347300005,25.170583703,0
                5.29556003400006,25.1757879470001,0
                5.23747599600006,25.1440254510001,0
                5.20867540500006,25.088334317,0
                5.20056946900007,25.072659109,0
                5.20065695800002,24.9907661610001,0
                5.18613947000006,24.9153301490001,0
                5.18489344100004,24.908855343,0
                5.15327695100007,24.829569731,0
                5.12959986300007,24.737083865,0
                5.07150320100004,24.7158881890001,0
                4.97903324000004,24.726356061,0
                4.95269510600002,24.6523596000001,0
                4.88673646000007,24.573037297,0
                4.89428623000003,24.5495319280001,0
                4.90794322900007,24.5070164200001,0
                4.91041659000007,24.4621122470001,0
                4.91332830500005,24.409278311,0
                4.89488752800003,24.3617076800001,0
                4.83942105300002,24.3510820230001,0
                4.81359529800005,24.3698229510001,0
                4.81034134900005,24.3721842300001,0
                4.80865957400005,24.374910448,0
                4.78916779300005,24.406504177,0
                4.78908594900003,24.4831137370001,0
                4.72304353300007,24.4883265760001,0
                4.66455847600002,24.468206289,0
                4.63061267900002,24.4565274940001,0
                4.60680859900003,24.404442456,0
                4.60162290700003,24.393094902,0
                4.61409685900003,24.362005169,0
                4.62810996800005,24.327080193,0
                4.63829005100007,24.3169219760001,0
                4.69158137500006,24.263746557,0
                4.78592695800006,24.1913316390001,0
                4.79469114900007,24.1846047940001,0
                4.81049481500003,24.173414699,0
                4.87664758200003,24.126574298,0
                4.89270167000006,24.1057491170001,0
                4.95600779700004,24.0236315990001,0
                4.98781055300003,23.9285634290001,0
                5.02357770600003,23.871076445,0
                5.03544446200004,23.852004003,0
                5.09359645900003,23.8203657620001,0
                5.11129092900006,23.7912387540001,0
                5.14652289000003,23.733244971,0
                5.13869355700007,23.6434178980001,0
                5.05688997700003,23.558794946,0
                5.03055777800006,23.4795149780001,0
                5.00425097900006,23.3764594300001,0
                4.98245255500007,23.351252846,0
                4.93565162900006,23.297134606,0
                4.88534853200002,23.4001080100001,0
                4.86364698700004,23.4469956570001,0
                4.82179835600004,23.537409929,0
                4.75296276700004,23.6799897550001,0
                4.75108213000004,23.6834153940001,0
                4.69208519500006,23.7908775720001,0
                4.62594310400004,23.8832674810001,0
                4.59070444800005,23.9485424540001,0
                4.57035548400006,23.9862349790001,0
                4.46455163700006,24.110283861,0
                4.41475975100008,24.1716607020001,0
                4.37461818800006,24.2211400740001,0
                4.27933501600006,24.332751595,0
                4.25294516900004,24.3636633,0
                4.17093196800005,24.4745286830001,0
                4.18937738400007,24.5168155440001,0
                4.25272503500003,24.5697180230001,0
                4.24315603800005,24.623923534,0
                4.22614758200007,24.72026837,0
                4.21041788800005,24.755123063,0
                4.20231510400004,24.773076997,0
                4.18635119100003,24.878729548,0
                4.22850258500006,24.9870854530001,0
                4.26207619300004,25.0111197690001,0
                4.33937291700005,25.0664557210001,0
                4.38593122300006,25.0733535370001,0
                4.42917529900006,25.079760353,0
                4.46374635600006,25.073697823,0
                4.51901139300003,25.064006319,0
                4.54528363400004,25.076778367,0
                4.60614483200004,25.106366639,0
                4.62951375700004,25.140721392,0
                4.64570546800007,25.164527021,0
                4.65558670800004,25.222193615,0
                4.65883463100005,25.241151137,0
                4.65733762200006,25.265418546,0
                4.65345600200004,25.328322245,0
                4.66923364800004,25.3970240850001,0
                4.72728968900003,25.4552043050001,0
                4.80381372300008,25.5345378330001,0
                4.80367825500002,25.6613408700001,0
                4.79295515200005,25.8092661740001,0
                4.79278581800003,25.967769542,0
                4.90878501100002,26.1897990370001,0
                4.90855923300006,26.401136717,0
                4.88560205500005,26.411702877,0
                4.77112449700007,26.464390716,0
                4.66554422900003,26.37974352,0
                4.58115677300003,26.2422833950001,0
                4.53163057800003,26.18851712,0
                4.45449753500003,26.104778165,0
                4.25389593300002,25.9460601850001,0
                4.09556177500002,25.7873872160001,0
                3.92671777300006,25.5758685100001,0
                3.86349608500007,25.4067304230001,0
                3.76862062400005,25.1952905310001,0
                3.75689911500007,25.183544001,0
                3.62084109900007,25.047196495,0
                3.57573284600005,25.1191996270001,0
                3.51499343600005,25.2161535280001,0
                3.44957673500005,25.339398083,0
                3.41969727700007,25.395689168,0
                3.37719310200004,25.617549329,0
                3.37691087900004,25.881721752,0
                3.39212876500005,25.9942122910001,0
                3.40836411900005,26.114227423,0
                3.45036063000003,26.3678783940001,0
                3.48183600700003,26.5792502030001,0
                3.47178316800006,26.688531019,0
                3.46045166500005,26.811699574,0
                3.41798135800002,27.0018585460001,0
                3.30160962900004,27.1285374060001,0
                3.15355821700007,27.23404835,0
                2.96335817400006,27.233845162,0
                2.69918492500005,27.233562937,0
                2.39274423100005,27.233235558,0
                2.01239138000005,27.179994562,0
                1.69542955400004,27.137388306,0
                1.41019084300007,27.0736819680001,0
                1.39361914700004,27.0714245230001,0
                1.01927232200006,27.0204299110001,0
                0.73396649600005,27.020125111,0
                0.565156415000047,27.0021732550001,0
                0.332470508000029,26.9774286210001,0
                0.0682965300000546,26.97714632,0
                -0.00719777799997701,26.960884519,0
                -0.227505786999927,26.9134287950001,0
                -0.555119544999968,26.800421106,0
                -0.565525505999972,26.7968316270001,0
                -0.79787340799993,26.6803472300001,0
                -0.806837088999941,26.6736094840001,0
                -1.09350635599998,26.4581261230001,0
                -1.32578696599995,26.278240415,0
                -1.56550244599993,26.13234979,0
                -1.62147115799996,26.098287027,0
                -1.67530099899994,26.0668090410001,0
                -1.87491626599996,25.9500794480001,0
                -2.07509270299994,25.8497249320001,0
                -2.17063414299997,25.8018267420001,0
                -2.34143403599995,25.7124812910001,0
                -2.41353695299995,25.674764081,0
                -2.77267532699994,25.547577651,0
                -3.04735851099997,25.4944493960001,0
                -3.15484991399995,25.484096467,0
                -3.26924233799997,25.473078706,0
                -3.42740734899996,25.463023681,0
                -3.60735767199998,25.451583547,0
                -3.80302738399996,25.444386191,0
                -3.90322282799997,25.4407006810001,0
                -4.02128051499994,25.452379088,0
                -4.22026328499993,25.472062701,0
                -4.51616926599996,25.50344734,0
                -4.86489998299993,25.524208527,0
                -5.18195212199993,25.5661374470001,0
                -5.34420372899996,25.585431789,0
                -5.44615890599994,25.597555861,0
                -5.77370871399995,25.576072348,0
                -6.16468551399993,25.57565458,0
                -6.22454728899993,25.5738299110001,0
                -6.52394727499995,25.5647037850001,0
                -6.83046836999995,25.6383446880001,0
                -7.06305335199994,25.743765372,0
                -7.22164715499997,25.8281313570001,0
                -7.30790508999996,25.8675545770001,0
                -7.47537961299997,25.944095986,0
                -7.66048488999996,25.9042235630001,0
                -7.77118205699998,25.880378701,0
                -8.04592168599993,25.8800851880001,0
                -8.48972974099996,25.8796110550001,0
                -8.88070562999997,25.8791933630001,0
                -9.14488020099998,25.878911138,0
                -9.40905476999995,25.8786289120001,0
                -9.73662656499994,25.8782789580001,0
                -9.97966414499996,25.878019314,0
                -10.5714173809999,25.877387126,0
                -10.9412562819999,25.876992016,0
                -11.2688212039999,25.8766420690001,0
                -11.6703758969999,25.8762130750001,0
                -12.1247480939999,25.8757276440001,0
                -12.473365659,25.7908200270001,0
                -12.5729919739999,25.748915649,0
                -12.8007856479999,25.653100286,0
                -13.1281949799999,25.494246956,0
                -13.204397335,25.4484156230001,0
                -13.339400159,25.367218166,0
                -13.415226871,25.3143482520001,0
                -13.582252003,25.197887924,0
                -13.713160565,25.0764214800001,0
                -13.8672838109999,24.933410689,0
                -14.036071368,24.669057391,0
                -14.13729849,24.472835333,0
                -14.1942435309999,24.362447929,0
                -14.3417415709999,23.9501804390001,0
                -14.478769282,23.633026951,0
                -14.579191662,23.3727876500001,0
                -14.605226747,23.305317249,0
                -14.7211918589999,23.0515875410001,0
                -14.755797189,22.9648041470001,0
                -14.8265749509999,22.787301975,0
                -15.005899217,22.4912368780001,0
                -15.023950064,22.4615107270001,0
                -15.1535769279999,22.2480398050001,0
                -15.1815216049999,22.2013517020001,0
                -15.3117921529999,21.983698213,0
                -15.427791347,21.7616691470001,0
                -15.575503877,21.5501729900001,0
                -15.7232615619999,21.3809439410001,0
                -15.7762911199999,21.3337071220001,0
                -15.913289203,21.2116705890001,0
                -16.0174188949999,21.1625314840001,0
                -16.0928323099999,21.1269436050001,0
                -16.283039608,21.126740301,0
                -16.4309316549999,21.084314524,0
                -16.367348718,20.9153119060001,0
                -16.282678362,20.7885993100001,0
                -16.1662391139999,20.598519127,0
                -16.1303371459999,20.551951016,0
                -16.0604162779999,20.461262822,0
                -15.969205137,20.2944550390001,0
                -15.933371908,20.2289259080001,0
                -15.933089686,19.9647535180001,0
                -15.932762306,19.658313111,0
                -15.9324687939999,19.383573572,0
                -15.903550276,19.3460636300001,0
                -15.826645528,19.246317263,0
                -15.685396566,19.1970466940001,0
                -15.6152364549999,19.172574092,0
                -15.5622229429999,19.003560221,0
                -15.5912486729999,18.9258981940001,0
                -15.6254362839999,18.834422255,0
                -15.682007676,18.6641151590001,0
                -15.699173034,18.61243827,0
                -15.7624179709999,18.4644339180001,0
                -15.783414157,18.3376083860001,0
                -15.814935025,18.1685037440001,0
                -15.8147544019999,17.9994334690001,0
                -15.8396167139999,17.9424369330001,0
                -15.88853791,17.8302842160001,0
                -15.9232447049999,17.8098201120001,0
                -15.9725938359999,17.7807213240001,0
                -16.0478223129999,17.736359911,0
                -16.068064713,17.7244229460001,0
                -16.156033662,17.561178764,0
                -16.15741202,17.5611933430001,0
                -16.427309387,17.5640480970001,0
                -16.670141047,17.5666165700001,0
                -17.1455935299999,17.571645518,0
                -17.5578295249999,17.5760058130001,0
                -17.9908414669999,17.5805858580001,0
                -18.427902703,17.5852087330001,0
                -18.8149589299999,17.5893026970001,0
                -19.2908338349999,17.5943361130001,0
                -19.6868580149999,17.598524723,0
                -19.6871470309999,17.8681348910001,0
                -19.744312892,17.986565624,0
                -19.8103588449999,18.1233882980001,0
                -19.914704183,18.365072765,0
                -19.94212291,18.417657193,0
                -19.983680082,18.497350969,0
                -20.067032933,18.7265624630001,0
                -20.077813566,18.7562070020001,0
                -20.149065858,18.845500842,0
                -20.2466189969999,19.0591821690001,0
                -20.3069869129999,19.2009315220001,0
                -20.356668675,19.3231072740001,0
                -20.400200148,19.4346506950001,0
                -20.4520994289999,19.574143647,0
                -20.497256604,19.7022249360001,0
                -20.5416776,19.8359145110001,0
                -20.580161899,19.959495654,0
                -20.616766292,20.0858902860001,0
                -20.6583871249999,20.24437794,0
                -20.697198274,20.4144638440001,0
                -20.724084932,20.5551002070001,0
                -20.746175074,20.700115682,0
                -20.766062677,20.910447821,0
                -20.7695968689999,21.0452725690001,0
                -20.7655960729999,21.1598113950001,0
                -20.7549524149999,21.265782287,0
                -20.7370107319999,21.367437384,0
                -20.7113847479999,21.4634221800001,0
                -20.677524268,21.553323802,0
                -20.672678451,21.7345442120001,0
                -20.6544886199999,21.94698434,0
                -20.633077213,22.11138506,0
                -20.601337198,22.2821338850001,0
                -20.559386527,22.4838745960001,0
                -20.5242761439999,22.638839895,0
                -20.491252819,22.7576164970001,0
                -20.4461274519999,22.903740296,0
                -20.402083073,23.032526193,0
                -20.3457463239999,23.1820349450001,0
                -20.302154285,23.288249486,0
                -20.2585549779999,23.387659673,0
                -20.1743738929999,23.563597859,0
                -20.1101285569999,23.6861793630001,0
                -20.0310760699999,23.825520157,0
                -19.945462661,23.9643800530001,0
                -19.872682347,24.07406518,0
                -19.798101586,24.1794618530001,0
                -19.7347868419999,24.2640004720001,0
                -19.65596671,24.363538767,0
                -19.6283300859999,24.4814769650001,0
                -19.5961695079999,24.6187770920001,0
                -19.6866828149999,24.65807491,0
                -19.788805727,24.7065251980001,0
                -19.960864354,24.7957383930001,0
                -20.11985842,24.8861498100001,0
                -20.2347038569999,24.9563041120001,0
                -20.3586313,25.036803574,0
                -20.5044615059999,25.1383822060001,0
                -20.617159434,25.222447028,0
                -20.7601080049999,25.336887275,0
                -20.8635018969999,25.425769743,0
                -20.966461808,25.520101691,0
                -21.1140631,25.667097343,0
                -21.201084701,25.761429138,0
                -21.2860493159999,25.860061956,0
                -21.4027373129999,26.008230231,0
                -21.496960766,26.1412166280001,0
                -21.5669139939999,26.2498312930001,0
                -21.620538342,26.340206387,0
                -21.677499101,26.444598598,0
                -21.7308624779999,26.5522790090001,0
                -21.783224294,26.670166603,0
                -21.830862219,26.7917988630001,0
                -21.882319207,26.9461144810001,0
                -21.910573778,27.04638535,0
                -21.9436087779999,27.1872573100001,0
                -21.9697764279999,27.3324208270001,0
                -21.993894242,27.540036897,0
                -22.0019154419999,27.689527861,0
                -21.999865675,27.914999978,0
                -21.985789852,28.101719781,0
                -21.973492865,28.20388596,0
                -21.9488824059999,28.3584827010001,0
                -21.918840169,28.5060300580001,0
                -21.882256957,28.6546146200001,0
                -21.894113572,28.729880286,0
                -21.906623065,28.9402664080001,0
                -21.903282605,29.0725484390001,0
                -21.8899768209999,29.225320057,0
                -21.8630779769999,29.399184142,0
                -21.834010443,29.532826813,0
                -21.8017213049999,29.652708439,0
                -21.7652098029999,29.767641772,0
                -21.7215969129999,29.8865005530001,0
                -21.6717881329999,30.0056461290001,0
                -21.5908786969999,30.173575586,0
                -21.527944759,30.2886564040001,0
                -21.448663294,30.4195011530001,0
                -21.35535299,30.55805574,0
                -21.228246295,30.7264291160001,0
                -21.092810792,30.8862057210001,0
                -20.9486451879999,31.039126304,0
                -20.874451333,31.112162332,0
                -20.770010257,31.209393762,0
                -20.510658797,31.19655893,0
                -20.4734462009999,31.1947172320001,0
                -20.3727676729999,31.18973472,0
                -20.1436010479999,31.178393686,0
                -19.942784613,31.154193322,0
                -19.706070589,31.125667164,0
                -19.508201479,31.101821773,0
                -19.337773564,31.081283624,0
                -19.215654553,31.066567347,0
                -19.188063246,31.063242491,0
                -19.129147368,31.0532772890001,0
                -18.990954474,31.029903319,0
                -18.7105637349999,30.98247823,0
                -18.482399508,30.9591080870001,0
                -18.459230727,30.956735021,0
                -18.4197683579999,30.9526929210001,0
                -18.258967132,30.9362223410001,0
                -18.150378003,30.8080221750001,0
                -18.072585907,30.716184538,0
                -17.994756137,30.6243074230001,0
                -17.814684041,30.411710601,0
                -17.631807221,30.195811652,0
                -17.559688609,30.1106659970001,0
                -17.505879582,30.047139019,0
                -17.3651089009999,29.8809463960001,0
                -17.213901286,29.702433265,0
                -17.1453726509999,29.6215310470001,0
                -17.117650558,29.5888047450001,0
                -16.976093292,29.4216839430001,0
                -16.7875007649999,29.397368611,0
                -16.77197575,29.395366901,0
                -16.597731284,29.3729013340001,0
                -16.44733186,29.3535106410001,0
                -16.413066774,29.349093037,0
                -16.1434879999999,29.3330837940001,0
                -16.1427931929999,29.333042533,0
                -15.9475777379999,29.321449698,0
                -15.7736977279999,29.311123706,0
                -15.677452478,29.305407927,0
                -15.415119741,29.289828936,0
                -15.2372022659999,29.279263337,0
                -15.2026540429999,29.2772117550001,0
                -15.183999166,29.1858799080001,0
                -15.169898599,29.116838371,0
                -15.1480040889999,29.0096176010001,0
                -15.136716808,28.9543440620001,0
                -15.112676942,28.8366340740001,0
                -15.093590954,28.743180502,0
                -15.071666292,28.635827507,0
                -15.0504650999999,28.5320169410001,0
                -15.028283829,28.4234225490001,0
                -15.0260017589999,28.4122505350001,0
                -15.0157275669999,28.361951103,0
                -15.003401019,28.301591919,0
                -14.9987680089999,28.2789043490001,0
                -14.978715284,28.180711651,0
                -14.9441052089999,28.0112410040001,0
                -14.9374673299999,27.978738166,0
                -14.9148667389999,27.868088228,0
                -14.886875596,27.7310378110001,0
                -14.885909311,27.7263066800001,0
                -14.8526723869999,27.5635499250001,0
                -14.842309891,27.512819064,0
                -14.83287252,27.466620662,0
                -14.8156162989999,27.3821474860001,0
                -14.81389287,27.373708793,0
                -14.790857057,27.260897917,0
                -14.7816785159999,27.2159535970001,0
                -14.6085899729999,27.242078776,0
                -14.554050818,27.2503106780001,0
                -14.4348977719999,27.2682950560001,0
                -14.3232121899999,27.242384283,0
                -14.1453449909999,27.2011192090001,0
                -13.9717612699999,27.1608472190001,0
                -13.820559078,27.1257678170001,0
                -13.678554151,27.0928227200001,0
                -13.5170571789999,27.055355567,0
                -13.383507988,27.0931006010001,0
                -13.271901068,27.1490545730001,0
                -13.2426951149999,27.16369704,0
                -13.144220371,27.3046945790001,0
                -13.1295019849999,27.3212880510001,0
                -13.0316402469999,27.431617697,0
                -12.9190150379999,27.516273502,0
                -12.7839458989999,27.6584034860001,0
                -12.7782847359999,27.664360635,0
                -12.76606406,27.6676334140001,0
                -12.567004305,27.720943173,0
                -12.471229218,27.7561777560001,0
                -12.3557533109999,27.7986596040001,0
                -12.1303234659999,27.798900448,0
                -12.1044753159999,27.80409895,0
                -11.954251729,27.8343117110001,0
                -11.693657984,27.8909469160001,0
                -11.6430520009999,27.9029109410001,0
                -11.4541964049999,27.9475595590001,0
                -11.200705386,28.053499538,0
                -10.933108873,28.145365382,0
                -10.8063630419999,28.159279311,0
                -10.6090989649999,28.1809346920001,0
                -10.4259693399999,28.2093087380001,0
                -10.2639933319999,28.2587941470001,0
                -10.073803805,28.2730865090001,0
                -10.027269904,28.2864357820001,0
                -9.87661809199994,28.329653998,0
                -9.82599860499994,28.3481214560001,0
                -9.79915426699995,28.3579151540001,0
                -9.74994709099997,28.456592163,0
                -9.70784534399996,28.611618654,0
                -9.57408848099993,28.696296783,0
                -9.42627880499998,28.816213067,0
                -9.25028472699995,28.929114982,0
                -9.11654291399998,29.027882301,0
                -9.05402707799993,29.1361324170001,0
                -9.03919657599994,29.1618124820001,0
                -8.97525039099997,29.1987209160001,0
                -8.80686723199995,29.2959082950001,0
                -8.57452291999994,29.415914888,0
                -8.38447602999997,29.5640549550001,0
                -8.24371910099995,29.691008181,0
                -8.12409032399995,29.810894354,0
                -8.12386416399994,29.8145755210001,0
                -8.11716509899998,29.923615586,0
                -7.97626578399996,29.916721468,0
                -7.84241840499993,29.9168644430001,0
                -7.79608449199998,29.9527476010001,0
                -7.68756801499995,30.0367882350001,0
                -7.62547733099996,30.1186650280001,0
                -7.55390447999997,30.213046364,0
                -7.44766181499995,30.3594613280001,0
                -7.44135857899994,30.368147981,0
                -7.39962827399995,30.4099674010001,0
                -7.30061666299997,30.509190527,0
                -7.16988881899994,30.612623838,0
                -7.16688239299998,30.6150025520001,0
                -7.15380534999997,30.6220620830001,0
                -7.07535520799996,30.664412703,0
                -7.07307579499997,30.6669507500001,0
                -7.01202747999997,30.734926376,0
                -7.02946024899995,30.7956899110001,0
                -7.04031399599995,30.8335207160001,0
                -7.12413748599994,30.8698598340001,0
                -7.20241303799997,30.9037937000001,0
                -7.18046270099995,30.947813578,0
                -7.13914998599995,31.030664266,0
                -6.99826501499996,31.0378593780001,0
                -6.85739509699994,31.0591436760001,0
                -6.72357057699998,31.0804204470001,0
                -6.65687973199994,31.086555006,0
                -6.56860245899998,31.0946752200001,0
                -6.54822104599998,31.0987742900001,0
                -6.49817430899998,31.1088394550001,0
                -6.50104348199994,31.0650616450001,0
                -6.50510107199995,31.003163237,0
                -6.56925736299996,30.8358301370001,0
                -6.57535416799993,30.8199282460001,0
                -6.39920957099997,30.7919380160001,0
                -6.32231949599998,30.7810376100001,0
                -6.30056635999995,30.7779530930001,0
                -6.20190657899997,30.7428364420001,0
                -6.10325856999998,30.721808106,0
                -5.96941942699993,30.7289956230001,0
                -5.87081692599997,30.7502347710001,0
                -5.74405260199995,30.785593337,0
                -5.75121820199996,30.8982994510001,0
                -5.74608485999994,30.8995886020001,0
                -5.63853282099996,30.9265982480001,0
                -5.56195227699993,30.941999842,0
                -5.49767503099997,30.954927135,0
                -5.36395587399994,31.0748283630001,0
                -5.30905987999995,31.144846611,0
                -5.28656724199993,31.1735356130001,0
                -5.20217559899993,31.3074733490001,0
                -5.19348174299995,31.322289486,0
                -5.13185981099997,31.427306833,0
                -5.25168384699998,31.4905803890001,0
                -5.36450526899995,31.589084428,0
                -5.16305773799996,31.672693082,0
                -5.16029960499998,31.6738378210001,0
                -4.92091009799998,31.793851929,0
                -4.81624107399995,31.8448299350001,0
                -4.67447887499998,31.9138735340001,0
                -4.47722919499995,31.914084299,0
                -4.44747795299998,31.919597679,0
                -4.20958773699994,31.963682578,0
                -3.99124380099994,31.9991388440001,0
                -3.75595061199994,32.0239024910001,0
                -3.65313842199993,32.0347230730001,0
                -3.36436108999993,32.0843439270001,0
                -3.25103264199993,32.1111375570001,0
                -3.12490830299993,32.1409565500001,0
                -2.97003037599995,32.2397465700001,0
                -2.80800630399995,32.2399196850001,0
                -2.61071851799994,32.2049074390001,0
                -2.53880087899995,32.1844427770001,0
                -2.51206331599997,32.176834436,0
                -2.27250792799992,32.141867195,0
                -2.31542754099996,32.0174513640001,0
                -2.33571553699994,31.958639884,0
                -2.25817343999995,31.9094103800001,0
                -2.16655595299994,31.874285242,0
                -1.97635175099992,31.8744884480001,0
                -1.88389187999996,31.8937207490001,0
                -1.77210079599996,31.916974269,0
                -1.53970380099997,31.987668698,0
                -1.39890924199995,32.079399075,0
                -1.17353489199996,32.128952069,0
                -0.905900748999954,32.1855949390001,0
                -0.638311761999944,32.284505376,0
                -0.606768036999938,32.302951201,0
                -0.384866318999968,32.432712929,0
                -0.0961488179999606,32.5386905440001,0
                0.178462835000062,32.658742293,0
                0.217339732000028,32.673188323,0
                0.558722210000042,32.8000407100001,0
                0.73664042300004,32.865493568,0
                0.981229335000023,32.9554735410001,0
                1.19279729700003,33.031892613,0
                1.33332734800007,33.082652668,0
                1.74883137400008,33.202854937,0
                2.01645046500005,33.273586933,0
                2.34040568900002,33.365512978,0
                2.69263366500007,33.3658892940001,0
                2.89977283700006,33.406734693,0
                3.05183262600002,33.4367191160001,0
                3.07830774700005,33.444313972,0
                3.34761759800006,33.5215704080001,0
                3.60474776600006,33.5968654070001,0
                3.68565060700007,33.620556101,0
                4.00247681200005,33.789965233,0
                4.37560836400007,34.0087468030001,0
                4.40236463200006,34.0292527030001,0
                4.61493019100004,34.192162334,0
                4.74219617800003,34.2701233970001,0
                4.99508719400006,34.425040612,0
                5.11780820000007,34.4964720630001,0
                5.21333805100005,34.5520767580001,0
                5.53017936900005,34.707396675,0
                5.71327887600006,34.7639491680001,0
                5.83930692900003,34.778488929,0
                5.95980752400004,34.7923909830001,0
                6.24863744400005,34.7926995500001,0
                6.26932447900003,34.797319891,0
                6.50218126600004,34.8493273,0
                6.74169855700006,34.849583185,0
                6.88963624900003,34.8497412300001,0
                7.08694709400004,34.7935951420001,0
                7.20441312600008,34.6889382160001,0
                7.28438092800008,34.617690802,0
                7.39173092900006,34.5592855780001,0
                7.43945421800004,34.533321153,0
                7.62972707900008,34.4701229400001,0
                7.79503183300005,34.3986998880001,0
                7.84116117500002,34.3787688740001,0
                8.02441120200007,34.294429317,0
                8.09229005600002,34.2825255110001,0
                8.26397404000005,34.2524176040001,0
                8.53172091800008,34.2033913600001,0
                8.56929480700006,34.199062956,0
                8.83467494200005,34.16849197,0
                9.07420746900004,34.1546586310001,0
                9.36303710500005,34.154967191,0
                9.45750990000005,34.1263246570001,0
                9.52511390800004,34.1058283030001,0
                9.59903516800006,34.156343991,0
                9.67998416500006,34.2116626870001,0
                9.67279595000002,34.3455026180001,0
                9.66003809700004,34.3788841780001,0
                9.61627993700006,34.493379056,0
                9.66867521100005,34.500270034,0
                9.77828562700006,34.5146859550001,0
                9.89572166000005,34.625452217,0
                9.89792193600005,34.6275275360001,0
                9.89826290200006,34.6388237460001,0
                9.90472673200003,34.852962045,0
                10.130266356,34.747534139,0
                10.1015955500001,34.699634282,0
                10.0247841070001,34.57130619,0
                9.96619215900006,34.405619399,0
                9.94752808000004,34.352840724,0
                9.94422358200006,34.331768513,0
                9.92653532600002,34.2189707050001,0
              </coordinates>
            </LinearRing>
          </outerBoundaryIs>
        </Polygon>
      </Placemark>
    </Document>
  </Document>
</kml>
