<?xml version="1.0" encoding="UTF-8"?>
<kml xmlns="http://www.opengis.net/kml/2.2">
  <Document id="root_doc">
    <Schema id="Bioregions_PA25.schema">
      <SimpleField name="OBJECTID" type="float"/>
      <SimpleField name="Shape_Leng" type="float"/>
      <SimpleField name="Shape_Area" type="float"/>
      <SimpleField name="Bioregions" type="string"/>
    </Schema>
    <Document id="Bioregions_PA25">
      <name>Bioregions_PA25</name>
      <Placemark id="Bioregions_PA25.1">
        <ExtendedData>
          <SchemaData schemaUrl="#Bioregions_PA25.schema">
            <SimpleData name="OBJECTID">90</SimpleData>
            <SimpleData name="Shape_Leng">185.85714062300</SimpleData>
            <SimpleData name="Shape_Area">285.72282275000</SimpleData>
            <SimpleData name="Bioregions">PA25</SimpleData>
          </SchemaData>
        </ExtendedData>
        <Polygon>
          <outerBoundaryIs>
            <LinearRing>
              <coordinates>
                3.30160962900004,27.1285374060001,0
                3.41798135800002,27.0018585460001,0
                3.46045166500005,26.811699574,0
                3.47178316800006,26.688531019,0
                3.48183600700003,26.5792502030001,0
                3.45036063000003,26.3678783940001,0
                3.40836411900005,26.114227423,0
                3.39212876500005,25.9942122910001,0
                3.37691087900004,25.881721752,0
                3.37719310200004,25.617549329,0
                3.41969727700007,25.395689168,0
                3.44957673500005,25.339398083,0
                3.51499343600005,25.2161535280001,0
                3.57573284600005,25.1191996270001,0
                3.62084109900007,25.047196495,0
                3.75689911500007,25.183544001,0
                3.76862062400005,25.1952905310001,0
                3.86349608500007,25.4067304230001,0
                3.92671777300006,25.5758685100001,0
                4.09556177500002,25.7873872160001,0
                4.25389593300002,25.9460601850001,0
                4.45449753500003,26.104778165,0
                4.53163057800003,26.18851712,0
                4.58115677300003,26.2422833950001,0
                4.66554422900003,26.37974352,0
                4.77112449700007,26.464390716,0
                4.88560205500005,26.411702877,0
                4.90855923300006,26.401136717,0
                4.90878501100002,26.1897990370001,0
                4.79278581800003,25.967769542,0
                4.79295515200005,25.8092661740001,0
                4.80367825500002,25.6613408700001,0
                4.80381372300008,25.5345378330001,0
                4.72728968900003,25.4552043050001,0
                4.66923364800004,25.3970240850001,0
                4.65345600200004,25.328322245,0
                4.65733762200006,25.265418546,0
                4.65883463100005,25.241151137,0
                4.65558670800004,25.222193615,0
                4.64570546800007,25.164527021,0
                4.62951375700004,25.140721392,0
                4.60614483200004,25.106366639,0
                4.54528363400004,25.076778367,0
                4.51901139300003,25.064006319,0
                4.46374635600006,25.073697823,0
                4.42917529900006,25.079760353,0
                4.38593122300006,25.0733535370001,0
                4.33937291700005,25.0664557210001,0
                4.26207619300004,25.0111197690001,0
                4.22850258500006,24.9870854530001,0
                4.18635119100003,24.878729548,0
                4.20231510400004,24.773076997,0
                4.21041788800005,24.755123063,0
                4.22614758200007,24.72026837,0
                4.24315603800005,24.623923534,0
                4.25272503500003,24.5697180230001,0
                4.18937738400007,24.5168155440001,0
                4.17093196800005,24.4745286830001,0
                4.25294516900004,24.3636633,0
                4.27933501600006,24.332751595,0
                4.37461818800006,24.2211400740001,0
                4.41475975100008,24.1716607020001,0
                4.46455163700006,24.110283861,0
                4.57035548400006,23.9862349790001,0
                4.59070444800005,23.9485424540001,0
                4.62594310400004,23.8832674810001,0
                4.69208519500006,23.7908775720001,0
                4.75108213000004,23.6834153940001,0
                4.75296276700004,23.6799897550001,0
                4.82179835600004,23.537409929,0
                4.86364698700004,23.4469956570001,0
                4.88534853200002,23.4001080100001,0
                4.93565162900006,23.297134606,0
                4.98245255500007,23.351252846,0
                5.00425097900006,23.3764594300001,0
                5.03055777800006,23.4795149780001,0
                5.05688997700003,23.558794946,0
                5.13869355700007,23.6434178980001,0
                5.14652289000003,23.733244971,0
                5.11129092900006,23.7912387540001,0
                5.09359645900003,23.8203657620001,0
                5.03544446200004,23.852004003,0
                5.02357770600003,23.871076445,0
                4.98781055300003,23.9285634290001,0
                4.95600779700004,24.0236315990001,0
                4.89270167000006,24.1057491170001,0
                4.87664758200003,24.126574298,0
                4.81049481500003,24.173414699,0
                4.79469114900007,24.1846047940001,0
                4.78592695800006,24.1913316390001,0
                4.69158137500006,24.263746557,0
                4.63829005100007,24.3169219760001,0
                4.62810996800005,24.327080193,0
                4.61409685900003,24.362005169,0
                4.60162290700003,24.393094902,0
                4.60680859900003,24.404442456,0
                4.63061267900002,24.4565274940001,0
                4.66455847600002,24.468206289,0
                4.72304353300007,24.4883265760001,0
                4.78908594900003,24.4831137370001,0
                4.78916779300005,24.406504177,0
                4.80865957400005,24.374910448,0
                4.81034134900005,24.3721842300001,0
                4.81359529800005,24.3698229510001,0
                4.83942105300002,24.3510820230001,0
                4.89488752800003,24.3617076800001,0
                4.91332830500005,24.409278311,0
                4.91041659000007,24.4621122470001,0
                4.90794322900007,24.5070164200001,0
                4.89428623000003,24.5495319280001,0
                4.88673646000007,24.573037297,0
                4.95269510600002,24.6523596000001,0
                4.97903324000004,24.726356061,0
                5.07150320100004,24.7158881890001,0
                5.12959986300007,24.737083865,0
                5.15327695100007,24.829569731,0
                5.18489344100004,24.908855343,0
                5.18613947000006,24.9153301490001,0
                5.20065695800002,24.9907661610001,0
                5.20056946900007,25.072659109,0
                5.20867540500006,25.088334317,0
                5.23747599600006,25.1440254510001,0
                5.29556003400006,25.1757879470001,0
                5.36953347300005,25.170583703,0
                5.39580528200003,25.1552969040001,0
                5.43297622100005,25.133667438,0
                5.50704078000007,25.043927567,0
                5.55518503900004,24.957484365,0
                5.55997595600007,24.9488820180001,0
                5.56527892600008,24.9359591250001,0
                5.58381407000007,24.890789351,0
                5.62617747100006,24.801015899,0
                5.62797225400004,24.7958733190001,0
                5.64737267300006,24.740279163,0
                5.66328578600007,24.6821779650001,0
                5.67267821500008,24.6581089910001,0
                5.68183229500005,24.634646387,0
                5.73996830000004,24.6188584820001,0
                5.78971867400003,24.6340582390001,0
                5.80070659400008,24.6374153630001,0
                5.83102590900006,24.700559175,0
                5.83497247400004,24.7087783910001,0
                5.83484596600005,24.7133992450001,0
                5.83222561800005,24.809160773,0
                5.80042479200006,24.9015874890001,0
                5.78427319400004,24.939162115,0
                5.76069907100003,24.994005767,0
                5.68664580300003,25.073178489,0
                5.62050935700006,25.160284968,0
                5.60456564500004,25.247444925,0
                5.62395909300005,25.3645712900001,0
                5.62556521900007,25.374270488,0
                5.61929451100002,25.4383508940001,0
                5.61755226800005,25.4561554060001,0
                5.57784115500004,25.5353648170001,0
                5.53748690400005,25.5863688420001,0
                5.49848449800004,25.635665751,0
                5.47463740600006,25.7016835640001,0
                5.50629429900005,25.7439849680001,0
                5.54646941700003,25.7459412210001,0
                5.56176338600005,25.7466858940001,0
                5.61195862900007,25.744097851,0
                5.63313456700007,25.7114519570001,0
                5.64106848900008,25.699219618,0
                5.65350098200003,25.6859272300001,0
                5.67809258300002,25.6596333360001,0
                5.72565694400004,25.649116932,0
                5.73055880300006,25.650523284,0
                5.76262886800004,25.659723566,0
                5.77048642400007,25.7231333440001,0
                5.75189042300002,25.820857485,0
                5.72837599100006,25.8429418150001,0
                5.70693777300005,25.863076983,0
                5.72402613200006,25.9096169200001,0
                5.72537477800006,25.9132897280001,0
                5.74233570700005,25.9215189600001,0
                5.80722656600005,25.953002833,0
                5.84952764700006,25.9213475190001,0
                5.87337689300006,25.852688035,0
                5.89287411800007,25.808251102,0
                5.91044939300002,25.768192442,0
                5.92547747000003,25.747907561,0
                5.95542600600004,25.7074806100001,0
                5.98981614000007,25.6626079960001,0
                6.01968884200005,25.6290726830001,0
                6.05329082700007,25.5913491860001,0
                6.07664345500007,25.5707901960001,0
                6.09824543100007,25.5517712340001,0
                6.15639167700004,25.5254160280001,0
                6.21599487700007,25.509437092,0
                6.22509598400006,25.506997132,0
                6.26820835400002,25.5104926920001,0
                6.29113353300005,25.512351467,0
                6.33072767500005,25.544094172,0
                6.35324427800003,25.599538045,0
                6.35970765500002,25.6154519450001,0
                6.34373572100003,25.729029343,0
                6.32576662000002,25.76061137,0
                6.28815859000002,25.8267137280001,0
                6.22467264800002,25.903256411,0
                6.20450580700003,25.9117862640001,0
                6.13745471600004,25.9401472920001,0
                6.04231120500003,25.979671565,0
                6.03748366800005,25.9821519830001,0
                5.95508916200004,26.0244877650001,0
                5.83880210100006,26.0719145100001,0
                5.73045748500004,26.1034995590001,0
                5.69701431400006,26.117043306,0
                5.64588199700006,26.137751721,0
                5.57700857200007,26.1637282990001,0
                5.54810138100004,26.174631424,0
                5.45561625500005,26.198308324,0
                5.42410709000006,26.222157005,0
                5.37894074800005,26.256344293,0
                5.33821790500002,26.3027857660001,0
                5.32339914700003,26.319686431,0
                5.32061308300007,26.36618014,0
                5.31801803600007,26.409499586,0
                5.30999114600007,26.504593157,0
                5.32263312800006,26.558867994,0
                5.33891997000006,26.628785448,0
                5.38204655400006,26.670565525,0
                5.41808741400007,26.705480091,0
                5.50788119300006,26.7293516290001,0
                5.61090201600007,26.7347451260001,0
                5.67384394400005,26.7422181060001,0
                5.74561610200004,26.750739133,0
                5.84097418300007,26.735320184,0
                5.85922665900006,26.7323687860001,0
                5.88163564800004,26.72560457,0
                5.94643391200003,26.7060445400001,0
                5.95446644600003,26.6056673950001,0
                5.95456240200002,26.515848788,0
                5.97019778500004,26.4555245230001,0
                5.97578183300004,26.4339776580001,0
                6.00261752600005,26.416129364,0
                6.03922993700007,26.3917779070001,0
                6.07673833200005,26.374947057,0
                6.14494621600005,26.344339819,0
                6.19255008700003,26.2968396970001,0
                6.26134052100002,26.196527406,0
                6.28921121700006,26.154004834,0
                6.30632640900006,26.12789042,0
                6.32469309800007,26.103019159,0
                6.34336218800007,26.0777369420001,0
                6.35984048700004,26.063644642,0
                6.38038249900006,26.046075838,0
                6.41699287400007,26.03319829,0
                6.42530777200005,26.0302735550001,0
                6.43362824200005,26.033982071,0
                6.47283815000003,26.0514582930001,0
                6.47185973600006,26.082591871,0
                6.47010061000003,26.138632258,0
                6.50128118500004,26.1698785290001,0
                6.51496415900004,26.183589328,0
                6.58895172400003,26.1651765560001,0
                6.63959922600003,26.1498209710001,0
                6.64973048800005,26.1467492300001,0
                6.68424165400006,26.1398854660001,0
                6.71578792600008,26.133611296,0
                6.80561274900003,26.1284238220001,0
                6.90071330900003,26.1285254110001,0
                6.97742774700004,26.030863534,0
                7.01588331100004,26.036602348,0
                7.04874477900006,26.041506333,0
                7.05394607700003,26.120764093,0
                6.99835742600004,26.2237317550001,0
                6.99637369000004,26.2501169650001,0
                6.99299630700006,26.295052836,0
                7.06959000700004,26.308343031,0
                7.13305885800003,26.247651365,0
                7.13940660300005,26.240965594,0
                7.18066437700003,26.1975094630001,0
                7.23750107700005,26.1734682490001,0
                7.26787930000006,26.1606184820001,0
                7.33921689800007,26.1527692230001,0
                7.38286454400003,26.181302811,0
                7.39993253600005,26.1924602770001,0
                7.44473655800005,26.290252007,0
                7.48794220500002,26.3254324850001,0
                7.52920217900004,26.3590271460001,0
                7.59554681300006,26.36631063,0
                7.65070387300005,26.3723656670001,0
                7.74319983600003,26.338122189,0
                7.78113656300008,26.324373446,0
                7.83041320900003,26.30651449,0
                7.89716722500003,26.2806364040001,0
                7.92555311700005,26.269632017,0
                7.93829287900007,26.26763907,0
                8.05414082800007,26.249516036,0
                8.15276333900005,26.249621398,0
                8.33592303100005,26.249817072,0
                8.50143335100006,26.2852167200001,0
                8.70572544500004,26.2889573790001,0
                8.76448771100007,26.2916914480001,0
                8.86069677200004,26.296167645,0
                8.98398446900006,26.2892546510001,0
                9.08265140100002,26.250614881,0
                9.13560021800004,26.141479867,0
                9.14277006000003,26.025251563,0
                9.15455862100004,25.9627571950001,0
                9.16402651300007,25.912560382,0
                9.17214273000008,25.874879063,0
                9.18526294600002,25.8139586070001,0
                9.22760907400004,25.740035467,0
                9.25799702000006,25.7132826380001,0
                9.28754834600005,25.6872648080001,0
                9.34166789000005,25.6638812960001,0
                9.39326346800004,25.641587648,0
                9.50252556300006,25.5747808080001,0
                9.56950926200005,25.5184955890001,0
                9.68588475300004,25.388294328,0
                9.74781782600007,25.3024733550001,0
                9.74938283500006,25.300304651,0
                9.79878931200005,25.212299822,0
                9.85524450500003,25.120780327,0
                9.86849767600006,25.078233702,0
                9.88705034100008,25.01866691,0
                9.90829645600007,24.916542839,0
                9.92178502600007,24.8944366900001,0
                9.95769544200004,24.835583055,0
                9.98997510000004,24.8092296950001,0
                10.035252058,24.772264546,0
                10.0600213330001,24.666621402,0
                10.0777148400001,24.5891499470001,0
                10.114424753,24.574178719,0
                10.1552428040001,24.5575320630001,0
                10.204885382,24.5964692650001,0
                10.236185854,24.6210197670001,0
                10.236065438,24.733733622,0
                10.211239904,24.892210773,0
                10.193485665,25.0260392480001,0
                10.183285776,25.068342107,0
                10.1722603000001,25.1140744260001,0
                10.2038682730001,25.202165339,0
                10.2160691660001,25.256482681,0
                10.228403353,25.311383419,0
                10.2507002570001,25.3925437340001,0
                10.256474659,25.41356032,0
                10.26162644,25.462141913,0
                10.2669349770001,25.5121958930001,0
                10.2598034710001,25.5932013510001,0
                10.3115868200001,25.6306841580001,0
                10.323157194,25.639058978,0
                10.381480416,25.6367884150001,0
                10.411214692,25.6356307720001,0
                10.420531576,25.605938522,0
                10.4288905940001,25.5792927790001,0
                10.4374299900001,25.5031706570001,0
                10.443112414,25.4525048880001,0
                10.4503575160001,25.2658306910001,0
                10.44343603,25.1495873320001,0
                10.4436505200001,24.948815999,0
                10.450835414,24.818498516,0
                10.450989696,24.6740838970001,0
                10.4565792660001,24.578081953,0
                10.458166917,24.5508109990001,0
                10.459667402,24.5394016600001,0
                10.4688186700001,24.469809405,0
                10.490127671,24.424044511,0
                10.514716186,24.3712337060001,0
                10.5887525210001,24.307911276,0
                10.632750011,24.2353933700001,0
                10.6699052340001,24.174150712,0
                10.701697595,24.089648649,0
                10.751179698,23.931197964,0
                10.7650748460001,23.918103472,0
                10.8146462670001,23.871386886,0
                10.9168789500001,23.7904830270001,0
                11.0049976710001,23.734220318,0
                11.0507783680001,23.717107856,0
                11.0613745850001,23.7131470630001,0
                11.141851027,23.7178315130001,0
                11.184648474,23.720322701,0
                11.2251230040001,23.7059167,0
                11.2833112230001,23.6852054780001,0
                11.299766619,23.644193436,0
                11.3186271600001,23.597185487,0
                11.332799564,23.562507005,0
                11.357475499,23.5021248100001,0
                11.4491343670001,23.4282543310001,0
                11.5724906290001,23.3579399130001,0
                11.6215065800001,23.3177636200001,0
                11.671197771,23.2770322160001,0
                11.720578274,23.2136833800001,0
                11.762950744,23.1151047130001,0
                11.8124102690001,22.977787581,0
                11.827321811,22.949532925,0
                11.8477080660001,22.910901057,0
                11.9130193180001,22.8326964720001,0
                11.9182432800001,22.8264410510001,0
                11.9311959030001,22.816326729,0
                11.999324646,22.7631262350001,0
                12.065653678,22.714102912,0
                12.0945003630001,22.692782215,0
                12.186125395,22.6506120870001,0
                12.248255645,22.6196304280001,0
                12.2848035690001,22.6014053530001,0
                12.3764398600001,22.5486685980001,0
                12.3784922740001,22.545360977,0
                12.4223054620001,22.4747492560001,0
                12.461143484,22.390255579,0
                12.418932823,22.3373756820001,0
                12.375754697,22.3257011900001,0
                12.327379579,22.3126216310001,0
                12.2676206960001,22.314090117,0
                12.190009146,22.315997538,0
                12.102542257,22.354532496,0
                12.038474869,22.3827591900001,0
                11.9067124740001,22.456901739,0
                11.901023686,22.4601028390001,0
                11.767105429,22.5268840890001,0
                11.633156845,22.621842945,0
                11.5664257330001,22.6884300040001,0
                11.5273731340001,22.7273989330001,0
                11.511180224,22.7603438840001,0
                11.4391272340001,22.9069423880001,0
                11.358071024,22.945600972,0
                11.2370127830001,22.9623609270001,0
                11.2065898390001,22.9665728520001,0
                11.0093393330001,22.9663622510001,0
                10.850884761,22.9204029950001,0
                10.7771563970001,22.878453231,0
                10.720636648,22.846295189,0
                10.686592843,22.833236448,0
                10.6009293650001,22.800377585,0
                10.491742953,22.7967387840001,0
                10.43791227,22.8170408760001,0
                10.361363397,22.8459116240001,0
                10.2697082920001,22.9162599110001,0
                10.2308643420001,23.0077983630001,0
                10.2624375570001,23.1275904680001,0
                10.3291580010001,23.3178663260001,0
                10.3310790950001,23.3712578980001,0
                10.332581186,23.4129721030001,0
                10.325388767,23.55033439,0
                10.2477609860001,23.680576617,0
                10.09274671,23.743797295,0
                10.068461401,23.7566771410001,0
                9.92706646000005,23.831693457,0
                9.91692107300003,23.835159737,0
                9.80374057600005,23.8738291,0
                9.72157748000006,23.913281441,0
                9.70859090500005,23.9195173460001,0
                9.69071414500007,23.937355428,0
                9.62043789200004,24.0074810030001,0
                9.58690035200004,24.0855066440001,0
                9.55688108000004,24.155350034,0
                9.54386434300005,24.1974878930001,0
                9.52860216200003,24.246899641,0
                9.47642914100004,24.2927137,0
                9.44046419700004,24.3242960000001,0
                9.40616820100007,24.3471061830001,0
                9.34529195200003,24.3875959260001,0
                9.23236467700002,24.3970853270001,0
                9.17972623600002,24.401508661,0
                9.08996415000007,24.3747168560001,0
                9.04944617800004,24.3626236370001,0
                8.98257939200005,24.309718235,0
                8.87336292900005,24.3342569380001,0
                8.79705490500004,24.361635268,0
                8.78526916600003,24.3658638910001,0
                8.75613683600005,24.388325717,0
                8.70771543000006,24.4256599760001,0
                8.66042299900005,24.4270005180001,0
                8.58795195500005,24.4290548010001,0
                8.52201979000006,24.5080025390001,0
                8.51741657000002,24.5135146550001,0
                8.44693981600005,24.545139728,0
                8.38794039500004,24.552688276,0
                8.33772911700004,24.55911245,0
                8.31101037500002,24.5006497640001,0
                8.29907575100003,24.4745359770001,0
                8.29776391200005,24.450467664,0
                8.29561823300003,24.4111309310001,0
                8.21112621000003,24.372295018,0
                8.13361761500005,24.389823655,0
                8.03147524300005,24.3861923380001,0
                8.04215442100002,24.280534726,0
                8.05826455100004,24.2548192310001,0
                8.09507730000007,24.196055501,0
                8.13032707900004,24.1714375060001,0
                8.14778730900002,24.170624649,0
                8.20429800300008,24.167993795,0
                8.25750425100006,24.1693810250001,0
                8.34518814500007,24.171666966,0
                8.38000814000003,24.170364921,0
                8.43677052500004,24.1682421530001,0
                8.45445274300005,24.101337475,0
                8.41752748500005,24.0602182580001,0
                8.39112973200002,24.0308236390001,0
                8.39302678400003,24.006495176,0
                8.39469909400003,23.9850372450001,0
                8.48632412500007,23.9428679760001,0
                8.49697196900007,23.865388135,0
                8.45252822400005,23.786555203,0
                8.45127191900002,23.784326907,0
                8.44754760000006,23.7815273100001,0
                8.38088329700003,23.7314168990001,0
                8.31751485100006,23.699648294,0
                8.29230964100003,23.689815471,0
                8.25413758800005,23.6749247930001,0
                8.25816612000006,23.6509231430001,0
                8.26477519100007,23.611534482,0
                8.29000501300004,23.579492966,0
                8.30357077500003,23.562263188,0
                8.29275241200003,23.544515995,0
                8.26489560700003,23.4988209140001,0
                8.28962517800005,23.431923844,0
                8.36248421200003,23.4538669020001,0
                8.39525690400006,23.463737081,0
                8.50438778800003,23.5202105170001,0
                8.57128509200004,23.5449382150001,0
                8.61470303000004,23.56018619,0
                8.64170697300005,23.569669241,0
                8.74033881000003,23.5627298630001,0
                8.80728833400002,23.5381456650001,0
                8.82071324300006,23.4980115490001,0
                8.82848772100004,23.4747668260001,0
                8.74752558500006,23.425368366,0
                8.67711291700004,23.397114502,0
                8.70182554000007,23.344306223,0
                8.70439108000005,23.339188661,0
                8.73006162000007,23.2879797370001,0
                8.72254304700004,23.248263067,0
                8.71605468200005,23.213996176,0
                8.65972366600005,23.1892797680001,0
                8.64703421500008,23.184505818,0
                8.60338824100006,23.1680860380001,0
                8.52242610600007,23.1186867170001,0
                8.45554776900008,23.076348115,0
                8.49584351800007,23.019699514,0
                8.53315839900006,22.9672393560001,0
                8.55810052800007,22.925250589,0
                8.58961300500005,22.872197801,0
                8.65403297500006,22.8047041890001,0
                8.66014135700004,22.7983041840001,0
                8.67178908200003,22.784139279,0
                8.77299853600005,22.6610553670001,0
                8.88581682800003,22.566073225,0
                8.96694329700006,22.4604908580001,0
                9.01841696600007,22.42111434,0
                9.07269558800004,22.379590787,0
                9.20306080700004,22.344506859,0
                9.34399108200006,22.309434217,0
                9.43558977300006,22.2919204740001,0
                9.57297872900006,22.2709336730001,0
                9.70683700100005,22.260509889,0
                9.83015655500003,22.2254184340001,0
                9.95347987200006,22.1868050050001,0
                10.073291973,22.134098201,0
                10.1614390030001,22.05317918,0
                10.1940034720001,22.018363843,0
                10.2601768230001,21.9476158580001,0
                10.3321563820001,21.8398955480001,0
                10.344847111,21.8209031910001,0
                10.42242221,21.739972875,0
                10.531718171,21.641465705,0
                10.6621097290001,21.5817253920001,0
                10.8136389310001,21.514963707,0
                10.858113701,21.5061845450001,0
                10.9911152330001,21.4799301150001,0
                11.1694420910001,21.4695537540001,0
                11.2344299440001,21.4709770910001,0
                11.33850784,21.4732565370001,0
                11.53573149,21.4981235130001,0
                11.7118119200001,21.530012017,0
                11.8913958310001,21.583038674,0
                12.003876893,21.6354094280001,0
                12.0885436290001,21.6748293040001,0
                12.2645605270001,21.7665972990001,0
                12.39477736,21.868883238,0
                12.4610354640001,21.9211353270001,0
                12.6094580920001,22.0381828700001,0
                12.743184425,22.1510399540001,0
                12.894533869,22.2533484950001,0
                12.983324044,22.301902989,0
                13.0881469600001,22.3592243570001,0
                13.1902614210001,22.412121556,0
                13.226365453,22.430824042,0
                13.299370911,22.4686414390001,0
                13.425914709,22.5290663220001,0
                13.459398139,22.545055608,0
                13.5211604470001,22.574547765,0
                13.626385074,22.624792583,0
                13.7429533600001,22.680453738,0
                13.8572880900001,22.721048275,0
                13.8914530600001,22.733178352,0
                13.9718197660001,22.7617113800001,0
                14.0131256060001,22.775776105,0
                14.061410617,22.7922164600001,0
                14.16899339,22.8288456820001,0
                14.285237528,22.8634234310001,0
                14.3591376840001,22.8854055100001,0
                14.406276943,22.8962775700001,0
                14.4581788880001,22.908247944,0
                14.5739459960001,22.934947612,0
                14.7575828020001,22.96180487,0
                14.7922942540001,22.966881487,0
                14.9894925290001,23.016404095,0
                15.080490135,23.027279321,0
                15.105749959,23.0302980390001,0
                15.245350698,23.0469808990001,0
                15.2571520560001,23.048391198,0
                15.324032776,23.052321384,0
                15.4403004800001,23.059153678,0
                15.486353509,23.0480638220001,0
                15.537413298,23.0357680990001,0
                15.6587387330001,23.0065522830001,0
                15.739744849,22.953444,0
                15.7821065260001,22.925671166,0
                15.8585870740001,22.8557140390001,0
                15.866724204,22.8482709310001,0
                15.8705959960001,22.8448251830001,0
                15.997174337,22.7321741540001,0
                16.061968339,22.663476986,0
                16.110013904,22.612536081,0
                16.1420961590001,22.564526078,0
                16.173518615,22.517502028,0
                16.2828790400001,22.359115189,0
                16.3420952560001,22.270495738,0
                16.3675492130001,22.2324025240001,0
                16.4380956300001,22.1373761310001,0
                16.57111145,22.152298999,0
                16.596584235,22.1551567440001,0
                16.7938189660001,22.1659342670001,0
                16.8295163380001,22.1652438670001,0
                16.9664165,22.1625959090001,0
                17.050301631,22.1546976170001,0
                17.1143683870001,22.148665168,0
                17.1795377030001,22.1394261740001,0
                17.2869840230001,22.1241932020001,0
                17.445543835,22.0715286540001,0
                17.543961906,22.022452018,0
                17.607659439,21.990688494,0
                17.716891923,21.9520598930001,0
                17.8155618800001,21.9098975250001,0
                17.8965756220001,21.9099841170001,0
                17.981066131,21.952342109,0
                18.1043401210001,21.955996011,0
                18.301563383,21.9808629390001,0
                18.386860735,22.0139232330001,0
                18.456482609,22.0409074450001,0
                18.5155132420001,22.0759748130001,0
                18.551522543,22.09736587,0
                18.5765659530001,22.131249568,0
                18.621869831,22.192543728,0
                18.6247368310001,22.2662507840001,0
                18.6252955460001,22.280604576,0
                18.7168637400001,22.291269146,0
                18.7342121450001,22.294860317,0
                18.8365950630001,22.3160534250001,0
                18.903458501,22.372481705,0
                18.9101483900001,22.4219275020001,0
                18.9139454850001,22.4499832440001,0
                18.8922534330001,22.50653085,0
                18.868025285,22.569692821,0
                18.850342545,22.636597938,0
                18.887014422,22.684836128,0
                18.90662136,22.7106265960001,0
                18.9875834970001,22.7600250570001,0
                19.072076318,22.798860501,0
                19.153095552,22.7883802690001,0
                19.229118697,22.7789604290001,0
                19.265827573,22.7744117390001,0
                19.3678645800001,22.876667571,0
                19.380851992,22.9027105380001,0
                19.403016334,22.9471508140001,0
                19.43952762,23.0043397430001,0
                19.459275092,23.0352689000001,0
                19.490071863,23.0759539900001,0
                19.536659894,23.137497685,0
                19.621305605,23.1071271060001,0
                19.6247475910001,23.1058921040001,0
                19.61887541,23.0334869370001,0
                19.6143193400001,22.9773164490001,0
                19.598568481,22.8839587160001,0
                19.581023089,22.8222994010001,0
                19.5705320590001,22.7518422750001,0
                19.531893193,22.6514151280001,0
                19.5126285260001,22.5510089640001,0
                19.510366682,22.4976940770001,0
                19.5091905470001,22.4699921800001,0
                19.5042370040001,22.4300059930001,0
                19.496969861,22.3713545300001,0
                19.499350157,22.3285449910001,0
                19.502353731,22.2744967080001,0
                19.5107981730001,22.2099140510001,0
                19.514786186,22.179408031,0
                19.5190980470001,22.1470247130001,0
                19.527211435,22.086079909,0
                19.52794837,22.0505426300001,0
                19.529071774,21.9962633920001,0
                19.5221020770001,21.9258097420001,0
                19.4616447980001,21.8786843720001,0
                19.442914289,21.864084711,0
                19.3443658910001,21.791772467,0
                19.2586832170001,21.736105798,0
                19.2493320510001,21.730030604,0
                19.2414849690001,21.725834751,0
                19.1437214760001,21.6735611600001,0
                19.0434096170001,21.6047690080001,0
                19.028649629,21.536941997,0
                19.0066078790001,21.435658652,0
                18.9890737750001,21.3634327620001,0
                18.955728605,21.2542056360001,0
                18.9374348540001,21.2064921960001,0
                18.920599946,21.162588086,0
                18.893029278,21.0570057140001,0
                18.892538901,21.055127918,0
                19.0087749470001,21.0552520960001,0
                19.186650349,21.0554421260001,0
                19.303926802,21.0671801070001,0
                19.3645099620001,21.073243667,0
                19.441111677,21.0724347620001,0
                19.5159704160001,21.071644158,0
                19.7079129520001,21.092982793,0
                19.849479338,21.119002762,0
                19.891036323,21.126640847,0
                20.100601593,21.1374316050001,0
                20.2121772240001,21.1447964120001,0
                20.2361999830001,21.14638209,0
                20.392927915,21.1606388930001,0
                20.4532772950001,21.1669666380001,0
                20.579592717,21.1802106210001,0
                20.7085399000001,21.1941216700001,0
                20.7609667730001,21.199777356,0
                20.7885109210001,21.1989636430001,0
                20.9335656210001,21.1946783340001,0
                21.0144491470001,21.186527461,0
                21.1237916540001,21.1755086100001,0
                21.2928770130001,21.1598390660001,0
                21.449628209,21.152961716,0
                21.6292742110001,21.1478702430001,0
                21.650135748,21.14697763,0
                21.830052376,21.1392792290001,0
                22.0386626710001,21.1140649230001,0
                22.046703813,21.1130929940001,0
                22.082362871,21.110096662,0
                22.2122656120001,21.0991810200001,0
                22.3255217020001,21.0858206680001,0
                22.360218902,21.0817275410001,0
                22.3849240430001,21.0809738040001,0
                22.5275340970001,21.0766228430001,0
                22.5396230260001,21.07628535,0
                22.64905851,21.0732299110001,0
                22.781157084,21.0628042480001,0
                22.890353326,21.0576375100001,0
                23.004778496,21.0595204110001,0
                23.036873659,21.059169304,0
                23.1510016300001,21.057915968,0
                23.309504997,21.058085303,0
                23.4180113300001,21.0596482030001,0
                23.4415907040001,21.059987806,0
                23.5543035360001,21.0618694620001,0
                23.667010315,21.0672733060001,0
                23.8378454,21.0656945690001,0
                23.9207468230001,21.07241594,0
                24.013944617,21.079972061,0
                24.214704265,21.090753412,0
                24.371433918,21.103248964,0
                24.484260018,21.1096379050001,0
                24.5299292930001,21.1122239210001,0
                24.698980786,21.1282547070001,0
                24.805555468,21.1508105840001,0
                24.866252333,21.1636566380001,0
                25.015929505,21.1831893350001,0
                25.1585523140001,21.211520127,0
                25.3328706360001,21.2451682180001,0
                25.3902265630001,21.256332851,0
                25.496625545,21.277043614,0
                25.6574099580001,21.310988292,0
                25.6726997750001,21.3142162300001,0
                25.8575825030001,21.3496368470001,0
                26.042461469,21.388579657,0
                26.225596701,21.411670293,0
                26.303080064,21.4208828860001,0
                26.3788002840001,21.429885588,0
                26.4879763000001,21.4436510640001,0
                26.6402243260001,21.445321387,0
                26.6658489370001,21.4456024880001,0
                26.690778504,21.4461378820001,0
                26.838439137,21.4493088680001,0
                26.981111706,21.430529055,0
                27.083276681,21.4125866530001,0
                27.112256921,21.4118838590001,0
                27.222412638,21.409212483,0
                27.347956525,21.4022943640001,0
                27.379165347,21.400574571,0
                27.516531951,21.400721322,0
                27.5710189640001,21.397409543,0
                27.6873773620001,21.3903369700001,0
                27.821237823,21.378151862,0
                27.841967289,21.3764644820001,0
                27.9920817080001,21.364244753,0
                28.091490757,21.3574622960001,0
                28.1699741840001,21.3521072450001,0
                28.328485201,21.3452319090001,0
                28.389876766,21.3417283630001,0
                28.4799535430001,21.336587572,0
                28.5650811020001,21.335627919,0
                28.622607939,21.3349792560001,0
                28.696305651,21.3297941880001,0
                28.7458991,21.3263049,0
                28.824092605,21.3222733850001,0
                28.9132168690001,21.31767817,0
                29.025533093,21.3167284360001,0
                29.098138568,21.3161144200001,0
                29.230225853,21.3162555320001,0
                29.2513357510001,21.31695918,0
                29.3394130610001,21.31989473,0
                29.4100500590001,21.317534385,0
                29.441562172,21.316481341,0
                29.578928992,21.3219114560001,0
                29.735672661,21.3220789110001,0
                29.867563325,21.327392478,0
                29.9152995960001,21.329315599,0
                30.049128072,21.347070123,0
                30.161829615,21.35951864,0
                30.255222379,21.367090433,0
                30.293905527,21.370226614,0
                30.411899782,21.372113911,0
                30.5298720340001,21.3951349330001,0
                30.5817937350001,21.4141363300001,0
                30.6372610940001,21.434435029,0
                30.695283739,21.5238756540001,0
                30.703955514,21.6489266830001,0
                30.702002023,21.8303231400001,0
                30.661382831,21.8843593130001,0
                30.6385080860001,21.914790742,0
                30.582002091,22.053861542,0
                30.5463282310001,22.12107324,0
                30.5184753790001,22.1735520010001,0
                30.4619494940001,22.3302346020001,0
                30.4579699560001,22.358179749,0
                30.4388806870001,22.4922356010001,0
                30.438711353,22.650739093,0
                30.4649852270001,22.784614892,0
                30.521156316,22.959028882,0
                30.5411823950001,22.9969533120001,0
                30.584431785,23.0788546250001,0
                30.684660858,23.2251379030001,0
                30.707775396,23.2436709190001,0
                30.763842858,23.288623897,0
                30.846568163,23.3345022500001,0
                30.9469216460001,23.3645488400001,0
                30.9815628270001,23.3740792890001,0
                31.0754504810001,23.3999091270001,0
                31.2497615980001,23.440601945,0
                31.3853438190001,23.463641786,0
                31.5455955960001,23.474379777,0
                31.677664066,23.4921324700001,0
                31.8273206800001,23.531037531,0
                31.8719872410001,23.541894776,0
                31.9364836230001,23.5575718370001,0
                31.9761903030001,23.5774780140001,0
                32.042097814,23.6105187590001,0
                32.1353451950001,23.696914964,0
                32.1492943540001,23.72451943,0
                32.2021277900001,23.829073002,0
                32.2688952710001,23.9753201770001,0
                32.296694964,24.025992742,0
                32.3655725940001,24.1515388500001,0
                32.396165153,24.2136409280001,0
                32.4376207390001,24.2977912110001,0
                32.4729841880001,24.383737771,0
                32.483293856,24.4087929570001,0
                32.550096932,24.521577882,0
                32.563344312,24.5435847590001,0
                32.611626733,24.623790371,0
                32.696153596,24.6291639450001,0
                32.701539585,24.5358284380001,0
                32.7060018240001,24.512540583,0
                32.715708922,24.4618754110001,0
                32.699969351,24.3579508170001,0
                32.700076596,24.2575650630001,0
                32.684331381,24.1589236130001,0
                32.6834900420001,24.1540860120001,0
                32.6720751330001,24.088464705,0
                32.663440059,24.028504608,0
                32.6563457600001,23.9792562960001,0
                32.6423856710001,23.857721767,0
                32.6336985830001,23.7467600300001,0
                32.637899867,23.7122562270001,0
                32.6461331850001,23.6446267100001,0
                32.664398572,23.6315065040001,0
                32.690198933,23.6129726610001,0
                32.716790304,23.610955726,0
                32.781788131,23.606025597,0
                32.8225406400001,23.624965441,0
                32.8539562010001,23.639565078,0
                32.9189837120001,23.7664373150001,0
                32.94481574,23.873634671,0
                32.959311961,23.933789996,0
                32.9995879470001,24.1504547700001,0
                33.015250822,24.3265866520001,0
                33.0150984210001,24.4692398550001,0
                33.014846302,24.7052343500001,0
                33.0081490100001,24.7677252190001,0
                33.0023915900001,24.8214568060001,0
                32.997420177,24.8645534,0
                32.988174337,24.944722595,0
                32.9790542590001,24.9972655220001,0
                32.9704496030001,25.046850362,0
                32.9368748910001,25.1524835120001,0
                32.903049212,25.2026506440001,0
                32.8716125780001,25.249277389,0
                32.929614056,25.358530506,0
                32.9637726490001,25.4196204240001,0
                32.9946486010001,25.474836301,0
                33.012361363,25.529275871,0
                33.0227372580001,25.561162543,0
                33.0362498740001,25.621664524,0
                33.0420159500001,25.647479789,0
                33.0512202030001,25.6966204130001,0
                33.064782349,25.769023836,0
                33.070601143,25.81106049,0
                33.0752670460001,25.8447644250001,0
                33.0840105790001,25.9028918560001,0
                33.0922474990001,25.918375101,0
                33.112135983,25.955756364,0
                33.136852203,25.976990222,0
                33.1613989620001,25.998076455,0
                33.204036436,25.9963458390001,0
                33.2459398560001,25.9946448000001,0
                33.353417317,25.9507307440001,0
                33.389674115,25.9111586490001,0
                33.409836924,25.889150839,0
                33.4449948710001,25.853353816,0
                33.4962301570001,25.801185419,0
                33.5552311370001,25.7437814250001,0
                33.566748046,25.732575911,0
                33.640811275,25.644597031,0
                33.659633722,25.626898495,0
                33.732483228,25.5583987270001,0
                33.741923935,25.5497471680001,0
                33.818861923,25.4792388870001,0
                33.9581436710001,25.340256788,0
                34.0603751510001,25.261114192,0
                34.1538064440001,25.176678683,0
                34.247247144,25.083437421,0
                34.3920039230001,24.7630622950001,0
                34.540166352,24.5518822700001,0
                34.6460385880001,24.3617908950001,0
                34.7201536690001,24.224500171,0
                34.9211731930001,23.992242784,0
                35.0378155340001,23.611958434,0
                35.154412719,23.2739417,0
                35.3237879760001,22.9888159270001,0
                35.482438286,22.851615515,0
                35.620039455,22.6351407490001,0
                35.7311217650001,22.513739892,0
                35.8634056160001,22.3289601920001,0
                35.9797996,22.1811477200001,0
                36.0644759400001,22.049151738,0
                36.106974977,21.8325753710001,0
                36.1653356580001,21.6054490340001,0
                36.2394394510001,21.4787252140001,0
                36.334643183,21.383724683,0
                36.4404194630001,21.2834519890001,0
                36.5514791960001,21.1831849390001,0
                36.6520284690001,21.0300720820001,0
                36.7472491340001,20.919221195,0
                36.7737905710001,20.8030134790001,0
                36.773948616,20.65507683,0
                36.6948435960001,20.517622417,0
                36.6368723840001,20.380190581,0
                36.621236518,20.1794024800001,0
                36.6742403690001,20.0209553720001,0
                36.7482820720001,19.9523495220001,0
                36.832856812,19.91545567,0
                37.017817135,19.8786690650001,0
                37.1393873260001,19.831247821,0
                37.2134177400001,19.773208874,0
                37.208292333,19.6252665800001,0
                37.2772142740001,19.4034349840001,0
                37.282638837,19.2713543350001,0
                37.3568322680001,19.0600950910001,0
                37.208839847,19.1127717590001,0
                36.981651421,19.1125290470001,0
                36.8178644160001,19.1123540680001,0
                36.6434709960001,19.1491519630001,0
                36.4690832210001,19.180666407,0
                36.289445861,19.1804744940001,0
                36.1098931670001,19.101030806,0
                35.967375437,18.974075563,0
                35.809007351,18.8471033860001,0
                35.6453275910001,18.7465428240001,0
                35.4340516090001,18.688199076,0
                35.106494533,18.671998763,0
                34.852832404,18.724562346,0
                34.683682925,18.798350048,0
                34.5726062590001,18.914467453,0
                34.45091189,19.078124636,0
                34.323871979,19.2998941430001,0
                34.2549951940001,19.4794581240001,0
                34.228391668,19.653783811,0
                34.1753878170001,19.8122309190001,0
                34.1012219350001,19.9970727080001,0
                34.005933536,20.1713250170001,0
                33.8207869450001,20.382465531,0
                33.6674483100001,20.493254329,0
                33.5881231550001,20.5618545340001,0
                33.456036861,20.5617134230001,0
                33.294035466,20.5386453680001,0
                33.1425802790001,20.5349612580001,0
                32.9664802720001,20.5206839050001,0
                32.8221374190001,20.4536059010001,0
                32.667291635,20.326637486,0
                32.558220713,20.2138071970001,0
                32.4737870860001,20.1186147540001,0
                32.4562847060001,20.016449204,0
                32.45635244,19.953047783,0
                32.484643739,19.8474088520001,0
                32.5058979620001,19.734717792,0
                32.5235922520001,19.65724598,0
                32.629408045,19.5199891240001,0
                32.7140298210001,19.4390665080001,0
                32.8303711240001,19.3405662540001,0
                32.9325855920001,19.2772739590001,0
                33.0489381830001,19.1682068010001,0
                33.189973223,19.034509875,0
                33.2675616870001,18.94301283,0
                33.352221093,18.8268672020001,0
                33.3981577650001,18.6895463750001,0
                33.3454737660001,18.5485978830001,0
                33.2715882270001,18.4710282340001,0
                33.1237644670001,18.365201154,0
                33.0040814870001,18.294627189,0
                32.8456795340001,18.1993557230001,0
                32.711050291,18.1067513830001,0
                32.536803628,18.006179532,0
                32.373092823,17.934677955,0
                32.196156456,17.8790126220001,0
                31.9848466080001,17.852369584,0
                31.7576497150001,17.860052049,0
                31.5436388740001,17.888882433,0
                31.363964824,17.923032957,0
                31.2476724410001,17.9757432970001,0
                31.0943958940001,18.028414125,0
                30.986065377,18.046790495,0
                30.7483044040001,18.051819945,0
                30.510540608,18.0594911220001,0
                30.272782455,18.0618788460001,0
                30.021818497,18.0616107340001,0
                29.7972661520001,18.066654296,0
                29.601767147,18.077012354,0
                29.3534505580001,18.071463613,0
                29.094567066,18.065903581,0
                28.782837767,18.0708540100001,0
                28.6375428440001,18.070698787,0
                28.357536833,18.0545492750001,0
                28.0273182760001,18.0568382220001,0
                27.842414397,18.04079031,0
                27.6178676970001,18.0405504190001,0
                27.43824727,18.0245081530001,0
                27.200500407,18.016328973,0
                26.991804062,18.016106017,0
                26.6563020520001,18.0183893190001,0
                26.4264803670001,18.0102186070001,0
                26.196653037,18.007331347,0
                26.027585403,18.0045089980001,0
                25.8505925910001,18.001678183,0
                25.721136734,18.0121067970001,0
                25.591700632,18.0040433300001,0
                25.528318966,17.9854835140001,0
                25.359383977,17.858500049,0
                25.232716601,17.731561739,0
                25.100754486,17.615184689,0
                24.9845524140001,17.5833598,0
                24.8366439870001,17.556784496,0
                24.635872819,17.5565700060001,0
                24.4456572660001,17.5669337090001,0
                24.276581166,17.572036537,0
                24.044109287,17.571788181,0
                23.8961726380001,17.5716301360001,0
                23.7746419590001,17.582067216,0
                23.7641804190001,17.4834314940001,0
                23.767772334,17.418272686,0
                23.7484561220001,17.3654174710001,0
                23.690424702,17.2843424550001,0
                23.639415306,17.2244087720001,0
                23.65532775,17.166307736,0
                23.692358949,17.1223184830001,0
                23.657205553,17.057118281,0
                23.593824828,17.037677891,0
                23.5216214170001,17.034078449,0
                23.4511923270001,17.018152834,0
                23.419574402,16.940628341,0
                23.423156911,16.8842752840001,0
                23.3756585260001,16.834912268,0
                23.35810911,16.776775484,0
                23.310595673,16.741501672,0
                23.2507692350001,16.6921254850001,0
                23.173320001,16.6532973860001,0
                23.1346311340001,16.6004214760001,0
                23.1346838150001,16.551109259,0
                23.168207766,16.493027038,0
                23.238689537,16.459640436,0
                23.2827333540001,16.4455982690001,0
                23.314460405,16.4209760270001,0
                23.340898361,16.401631593,0
                23.3743940890001,16.3699666310001,0
                23.3973436100001,16.318917723,0
                23.348085956,16.267791674,0
                23.274117631,16.2677126510001,0
                23.2106917510001,16.290539876,0
                23.1560640980001,16.32042111,0
                23.1049361670001,16.3714399140001,0
                23.0555957280001,16.3978044900001,0
                22.9798775420001,16.3871566830001,0
                22.937653201,16.3466050640001,0
                22.951802614,16.290263296,0
                22.9941116210001,16.25156314,0
                23.0293986040001,16.191721649,0
                23.0523311910001,16.156523097,0
                23.078831236,16.079060693,0
                23.0683264210001,16.020931435,0
                22.9855485800001,16.024365306,0
                22.9292463250001,15.9732317310001,0
                22.865843022,15.9749251480001,0
                22.846359358,16.0788123360001,0
                22.7706185930001,16.0892983360001,0
                22.7274740140001,16.138873346,0
                22.6332901530001,15.9779037710001,0
                22.5456958730001,15.828196446,0
                22.521018413,15.640089216,0
                22.48134056,15.520630403,0
                22.369995924,15.417017217,0
                22.306366773,15.361221577,0
                22.36220494,15.257786997,0
                22.3464273550001,15.122431528,0
                22.2270195730001,15.1143428660001,0
                22.211216472,15.002870655,0
                22.1396687610001,14.907261079,0
                22.0362341810001,14.851422913,0
                21.87700396,14.8592138980001,0
                21.7734418040001,14.922792019,0
                21.757426077,15.0103469520001,0
                21.7573070060001,15.121802153,0
                21.733330192,15.2093485820001,0
                21.804877904,15.304958157,0
                21.8048013590001,15.3766079280001,0
                21.948032862,15.440449706,0
                22.0195890790001,15.528098196,0
                22.04336177,15.631617826,0
                22.1308741780001,15.6874389820001,0
                22.2741907330001,15.6716699020001,0
                22.43814467,15.8997314000001,0
                22.5478904140001,16.0864736520001,0
                22.631844239,16.229328636,0
                22.574952136,16.256398797,0
                22.506192003,16.3267714420001,0
                22.530776615,16.393721505,0
                22.5888400210001,16.4448569620001,0
                22.53772338,16.4853088630001,0
                22.4637343590001,16.5046024960001,0
                22.3897923750001,16.4798673650001,0
                22.344038208,16.446356585,0
                22.2964664450001,16.4656784420001,0
                22.317498653,16.5608031510001,0
                22.3949516490001,16.5961089480001,0
                22.412474725,16.678901841,0
                22.4969817310001,16.7054094110001,0
                22.540946525,16.7653355690001,0
                22.5549416550001,16.8534081510001,0
                22.528477358,16.897408693,0
                22.4545071520001,16.8990908210001,0
                22.3928273700001,16.936009131,0
                22.3488550500001,16.883127576,0
                22.301328444,16.8601818180001,0
                22.2554783210001,16.916489719,0
                22.2184283060001,16.978090477,0
                22.190176519,17.046745247,0
                22.0844961940001,17.0571992610001,0
                21.9964461910001,17.0500605840001,0
                21.9699611990001,17.1134337830001,0
                21.959313391,17.189151969,0
                21.874734888,17.2295681210001,0
                21.837688637,17.2876465800001,0
                21.8693310210001,17.3422761150001,0
                21.8815706450001,17.425063363,0
                21.795225348,17.470761085,0
                21.7142124210001,17.470674537,0
                21.594467351,17.4582185410001,0
                21.465903358,17.4580811930001,0
                21.383134924,17.45270931,0
                21.231681618,17.447264051,0
                21.0785010280001,17.4101161990001,0
                20.9992624220001,17.397703478,0
                20.7844302720001,17.3710566770001,0
                20.65942621,17.335700079,0
                20.495714465,17.2650790770001,0
                20.391861143,17.2138947030001,0
                20.261594326,17.1591598040001,0
                20.141864308,17.132614604,0
                20.0080639,17.0884428460001,0
                19.8354805500001,17.079452707,0
                19.724520537,17.0863787760001,0
                19.6540255940001,17.132093431,0
                19.576437132,17.223590476,0
                19.4917777250001,17.3397361040001,0
                19.449384051,17.457688037,0
                19.4175760960001,17.558039755,0
                19.345193942,17.721749618,0
                19.299345701,17.776296368,0
                19.2393668620001,17.869573379,0
                19.1899662160001,17.9522947740001,0
                19.089443283,18.0807515220001,0
                18.9907097230001,18.1827928930001,0
                18.904321152,18.2689970800001,0
                18.796811943,18.3428506330001,0
                18.696384967,18.381488701,0
                18.562516825,18.4007183640001,0
                18.4233878110001,18.3988085770001,0
                18.275509487,18.3440548630001,0
                18.1663557800001,18.3087151990001,0
                17.965678687,18.2204431800001,0
                17.8354250410001,18.1533802270001,0
                17.7192549530001,18.0916157780001,0
                17.618910762,18.05276322,0
                17.4692844590001,17.985679571,0
                17.323178576,17.920360836,0
                17.222815569,17.8991197830001,0
                17.1066097350001,17.8708171960001,0
                16.921730316,17.831874326,0
                16.7650142530001,17.807050765,0
                16.611818612,17.7839921180001,0
                16.3987645460001,17.741496844,0
                16.212131502,17.6955074900001,0
                16.002580923,17.6706274850001,0
                15.8036104170001,17.633430714,0
                15.6539464840001,17.6015700770001,0
                15.518360467,17.5802913950001,0
                15.328201359,17.5378205810001,0
                15.190859835,17.5112565650001,0
                15.042987156,17.4512194000001,0
                14.926807662,17.3982607030001,0
                14.79654837,17.3364812030001,0
                14.6909376610001,17.281772646,0
                14.5589209820001,17.216468962,0
                14.3811313210001,17.1352660040001,0
                14.2192070670001,17.039990775,0
                14.076634773,16.9641088990001,0
                13.944648198,16.8706268060001,0
                13.802075905,16.79474493,0
                13.714089872,16.727727133,0
                13.6225514340001,16.688883983,0
                13.474618546,16.685203637,0
                13.3266743720001,16.6920901940001,0
                13.1716893560001,16.6954469240001,0
                12.9885334580001,16.691728948,0
                12.794803131,16.6950442850001,0
                12.660955685,16.6949012920001,0
                12.474258671,16.708791058,0
                12.234723375,16.726146682,0
                12.05861208,16.7224362320001,0
                11.9001010010001,16.7293115000001,0
                11.671136372,16.7431561110001,0
                11.4950137870001,16.750012564,0
                11.3118503630001,16.7533391910001,0
                11.0934375850001,16.781284296,0
                10.9031956920001,16.8163041070001,0
                10.7270317140001,16.861905872,0
                10.522674276,16.921566741,0
                10.392273872,16.991873534,0
                10.2196058550001,17.062135171,0
                10.053974914,17.1394489370001,0
                9.88480285700007,17.2343704460001,0
                9.65922882500007,17.3714993620001,0
                9.50765322200004,17.4805288900001,0
                9.39833394400006,17.6001704770001,0
                9.28902219200006,17.712767463,0
                9.24668684400007,17.7761237290001,0
                9.16568520600003,17.765470276,0
                9.14815272300007,17.691483137,0
                9.12751800000007,17.636425074,0
                9.04033681200002,17.640294528,0
                8.98620118800005,17.621744591,0
                8.94398014000006,17.578110958,0
                8.91102206700003,17.518636848,0
                8.87672619700004,17.4750116820001,0
                8.83051574900003,17.4564702110001,0
                8.77634908000005,17.466979259,0
                8.67206158600004,17.4100706740001,0
                8.64027903000004,17.486646858,0
                8.56894537600004,17.4931749720001,0
                8.54526438800002,17.404651755,0
                8.49640515900006,17.392711778,0
                8.44216793300006,17.469263972,0
                8.41833877800002,17.5194313640001,0
                8.40770978600005,17.577538045,0
                8.36802180800004,17.6356136810001,0
                8.34683720100003,17.6831421680001,0
                8.29529673400003,17.708183531,0
                8.27145346800006,17.771559552,0
                8.26081036400006,17.842874862,0
                8.30304270000005,17.8759415910001,0
                8.38893689200006,17.8403700150001,0
                8.40999732100005,17.909077466,0
                8.46539030900004,17.9870676470001,0
                8.45080437100006,18.0398866420001,0
                8.38733380600007,18.1045411920001,0
                8.33446118800003,18.140148047,0
                8.36741643900007,18.2022638830001,0
                8.34881852300003,18.3013088490001,0
                8.38969330800006,18.3687166030001,0
                8.46627513700003,18.395215707,0
                8.51252086200003,18.3807356030001,0
                8.57461976400003,18.363630707,0
                8.62475046700007,18.4218023,0
                8.61015606400002,18.482546472,0
                8.50709488700005,18.514137116,0
                8.35518294800005,18.5258626040001,0
                8.20721948700003,18.5508009550001,0
                8.00904347900007,18.594177765,0
                7.81220526800007,18.6217056290001,0
                7.60609984800004,18.669036561,0
                7.37884933300006,18.7269118190001,0
                7.09873043400006,18.816431342,0
                6.83970582900002,18.9429576050001,0
                6.53839667800003,19.0852890690001,0
                6.26349349600002,19.2382156570001,0
                6.02032489200008,19.359475402,0
                5.73484916200005,19.5176741540001,0
                5.56040494200005,19.6020231150001,0
                5.36478175900004,19.7286171120001,0
                5.19560970300006,19.8235386210001,0
                4.95767939500007,19.9870716250001,0
                4.69332618300007,20.155859858,0
                4.45016322300006,20.2718361510001,0
                4.17528826400007,20.398345481,0
                3.88986897800004,20.5037097160001,0
                3.59925090900003,20.529816528,0
                3.22408067800006,20.571683385,0
                2.92820737900007,20.5713672950001,0
                2.47383052700008,20.570881871,0
                2.31529875100006,20.597129796,0
                2.17799673800005,20.533581618,0
                2.26259405600007,20.4755539600001,0
                2.33661882500007,20.422798465,0
                2.44235559400005,20.359509933,0
                2.53223072000003,20.3067713720001,0
                2.56398223000002,20.2592541720001,0
                2.67502502900004,20.174837477,0
                2.72265511800003,20.1009199530001,0
                2.80728065700004,20.016475036,0
                2.81796609500003,19.9055338380001,0
                2.72821514800006,19.8420364610001,0
                2.62260820200004,19.783805602,0
                2.56983012900002,19.73091464,0
                2.54354269300006,19.6093670270001,0
                2.49608193900002,19.524780999,0
                2.41160315400003,19.471856169,0
                2.43813330300003,19.3662153560001,0
                2.41190231100006,19.191833225,0
                2.39616484500004,19.0861472570001,0
                2.38038222400007,19.0227289010001,0
                2.37526246200002,18.8695031560001,0
                2.32779041800006,18.7954840310001,0
                2.22748385700004,18.7214084620001,0
                2.12189384500005,18.6473272470001,0
                2.05311866000005,18.731789098,0
                2.06359525200003,18.816335614,0
                2.06349929600003,18.906154295,0
                2.03168569600007,19.0117894640001,0
                1.94717304600005,18.9905653450001,0
                1.83098226200002,18.9481735520001,0
                1.77275704800007,19.0484970470001,0
                1.78321106200002,19.1541773710001,0
                1.78837033500002,19.270418954,0
                1.78296270500005,19.3866492490001,0
                1.72477700300004,19.4499885810001,0
                1.59262297400005,19.5132488900001,0
                1.50268011600002,19.629388874,0
                1.47612739000004,19.7561634940001,0
                1.56064004100006,19.777387612,0
                1.61871849900007,19.814433864,0
                1.60277218800007,19.904235611,0
                1.49708057400005,19.925256528,0
                1.42309531600006,19.9410278610001,0
                1.32269279800005,19.956770971,0
                1.31201865100007,20.0571452660001,0
                1.45464362600006,20.083714926,0
                1.49683786200006,20.152444954,0
                1.43332919600005,20.252762804,0
                1.33296054500005,20.2368052040001,0
                1.22204192500004,20.2049859590001,0
                1.11101606000005,20.273552298,0
                1.15319336300007,20.3581326820001,0
                1.28523450100005,20.400541409,0
                1.42784818800004,20.4376779720001,0
                1.57575097000006,20.469536727,0
                1.67611397600007,20.490777779,0
                1.67071763500007,20.596441171,0
                1.36427743200005,20.5961137910001,0
                1.06844364400007,20.558813538,0
                0.820155278000072,20.526847538,0
                0.587745490000032,20.468481212,0
                0.334258338000041,20.3572577900001,0
                0.175941053000031,20.182734548,0
                0.0492793220000749,20.0505127860001,0
                -0.225138435999952,19.7490625230001,0
                -0.430882607999933,19.458252541,0
                -0.515265436999925,19.315509032,0
                -0.673588365999933,19.146269241,0
                -0.800261385999931,19.024614383,0
                -0.974451604999956,18.871208014,0
                -1.26482696299996,18.6701264020001,0
                -1.61330900099995,18.4584157960001,0
                -1.95125800199997,18.27841719,0
                -2.35260842499997,18.098350849,0
                -2.66953650799996,18.024043857,0
                -3.04983214599997,17.91796842,0
                -3.48298487999995,17.832970345,0
                -4.00074057599994,17.8112833800001,0
                -4.56080904099997,17.831818873,0
                -4.90957330199996,17.884280855,0
                -5.26894962299997,17.9789991640001,0
                -5.69177252099996,18.115917353,0
                -6.08289470799997,18.252869408,0
                -6.47403947299995,18.41095527,0
                -6.89700912699993,18.6852432050001,0
                -7.20365253099993,18.8751200890001,0
                -7.44680420199995,18.980529479,0
                -7.93309625399996,19.180781355,0
                -8.38763115099994,19.3282325800001,0
                -8.85278939699998,19.528507034,0
                -9.36020396799995,19.7181694290001,0
                -9.70904725199995,19.8445997370001,0
                -10.057867958,19.9498962370001,0
                -10.470056219,20.0234242930001,0
                -11.104251054,20.191817413,0
                -11.294556918,20.2867163440001,0
                -11.770383668,20.582081642,0
                -12.108671337,20.719090141,0
                -12.214216194,20.602741313,0
                -12.2034573789999,20.4231152420001,0
                -12.2877103829999,20.158852342,0
                -12.18191717,20.042729292,0
                -12.276861257,19.894691042,0
                -12.36123844,19.7466640810001,0
                -12.4986307639999,19.767651132,0
                -12.6679608659999,20.0105092900001,0
                -12.826633753,20.16884351,0
                -13.016962195,20.284876248,0
                -13.038344359,20.517325548,0
                -12.91171085,20.675964568,0
                -13.006971027,20.8237996170001,0
                -13.1443407739999,20.82365286,0
                -13.1974123589999,21.04550139,0
                -13.514306576,20.939493687,0
                -13.725464024,20.7701974510001,0
                -13.9470416189999,20.463520181,0
                -14.062916312,20.1252550890001,0
                -14.1261371099999,19.9561169,0
                -14.242068248,19.6706863260001,0
                -14.3370123349999,19.5226480760001,0
                -14.431978999,19.3957436330001,0
                -14.6008688329999,19.2264925530001,0
                -14.7592933629999,19.152354894,0
                -15.0128651809999,19.120383249,0
                -15.2981715769999,19.120078447,0
                -15.488409707,19.151575957,0
                -15.6152364549999,19.172574092,0
                -15.685396566,19.1970466940001,0
                -15.826645528,19.246317263,0
                -15.903550276,19.3460636300001,0
                -15.9324687939999,19.383573572,0
                -15.932762306,19.658313111,0
                -15.933089686,19.9647535180001,0
                -15.933371908,20.2289259080001,0
                -15.969205137,20.2944550390001,0
                -16.0604162779999,20.461262822,0
                -16.1303371459999,20.551951016,0
                -16.1662391139999,20.598519127,0
                -16.282678362,20.7885993100001,0
                -16.367348718,20.9153119060001,0
                -16.4309316549999,21.084314524,0
                -16.283039608,21.126740301,0
                -16.0928323099999,21.1269436050001,0
                -16.0174188949999,21.1625314840001,0
                -15.913289203,21.2116705890001,0
                -15.7762911199999,21.3337071220001,0
                -15.7232615619999,21.3809439410001,0
                -15.575503877,21.5501729900001,0
                -15.427791347,21.7616691470001,0
                -15.3117921529999,21.983698213,0
                -15.1815216049999,22.2013517020001,0
                -15.1535769279999,22.2480398050001,0
                -15.023950064,22.4615107270001,0
                -15.005899217,22.4912368780001,0
                -14.8265749509999,22.787301975,0
                -14.755797189,22.9648041470001,0
                -14.7211918589999,23.0515875410001,0
                -14.605226747,23.305317249,0
                -14.579191662,23.3727876500001,0
                -14.478769282,23.633026951,0
                -14.3417415709999,23.9501804390001,0
                -14.1942435309999,24.362447929,0
                -14.13729849,24.472835333,0
                -14.036071368,24.669057391,0
                -13.8672838109999,24.933410689,0
                -13.713160565,25.0764214800001,0
                -13.582252003,25.197887924,0
                -13.415226871,25.3143482520001,0
                -13.339400159,25.367218166,0
                -13.204397335,25.4484156230001,0
                -13.1281949799999,25.494246956,0
                -12.8007856479999,25.653100286,0
                -12.5729919739999,25.748915649,0
                -12.473365659,25.7908200270001,0
                -12.1247480939999,25.8757276440001,0
                -11.6703758969999,25.8762130750001,0
                -11.2688212039999,25.8766420690001,0
                -10.9412562819999,25.876992016,0
                -10.5714173809999,25.877387126,0
                -9.97966414499996,25.878019314,0
                -9.73662656499994,25.8782789580001,0
                -9.40905476999995,25.8786289120001,0
                -9.14488020099998,25.878911138,0
                -8.88070562999997,25.8791933630001,0
                -8.48972974099996,25.8796110550001,0
                -8.04592168599993,25.8800851880001,0
                -7.77118205699998,25.880378701,0
                -7.66048488999996,25.9042235630001,0
                -7.47537961299997,25.944095986,0
                -7.30790508999996,25.8675545770001,0
                -7.22164715499997,25.8281313570001,0
                -7.06305335199994,25.743765372,0
                -6.83046836999995,25.6383446880001,0
                -6.52394727499995,25.5647037850001,0
                -6.22454728899993,25.5738299110001,0
                -6.16468551399993,25.57565458,0
                -5.77370871399995,25.576072348,0
                -5.44615890599994,25.597555861,0
                -5.34420372899996,25.585431789,0
                -5.18195212199993,25.5661374470001,0
                -4.86489998299993,25.524208527,0
                -4.51616926599996,25.50344734,0
                -4.22026328499993,25.472062701,0
                -4.02128051499994,25.452379088,0
                -3.90322282799997,25.4407006810001,0
                -3.80302738399996,25.444386191,0
                -3.60735767199998,25.451583547,0
                -3.42740734899996,25.463023681,0
                -3.26924233799997,25.473078706,0
                -3.15484991399995,25.484096467,0
                -3.04735851099997,25.4944493960001,0
                -2.77267532699994,25.547577651,0
                -2.41353695299995,25.674764081,0
                -2.34143403599995,25.7124812910001,0
                -2.17063414299997,25.8018267420001,0
                -2.07509270299994,25.8497249320001,0
                -1.87491626599996,25.9500794480001,0
                -1.67530099899994,26.0668090410001,0
                -1.62147115799996,26.098287027,0
                -1.56550244599993,26.13234979,0
                -1.32578696599995,26.278240415,0
                -1.09350635599998,26.4581261230001,0
                -0.806837088999941,26.6736094840001,0
                -0.79787340799993,26.6803472300001,0
                -0.565525505999972,26.7968316270001,0
                -0.555119544999968,26.800421106,0
                -0.227505786999927,26.9134287950001,0
                -0.00719777799997701,26.960884519,0
                0.0682965300000546,26.97714632,0
                0.332470508000029,26.9774286210001,0
                0.565156415000047,27.0021732550001,0
                0.73396649600005,27.020125111,0
                1.01927232200006,27.0204299110001,0
                1.39361914700004,27.0714245230001,0
                1.41019084300007,27.0736819680001,0
                1.69542955400004,27.137388306,0
                2.01239138000005,27.179994562,0
                2.39274423100005,27.233235558,0
                2.69918492500005,27.233562937,0
                2.96335817400006,27.233845162,0
                3.15355821700007,27.23404835,0
                3.30160962900004,27.1285374060001,0
              </coordinates>
            </LinearRing>
          </outerBoundaryIs>
        </Polygon>
      </Placemark>
    </Document>
  </Document>
</kml>
