<?xml version="1.0" encoding="UTF-8"?>
<kml xmlns="http://www.opengis.net/kml/2.2">
  <Document id="root_doc">
    <Schema id="Bioregions_PA26.schema">
      <SimpleField name="OBJECTID" type="float"/>
      <SimpleField name="Shape_Leng" type="float"/>
      <SimpleField name="Shape_Area" type="float"/>
      <SimpleField name="Bioregions" type="string"/>
    </Schema>
    <Document id="Bioregions_PA26">
      <name>Bioregions_PA26</name>
      <Placemark id="Bioregions_PA26.1">
        <ExtendedData>
          <SchemaData schemaUrl="#Bioregions_PA26.schema">
            <SimpleData name="OBJECTID">113</SimpleData>
            <SimpleData name="Shape_Leng">124.67916154300</SimpleData>
            <SimpleData name="Shape_Area">376.07118354300</SimpleData>
            <SimpleData name="Bioregions">PA26</SimpleData>
          </SchemaData>
        </ExtendedData>
        <Polygon>
          <outerBoundaryIs>
            <LinearRing>
              <coordinates>
                42.784970833,36.9451155240001,0
                42.9171530830001,36.8554379550001,0
                43.1602991090001,36.7553120170001,0
                43.4667901120001,36.7080883300001,0
                43.6305996950001,36.6871295010001,0
                43.826121277,36.6556376360001,0
                44.0005237070001,36.6104061780001,0
                44.111597316,36.4971491680001,0
                44.164623437,36.31785797,0
                44.250244063,36.1700126220001,0
                44.381408648,36.1648692910001,0
                44.5557399800001,36.1861893660001,0
                44.856984206,36.104630437,0
                44.8994023220001,35.963799927,0
                44.910147857,35.796604614,0
                44.9937820310001,35.583901041,0
                45.084976983,35.351968433,0
                45.238268588,35.204103016,0
                45.362121023,35.084634689,0
                45.56097871,34.8928161310001,0
                45.642235838,34.745448959,0
                45.7356712870001,34.5759952930001,0
                45.725238948,34.4500262540001,0
                45.7149495260001,34.190280735,0
                45.7045858230001,34.0000651820001,0
                45.699528151,33.7887214670001,0
                45.7630763280001,33.6514194550001,0
                45.8530552280001,33.5015424800001,0
                45.9535458820001,33.4033004230001,0
                46.027649674,33.276576603,0
                45.8850077650001,33.2658572990001,0
                45.7052744490001,33.3554840670001,0
                45.7265493680001,33.22342035,0
                45.853521544,33.0650522650001,0
                46.0333733940001,32.8644730090001,0
                46.218345006,32.8171195,0
                46.355844575,32.695746865,0
                46.5303565290001,32.5479964830001,0
                46.667788364,32.49002527,0
                46.8792901240001,32.3370309470001,0
                47.0272493520001,32.316055185,0
                47.1963198080001,32.316235808,0
                47.328400458,32.3216603710001,0
                47.486949167,32.279562092,0
                47.6508547060001,32.168784583,0
                47.787792439,31.9470256500001,0
                47.9260514000001,31.7411185020001,0
                48.1006367310001,31.524683247,0
                48.105999206,31.4507205670001,0
                48.2012876050001,31.2764682590001,0
                48.301819945,31.1392057580001,0
                48.365379411,30.9913368420001,0
                48.3972438110001,30.838150607,0
                48.4712572920001,30.795962016,0
                48.5874311420001,30.8542041640001,0
                48.7616157160001,31.0128939840001,0
                48.7720584410001,31.129141212,0
                48.824774425,31.240150144,0
                48.9144519930001,31.3723323940001,0
                48.9804443400001,31.4199540160001,0
                49.406939177,30.9451051680001,0
                49.2689964200001,30.8549323,0
                49.0207532100001,30.7806986850001,0
                48.862323035,30.711844478,0
                48.709159378,30.65884627,0
                48.5348336920001,30.6322427440001,0
                48.4027248190001,30.6532354400001,0
                48.2230874590001,30.6530435280001,0
                48.0698673580001,30.652879838,0
                47.8902299980001,30.6526879260001,0
                47.7892092000001,30.620879256,0
                47.673653631,30.610188889,0
                47.6208981360001,30.536164119,0
                47.6157332180001,30.425205987,0
                47.7374185420001,30.270015523,0
                47.8379027650001,30.17779269,0
                47.9489462810001,30.092704128,0
                48.0757265450001,30.1139734020001,0
                48.228986159,30.0771529300001,0
                48.355845446,30.0244538790001,0
                48.4449793580001,29.925983968,0
                48.5143710560001,29.844649132,0
                48.57221531,29.776849193,0
                48.640555824,29.6967464620001,0
                48.692935295,29.660675446,0
                48.7683445010001,29.60874505,0
                48.867816304,29.5402439970001,0
                48.9080830550001,29.5125143820001,0
                48.971881124,29.468579972,0
                49.05429658,29.4560570740001,0
                49.1447473750001,29.4423132200001,0
                49.253331965,29.425813964,0
                49.289410419,29.383406973,0
                49.3315333260001,29.3338952670001,0
                49.408781162,29.2430973530001,0
                49.472552309,29.1681400780001,0
                49.5084438390001,29.083054836,0
                49.5518462690001,28.9801640900001,0
                49.597142988,28.872782699,0
                49.631149287,28.792166625,0
                49.63349787,28.73936826,0
                49.6369080790001,28.662703521,0
                49.694166221,28.584146332,0
                49.7354087370001,28.527562308,0
                49.772214154,28.4770659060001,0
                49.8465624250001,28.417010793,0
                49.9646478600001,28.3216268100001,0
                50.0680131180001,28.238133109,0
                50.0483584350001,28.2261060430001,0
                50.025996132,28.2114262200001,0
                49.9761618580001,28.172725434,0
                49.944903541,28.139419688,0
                49.924342407,28.1010122340001,0
                49.930602557,28.0488182070001,0
                49.9585268970001,28.0220231760001,0
                50.0302268980001,28.022626143,0
                50.1134455750001,28.0233259770001,0
                50.1648491170001,28.023758258,0
                50.2533999620001,28.0245029330001,0
                50.341328757,28.025242377,0
                50.3575180380001,27.9756848910001,0
                50.3808554410001,27.904246072,0
                50.446774888,27.7795467130001,0
                50.524113889,27.633245061,0
                50.6409120850001,27.5297623270001,0
                50.8264721190001,27.365356879,0
                50.9896289960001,27.2208005410001,0
                51.228698582,27.173661447,0
                51.5123442180001,27.1177329700001,0
                51.7131258160001,27.0781433980001,0
                51.908124915,26.910961953,0
                52.0542903800001,26.7856477650001,0
                52.1413207860001,26.7110327070001,0
                52.380176336,26.5062511670001,0
                52.53127564,26.3767069780001,0
                52.6935550250001,26.2375776060001,0
                52.803649254,26.0278311610001,0
                52.9335954260001,25.7802637130001,0
                53.029134728,25.5982466460001,0
                53.2951926430001,25.6243893130001,0
                53.4998065300001,25.6444945320001,0
                53.733640221,25.66747087,0
                53.9878985620001,25.6924541180001,0
                54.193530256,25.7126593460001,0
                54.362442194,25.7292565160001,0
                54.5714417460001,25.760330292,0
                54.76836839,25.867509985,0
                54.777638745,25.9225436410001,0
                54.7879235140001,25.9745678940001,0
                54.799181994,26.023654621,0
                54.8113734790001,26.0698756960001,0
                54.8244572130001,26.113302837,0
                54.8383925360001,26.154008096,0
                54.868655136,26.227540473,0
                54.893538204,26.2765358820001,0
                54.9199539700001,26.3200290820001,0
                54.947760907,26.3582699830001,0
                54.9768174860001,26.39150849,0
                55.0381129830001,26.443977616,0
                55.1027086810001,26.47943629,0
                55.1648033770001,26.4989102060001,0
                55.2278633280001,26.506991661,0
                55.2781630760001,26.506353475,0
                55.328034953,26.5003268730001,0
                55.377017907,26.4897259790001,0
                55.424650881,26.4753649150001,0
                55.471182442,26.457764001,0
                55.515361727,26.4379763310001,0
                55.5567053980001,26.416855377,0
                55.5947301140001,26.3952546150001,0
                55.6495353440001,26.3604247230001,0
                55.6914727820001,26.3306182050001,0
                55.7277277040001,26.301996597,0
                55.899311164,26.406338975,0
                55.9828839190001,26.4621784400001,0
                56.1102709460001,26.547292585,0
                56.242442,26.665662078,0
                56.3908679830001,26.696187176,0
                56.5890919710001,26.73695367,0
                56.7377282740001,26.767522022,0
                56.748894368,26.7080371050001,0
                56.7745695670001,26.57125812,0
                56.786409201,26.426533459,0
                56.800187877,26.25810642,0
                56.8155767330001,26.129257313,0
                56.8370224560001,25.9496947370001,0
                56.8355180790001,25.888742144,0
                56.8317138450001,25.734606566,0
                56.917238459,25.5982137410001,0
                57.0175190240001,25.438288442,0
                57.114421673,25.2837501710001,0
                57.2179874990001,25.118585608,0
                57.330853179,25.041211866,0
                57.507483112,24.9201252880001,0
                57.677131681,24.803824702,0
                57.7261518380001,24.8097268120001,0
                57.7748392010001,24.8148154130001,0
                57.8231638180001,24.8191201110001,0
                57.8710957380001,24.822670514,0
                57.9304867430001,24.826096496,0
                57.9891569800001,24.8284453470001,0
                58.0470477260001,24.829775108,0
                58.1041002650001,24.830143822,0
                58.189801242,24.8289758240001,0
                58.273182739,24.825894738,0
                58.3310221360001,24.822650117,0
                58.3875019800001,24.818617101,0
                58.442545899,24.8138711770001,0
                58.4960775260001,24.8084878290001,0
                58.5490434870001,24.8024183220001,0
                58.600275502,24.7958442660001,0
                58.6496925210001,24.788845773,0
                58.6972134980001,24.781502953,0
                58.7721429750001,24.7686880790001,0
                58.8411780930001,24.7555093570001,0
                58.903941097,24.742340171,0
                58.960054234,24.729553905,0
                59.0350055040001,24.710838853,0
                59.090452971,24.695582213,0
                59.1366629940001,24.6815462700001,0
                59.3029512900001,24.613581181,0
                59.5126845840001,24.5278593200001,0
                59.6433594370001,24.406146085,0
                59.7972079900001,24.262848391,0
                60.093678991,24.1373008260001,0
                60.3615195460001,24.0238774910001,0
                60.4212557920001,23.9961037910001,0
                60.4802260910001,23.9683898970001,0
                60.538435115,23.9407383760001,0
                60.5958875330001,23.913151796,0
                60.6347345840001,23.8942882150001,0
                60.673263897,23.8755239710001,0
                60.749245086,23.838029051,0
                60.8238430580001,23.8006736090001,0
                60.89706977,23.763464217,0
                60.9651254410001,23.7283865580001,0
                61.0319735400001,23.693451198,0
                61.0976242040001,23.6586637080001,0
                61.162087571,23.6240296620001,0
                61.2146271390001,23.595442565,0
                61.2663637270001,23.566967892,0
                61.3173031090001,23.5386088170001,0
                61.3674510590001,23.510368514,0
                61.4107785190001,23.4856225190001,0
                61.4535759920001,23.461097099,0
                61.495704828,23.436546472,0
                61.537311662,23.412218539,0
                61.5830081820001,23.38512202,0
                61.627975948,23.3581561400001,0
                61.7157469150001,23.3046282290001,0
                61.7557246050001,23.279753902,0
                61.795162942,23.2551289040001,0
                61.8339121880001,23.2305095770001,0
                61.8721273740001,23.2061362540001,0
                61.934679934,23.1655380670001,0
                61.9955609140001,23.1253197680001,0
                62.054791048,23.0854927550001,0
                62.1123910690001,23.046068425,0
                62.165712812,23.008933546,0
                62.217594825,22.9721835190001,0
                62.2680549780001,22.9358281670001,0
                62.317111142,22.899877314,0
                62.378979911,22.853637131,0
                62.438532911,22.8081227430001,0
                62.495809728,22.7633559080001,0
                62.550849944,22.7193583860001,0
                62.5895725030001,22.6877937510001,0
                62.6271437080001,22.656657615,0
                62.6635788730001,22.625958401,0
                62.6988933200001,22.5957045280001,0
                62.733102364,22.565904416,0
                62.7662213230001,22.536566486,0
                62.8292502580001,22.4793108490001,0
                62.8821460130001,22.429689674,0
                62.9317803220001,22.381680536,0
                62.9782411910001,22.335331812,0
                63.0216166290001,22.290691882,0
                63.0551625630001,22.2551614980001,0
                63.086715186,22.2208558940001,0
                63.1440385600001,22.1560279080001,0
                63.1828146190001,22.1100402050001,0
                63.2174658500001,22.067195397,0
                63.2481685330001,22.0275903880001,0
                63.275098949,21.9913220820001,0
                63.322549671,21.922821346,0
                63.3540066260001,21.8725529320001,0
                63.3768107380001,21.8310400930001,0
                63.3734330940001,21.7077243690001,0
                63.3616070840001,21.636766079,0
                63.343711414,21.5604577760001,0
                63.3102290160001,21.4482314470001,0
                63.267627836,21.3287825570001,0
                63.2325258210001,21.2403691220001,0
                63.1939674810001,21.149728892,0
                63.1608157210001,21.0757080010001,0
                63.125991324,21.0009388510001,0
                63.0798421320001,20.905585194,0
                63.031910839,20.810146715,0
                62.9910818060001,20.731210957,0
                62.9496612290001,20.653006309,0
                62.8923313650001,20.547429208,0
                62.835185177,20.444837035,0
                62.7834244650001,20.3538956840001,0
                62.7330413710001,20.266989715,0
                62.6701246630001,20.1604947770001,0
                62.6118894430001,20.063783906,0
                62.568233127,19.9924026480001,0
                62.529413827,19.9297283710001,0
                62.459503017,19.818879214,0
                62.433789206,19.7789528340001,0
                62.408989379,19.7191749130001,0
                62.384177886,19.6605542780001,0
                62.3345524910001,19.546743339,0
                62.2980908660001,19.4659344730001,0
                62.261682787,19.387528203,0
                62.207602895,19.2751147910001,0
                62.1537849920001,19.167850447,0
                62.1000021190001,19.06504076,0
                62.0466581650001,18.967219282,0
                62.0009153440001,18.8865044510001,0
                61.9556230360001,18.8093702890001,0
                61.9076916980001,18.7306697830001,0
                61.860410969,18.6559033410001,0
                61.813242087,18.584073803,0
                61.7668843930001,18.516100045,0
                61.721153014,18.4515341360001,0
                61.6763884480001,18.390681747,0
                61.633525331,18.334555885,0
                61.5917304050001,18.2818191330001,0
                61.5302886060001,18.207818296,0
                61.4717283570001,18.1411627310001,0
                61.414059912,18.079210328,0
                61.3600579860001,18.024538342,0
                61.2854645730001,17.954454845,0
                61.1999025850001,17.8822824810001,0
                61.113046657,17.819504529,0
                61.0822513260001,17.8009269040001,0
                61.0359805570001,17.661974204,0
                60.969101483,17.526148188,0
                60.8975760980001,17.409640762,0
                60.805171998,17.2751985680001,0
                60.682948911,17.1078850010001,0
                60.605436764,17.0062982330001,0
                60.4921188660001,16.8867607490001,0
                60.369860696,16.75228666,0
                60.2445916020001,16.64169264,0
                60.125286944,16.5370758130001,0
                60.008951746,16.447389211,0
                59.862787993,16.3337874580001,0
                59.73151619,16.253041131,0
                59.633058352,16.1962131450001,0
                59.558467825,16.1543377090001,0
                59.507824342,16.052779646,0
                59.4512036670001,15.957186017,0
                59.39755883,15.8705518,0
                59.3260238770001,15.763000596,0
                59.2515035160001,15.6554462030001,0
                59.1411869730001,15.520984873,0
                59.0666474750001,15.431342923,0
                58.9861371640001,15.341694594,0
                58.9086026910001,15.261005675,0
                58.8101863150001,15.165367395,0
                58.7117603710001,15.0786853380001,0
                58.6073636130001,14.9919969010001,0
                58.514886157,14.926219071,0
                58.404512206,14.845495069,0
                58.3030785280001,14.779707672,0
                58.198659444,14.713917086,0
                58.0822955420001,14.6510991480001,0
                57.96592845,14.5912666190001,0
                57.8346311330001,14.534403549,0
                57.7003484090001,14.47753729,0
                57.5976840440001,14.443511071,0
                57.4731764430001,14.402575515,0
                57.428406312,14.545918758,0
                57.3713475640001,14.7286072100001,0
                57.3285904700001,14.865505189,0
                57.274501635,15.03868469,0
                57.2301849180001,15.1805762120001,0
                57.186722515,15.3197324240001,0
                57.145374905,15.452117571,0
                57.1019145060001,15.591267364,0
                57.0515022490001,15.7526753450001,0
                56.9930322690001,15.9398822210001,0
                56.9487142900001,16.0817777820001,0
                56.8857125420001,16.2834942960001,0
                56.8218540670001,16.4879538480001,0
                56.767766355,16.6611297530001,0
                56.7190672390001,16.817052667,0
                56.662007218,16.9997451940001,0
                56.6033869710001,17.18743319,0
                56.5440619440001,17.377377725,0
                56.4729889770001,17.604936353,0
                56.443769251,17.8091767820001,0
                56.40380793,18.088498959,0
                56.260463734,18.1301415680001,0
                56.1290994390001,18.135972049,0
                56.008433198,18.1289991400001,0
                55.871098046,18.1006740490001,0
                55.783025292,18.1111467050001,0
                55.677345841,18.118078683,0
                55.5928608850001,18.072198427,0
                55.5259374710001,18.0721269310001,0
                55.3886248970001,18.0226672260001,0
                55.311180558,17.973272625,0
                55.2619391000001,17.906296528,0
                55.2057209970001,17.7829550880001,0
                55.2233991910001,17.7195723500001,0
                55.1952640440001,17.673752295,0
                55.195380695,17.5645619420001,0
                55.195471007,17.480025777,0
                55.1603102940001,17.42363147,0
                55.0934357990001,17.3777700270001,0
                55.0054361780001,17.32836415,0
                54.896263005,17.303591012,0
                54.7343014800001,17.2470612390001,0
                54.6603282840001,17.2505052240001,0
                54.5581651350001,17.2680065600001,0
                54.4806509360001,17.2925802550001,0
                54.3714514220001,17.292463594,0
                54.2763531030001,17.2923619970001,0
                54.1671401740001,17.313378814,0
                54.033312159,17.2956253620001,0
                53.980540987,17.239211095,0
                53.9030891210001,17.1968613650001,0
                53.8432832190001,17.129873982,0
                53.7482338190001,17.0839824400001,0
                53.6778467870001,17.0240274870001,0
                53.6462157890001,16.9570702030001,0
                53.582872647,16.9076895210001,0
                53.43141912,16.9040058520001,0
                53.2940334130001,16.9144258260001,0
                53.167300335,16.850888809,0
                53.026482748,16.7802930120001,0
                52.9384626770001,16.7414527130001,0
                52.836318342,16.7413435890001,0
                52.7553442870001,16.7025119640001,0
                52.6497379680001,16.649565409,0
                52.5159287700001,16.614199205,0
                52.5160228440001,16.5261411770001,0
                52.463216167,16.4943845230001,0
                52.3470701100001,16.409725324,0
                52.269695142,16.3039729070001,0
                52.171200937,16.180587448,0
                52.1396075700001,16.0784069530001,0
                52.171475635,15.9234593790001,0
                52.0949536300001,15.894106618,0
                51.956643463,15.8950514960001,0
                51.9708333340001,15.803486659,0
                52.080087657,15.7437236220001,0
                52.115383836,15.6733159720001,0
                52.0414461460001,15.6521023440001,0
                51.9252586960001,15.606188219,0
                51.826719337,15.525069697,0
                51.7316419580001,15.496790896,0
                51.6541879690001,15.4650056200001,0
                51.5908582390001,15.39449375,0
                51.4816791760001,15.383810365,0
                51.4077699530001,15.327374661,0
                51.319747756,15.2991011070001,0
                51.2633887850001,15.2990408970001,0
                51.1611654260001,15.3729012040001,0
                51.034342037,15.3938992080001,0
                50.798345473,15.390124073,0
                50.625781875,15.3688062250001,0
                50.4426446690001,15.3474770820001,0
                50.185545561,15.319022897,0
                49.97071715,15.28709315,0
                49.741804234,15.2481023330001,0
                49.488270341,15.1844309960001,0
                49.2664222560001,15.127837245,0
                49.0375222640001,15.085325719,0
                48.875559104,15.0217499190001,0
                48.6854038600001,14.982800507,0
                48.491715625,14.9403265980001,0
                48.3086160510001,14.8837742430001,0
                48.1712997130001,14.8378375460001,0
                48.06569176,14.777844965,0
                47.9847515700001,14.707314282,0
                47.935553143,14.608635701,0
                47.9250886630001,14.506477779,0
                47.8828744080001,14.4571196700001,0
                47.822966905,14.4852351870001,0
                47.7348715750001,14.5168413110001,0
                47.6467741160001,14.5590164700001,0
                47.470622721,14.594049243,0
                47.435498001,14.4953879890001,0
                47.54125271,14.418010732,0
                47.5941835670001,14.333531018,0
                47.6541023560001,14.2948510580001,0
                47.692875573,14.26318995,0
                47.724690953,14.157556475,0
                47.661317706,14.136355279,0
                47.5485997650001,14.1362348590001,0
                47.414779278,14.1114353900001,0
                47.309160035,14.062009543,0
                47.2140955830001,14.0302077440001,0
                47.118965524,14.051239606,0
                47.037910321,14.0969430110001,0
                46.893459783,14.1249659160001,0
                46.7631104380001,14.1530061780001,0
                46.6116531490001,14.1528443720001,0
                46.516545668,14.1527427660001,0
                46.4461038270001,14.1526675100001,0
                46.3686068060001,14.1525847180001,0
                46.2558453440001,14.2017772610001,0
                46.1825950740001,14.2232356530001,0
                46.0585860040001,14.208610258,0
                45.885979375,14.2189926040001,0
                45.818991989,14.2788007950001,0
                45.7273217860001,14.363239123,0
                45.6849871160001,14.426594375,0
                45.600393033,14.482860745,0
                45.5299587170001,14.475741763,0
                45.4948807920001,14.3418550170001,0
                45.516122566,14.236210246,0
                45.351454839,13.994029949,0
                45.283619727,14.264139082,0
                45.2835519920001,14.3275417790001,0
                45.283424052,14.447298866,0
                45.248112819,14.531797403,0
                45.17057228,14.5810252840001,0
                45.0016233090001,14.461087568,0
                44.9098402170001,14.6511932400001,0
                44.853385044,14.749758948,0
                44.7828738320001,14.806040362,0
                44.7616621600001,14.883507939,0
                44.6981743870001,14.9609303500001,0
                44.691053111,15.0313692460001,0
                44.7085845490001,15.1053552000001,0
                44.8176958780001,15.179441282,0
                44.8105520240001,15.271013646,0
                44.7117847580001,15.4118011370001,0
                44.725671956,15.5949736740001,0
                44.6691490490001,15.7569409330001,0
                44.6197006290001,15.8836902080001,0
                44.5280605300001,15.939949051,0
                44.429427096,15.946888557,0
                44.3378095740001,15.982013931,0
                44.274329327,16.0523926160001,0
                44.1686439870001,16.073413202,0
                44.154469168,16.1508882960001,0
                44.0980349380001,16.2212745090001,0
                44.013455907,16.2634522810001,0
                43.9992434580001,16.376150587,0
                43.9568862100001,16.4606404520001,0
                43.8862599820001,16.6331582450001,0
                43.9425307670001,16.707186732,0
                43.9494676580001,16.809340885,0
                44.0128312530001,16.8481536960001,0
                44.1219237670001,16.9398502390001,0
                44.181756008,16.98218229,0
                44.181658171,17.0737621820001,0
                44.2167887800001,17.1583348290001,0
                44.2131913310001,17.2322993560001,0
                44.1462001830001,17.295629411,0
                44.061624916,17.334284176,0
                43.952385645,17.37995747,0
                43.8677727470001,17.453835446,0
                43.909979478,17.510237282,0
                43.976876551,17.534965255,0
                44.0402159320001,17.587866654,0
                44.0260690900001,17.6477312970001,0
                43.9626227100001,17.686408634,0
                43.888619411,17.718030959,0
                43.8005482940001,17.735548495,0
                43.779346274,17.795404456,0
                43.751107399,17.855254045,0
                43.7193635130001,17.8939652500001,0
                43.6488673530001,17.9361569230001,0
                43.571334339,17.978342223,0
                43.5043582440001,18.0275825360001,0
                43.419722768,18.122595125,0
                43.380891472,18.200043878,0
                43.3139078500001,18.256329061,0
                43.27207221,18.298552498,0
                43.2151728160001,18.358370322,0
                43.1375984090001,18.439300696,0
                43.0952863150001,18.481523625,0
                43.0036876080001,18.499037393,0
                42.901528222,18.513016866,0
                42.8099746720001,18.488262551,0
                42.75707392,18.544563925,0
                42.7957020150001,18.657318683,0
                42.8273254870001,18.7313208370001,0
                42.8483377210001,18.8405349060001,0
                42.8341457240001,18.9426664870001,0
                42.81293994,19.006045456,0
                42.841014881,19.108222192,0
                42.8408944660001,19.2209355520001,0
                42.8020556440001,19.3054291760001,0
                42.7597360250001,19.35469583,0
                42.735000524,19.42863892,0
                42.660910679,19.5412732560001,0
                42.611545044,19.590532382,0
                42.5516262530001,19.6292134880001,0
                42.5621079100001,19.706716068,0
                42.5831368340001,19.8088852760001,0
                42.5830465230001,19.893420296,0
                42.5759252460001,19.963859192,0
                42.558258342,20.0166740490001,0
                42.561292028,20.075893906,0
                42.4814225320001,20.0837949130001,0
                42.3950304480001,20.0219892000001,0
                42.301076445,20.065712305,0
                42.2481810940001,20.125534406,0
                42.184723424,20.1747796230001,0
                42.075476629,20.227496644,0
                42.0085118200001,20.266171367,0
                41.9816319710001,20.280364122,0
                41.9555659150001,20.364738534,0
                41.9061777000001,20.4351322740001,0
                41.849835419,20.4280272020001,0
                41.7829232930001,20.417388972,0
                41.746440438,20.475045622,0
                41.649053887,20.438379448,0
                41.582032634,20.529887843,0
                41.5397054900001,20.5861993680001,0
                41.4797813000001,20.6213586000001,0
                41.3952248460001,20.6424029040001,0
                41.3142395030001,20.6141368680001,0
                41.2331918240001,20.652796546,0
                41.2120199080001,20.6844741670001,0
                41.173209064,20.751356195,0
                41.14146894,20.786545538,0
                41.095633021,20.8252416880001,0
                41.0850234210001,20.8674984850001,0
                41.0673602790001,20.91679148,0
                41.0285703750001,20.9554963030001,0
                41.0073699910001,21.0223971450001,0
                40.9896692200001,21.1069133510001,0
                40.96493372,21.1808552960001,0
                40.9367044970001,21.2230932690001,0
                40.883850539,21.244170296,0
                40.80282004,21.2581723430001,0
                40.700675704,21.2580632190001,0
                40.640741862,21.310834067,0
                40.580796729,21.3741716490001,0
                40.513811472,21.423411952,0
                40.467909455,21.5325545360001,0
                40.5030250120001,21.631216925,0
                40.52759494,21.712256424,0
                40.5380389680001,21.824981071,0
                40.5238394460001,21.9341575220001,0
                40.4709650350001,21.9658012740001,0
                40.330102293,21.9374724150001,0
                40.217393515,21.937352004,0
                40.1187676060001,21.937246639,0
                40.0060926940001,21.905426026,0
                39.9181064900001,21.8348855250001,0
                39.8300751290001,21.806613106,0
                39.791392226,21.7537369020001,0
                39.7844139420001,21.6903289690001,0
                39.696397634,21.647966807,0
                39.671842757,21.552838712,0
                39.671929305,21.4718255550001,0
                39.672064773,21.345022452,0
                39.647498608,21.26046109,0
                39.6405407760001,21.186485287,0
                39.6441307000001,21.1195656310001,0
                39.612541095,21.0138621290001,0
                39.6724824630001,20.9540475540001,0
                39.767646389,20.9013143440001,0
                39.7959078420001,20.8203312860001,0
                39.810116528,20.7111548440001,0
                39.8629930650001,20.668944348,0
                39.9616528400001,20.637348365,0
                39.9899255820001,20.5457985730001,0
                40.0005744470001,20.4753645920001,0
                40.0534810880001,20.4049746100001,0
                40.134496535,20.405061162,0
                40.2402211410001,20.355862245,0
                40.3388868050001,20.3101776550001,0
                40.4104013580001,20.3439150880001,0
                40.476302618,20.2715781970001,0
                40.532669114,20.2645946800001,0
                40.6242264270001,20.2858259870001,0
                40.7546435040001,20.194385319,0
                40.7194790280001,20.1415128740001,0
                40.733642558,20.074604515,0
                40.7688634790001,20.0746421420001,0
                40.8710078140001,20.0747512660001,0
                40.895735787,20.0078541930001,0
                40.9627457510001,19.9269125320001,0
                41.0191875080001,19.8494814480001,0
                41.0369146200001,19.7403099100001,0
                41.1250325290001,19.6875691720001,0
                41.1673935410001,19.599556298,0
                41.1639336850001,19.536150978,0
                41.2591465290001,19.437628967,0
                41.3367096470001,19.367265327,0
                41.2980213440001,19.3108672500001,0
                41.266410799,19.233342097,0
                41.280602796,19.1312105170001,0
                41.368735757,19.064381181,0
                41.393475019,18.986917373,0
                41.4851075930001,18.9377022580001,0
                41.4992770120001,18.856705291,0
                41.425365662,18.8108363310001,0
                41.446569809,18.7404124810001,0
                41.4466751730001,18.641787718,0
                41.404868191,18.562844071,0
                41.131986537,18.5963641910001,0
                40.91865842,18.622568899,0
                40.471184497,18.677535511,0
                40.034028107,18.731234742,0
                39.6230291200001,18.7817208610001,0
                39.1832938910001,18.8357368700001,0
                38.90493488,18.869929816,0
                38.5744434310001,18.910526584,0
                38.290925778,18.945353206,0
                37.9188002240001,18.991064207,0
                37.6404411230001,19.025257163,0
                37.3568322680001,19.0600950910001,0
                37.282638837,19.2713543350001,0
                37.2772142740001,19.4034349840001,0
                37.208292333,19.6252665800001,0
                37.2134177400001,19.773208874,0
                37.1393873260001,19.831247821,0
                37.017817135,19.8786690650001,0
                36.832856812,19.91545567,0
                36.7482820720001,19.9523495220001,0
                36.6742403690001,20.0209553720001,0
                36.621236518,20.1794024800001,0
                36.6368723840001,20.380190581,0
                36.6948435960001,20.517622417,0
                36.773948616,20.65507683,0
                36.7737905710001,20.8030134790001,0
                36.7472491340001,20.919221195,0
                36.6520284690001,21.0300720820001,0
                36.5514791960001,21.1831849390001,0
                36.4404194630001,21.2834519890001,0
                36.334643183,21.383724683,0
                36.2394394510001,21.4787252140001,0
                36.1653356580001,21.6054490340001,0
                36.106974977,21.8325753710001,0
                36.0644759400001,22.049151738,0
                35.9797996,22.1811477200001,0
                35.8634056160001,22.3289601920001,0
                35.7311217650001,22.513739892,0
                35.620039455,22.6351407490001,0
                35.482438286,22.851615515,0
                35.3237879760001,22.9888159270001,0
                35.154412719,23.2739417,0
                35.0378155340001,23.611958434,0
                34.9211731930001,23.992242784,0
                34.7201536690001,24.224500171,0
                34.6460385880001,24.3617908950001,0
                34.540166352,24.5518822700001,0
                34.3920039230001,24.7630622950001,0
                34.247247144,25.083437421,0
                34.1538064440001,25.176678683,0
                34.0603751510001,25.261114192,0
                33.9581436710001,25.340256788,0
                34.10602161,25.396771917,0
                33.9894918360001,25.6713869380001,0
                33.8201411860001,25.935379169,0
                33.711736155,26.090852151,0
                33.650807387,26.17823709,0
                33.624492075,26.2743242080001,0
                33.587160661,26.410641345,0
                33.4987684390001,26.575946496,0
                33.4177482690001,26.7274678090001,0
                33.3436216220001,26.8753254150001,0
                33.2166273760001,27.0548273050001,0
                33.0689026540001,27.25749402,0
                33.0473094810001,27.287118375,0
                33.03268933,27.3191910790001,0
                32.9413911240001,27.519477549,0
                32.8565288560001,27.8258273590001,0
                32.7818974790001,27.949912818,0
                32.7295012320001,28.037029869,0
                32.560229604,28.227053805,0
                32.3380850730001,28.4487216210001,0
                32.327350681,28.607213702,0
                32.339631168,28.6648330630001,0
                32.3588900870001,28.7551842890001,0
                32.36589451,28.9129726470001,0
                32.369211385,28.9876675410001,0
                32.3689968950001,29.188438874,0
                32.252568722,29.367952046,0
                32.2100984150001,29.558111018,0
                32.267790984,29.6609356720001,0
                32.305017772,29.727283089,0
                32.312107455,29.7701010540001,0
                32.326018586,29.854108378,0
                32.359122051,29.914956578,0
                32.3892930160001,29.970412068,0
                32.4637448290001,29.99913852,0
                32.526608437,30.0233934410001,0
                32.5346683650001,30.121394663,0
                32.5370383060001,30.150207542,0
                32.579125128,30.319323121,0
                32.6005524030001,30.4415051880001,0
                32.610634648,30.498994284,0
                32.6202124800001,30.5355503420001,0
                32.6632536170001,30.699822012,0
                32.7053291500001,30.8795045250001,0
                32.698935513,31.0467724270001,0
                32.6967297850001,31.1044926010001,0
                32.719811065,31.2923999930001,0
                32.7284734080001,31.3629311060001,0
                32.738025228,31.4406978710001,0
                32.7714247170001,31.7126080530001,0
                32.77513774,31.742835417,0
                32.804024193,31.977979249,0
                32.822146592,32.125544529,0
                32.8350207400001,32.2303621,0
                32.8709691230001,32.5230191960001,0
                32.890473249,32.681796074,0
                32.9165061570001,32.893718673,0
                33.017674443,32.8432477640001,0
                33.067491911,32.801635043,0
                33.1687206120001,32.7170783240001,0
                33.269949313,32.632521604,0
                33.334689541,32.5059909840001,0
                33.410023761,32.3587550870001,0
                33.48105702,32.219925141,0
                33.5424949380001,32.0760177010001,0
                33.6081922320001,31.9221334270001,0
                33.7144768310001,31.816895045,0
                33.8313292170001,31.7011929010001,0
                33.950819408,31.5828789170001,0
                34.0463950130001,31.488244115,0
                34.1207249490001,31.4146458500001,0
                34.263417657,31.377814089,0
                34.416485358,31.5206309760001,0
                34.5273306010001,31.6211350930001,0
                34.6858905980001,31.56846991,0
                34.839116344,31.563350148,0
                34.9079084620001,31.463037942,0
                35.0611398520001,31.4526347280001,0
                35.182574576,31.5320163270001,0
                35.272257789,31.6589151260001,0
                35.3301951350001,31.828047671,0
                35.3775373560001,32.023586187,0
                35.4302702730001,32.118744764,0
                35.456506909,32.287843443,0
                35.456371442,32.4146462850001,0
                35.5089011580001,32.7000091260001,0
                35.6409761630001,32.710717141,0
                35.6569563410001,32.5892146840001,0
                35.6255434990001,32.319724777,0
                35.6416083440001,32.118970543,0
                35.647032907,31.9868898930001,0
                35.694804107,31.7808860740001,0
                35.6844968500001,31.537836004,0
                35.674082347,31.3951715170001,0
                35.6002664220001,31.252439297,0
                35.542391165,31.0251887810001,0
                35.445702861,30.861298295,0
                35.4283585270001,30.6111960960001,0
                35.340440228,30.480776877,0
                35.3019018790001,30.2870089210001,0
                35.302037345,30.160206078,0
                35.326855262,30.0087734680001,0
                35.418435093,30.0088713050001,0
                35.506327051,30.163946632,0
                35.576554822,30.3683153600001,0
                35.632674573,30.5902805420001,0
                35.653623994,30.7628958780001,0
                35.68863628,30.9601823740001,0
                35.713096713,31.1433683760001,0
                35.829257392,31.2139385780001,0
                35.8713105160001,31.4147549,0
                35.8782008370001,31.559176775,0
                35.913333537,31.643749632,0
                36.0115064120001,32.0665311380001,0
                36.0359555570001,32.2602840440001,0
                36.00061213,32.3729600520001,0
                36.032169847,32.506841363,0
                36.4723671830001,32.5918469640001,0
                36.528908388,32.419314414,0
                36.631122856,32.356022119,0
                36.7932089170001,32.2998383980001,0
                36.9058322440001,32.38449404,0
                36.9725753430001,32.553635994,0
                36.901929882,32.740242697,0
                36.7996627320001,32.8528472090001,0
                36.743166683,32.9831121450001,0
                36.6057103890001,33.063978315,0
                36.5178334820001,32.8948137840001,0
                36.4827910930001,32.725705697,0
                36.077813006,32.6442600280001,0
                35.9931197330001,32.792106366,0
                35.936729047,32.823746869,0
                35.81340335,32.8658827790001,0
                35.8590803760001,32.9716007330001,0
                35.8554376590001,33.0843106080001,0
                35.8306084540001,33.2463101210001,0
                35.9220866840001,33.341510091,0
                36.01361007,33.394442446,0
                36.0099899320001,33.486018513,0
                36.0768195790001,33.5741475390001,0
                36.1788534250001,33.6799257010001,0
                36.3479088290001,33.6941955290001,0
                36.4465182100001,33.7083900980001,0
                36.548623552,33.747244537,0
                36.6506348190001,33.874156505,0
                36.7421130490001,33.969356475,0
                36.8300501630001,34.082164187,0
                36.9320426150001,34.2266876620001,0
                37.009397774,34.35357329,0
                36.9493530830001,34.508490571,0
                36.966821596,34.642356831,0
                37.0582960630001,34.741079101,0
                37.111047795,34.8186261720001,0
                37.121520624,34.9066949900001,0
                37.1637167420001,34.9736638690001,0
                37.2376135690001,35.040666614,0
                37.251601174,35.135783798,0
                37.255010586,35.241456596,0
                37.314750475,35.3718457100001,0
                37.3357300000001,35.516282636,0
                37.413220627,35.516365422,0
                37.5188858990001,35.520000612,0
                37.6245511710001,35.523635803,0
                37.7266715650001,35.5484010380001,0
                37.7900127780001,35.6048255900001,0
                37.7899187030001,35.692883119,0
                37.7827762640001,35.784455424,0
                37.8601276590001,35.914863354,0
                37.8882044690001,36.0099955900001,0
                37.8916326950001,36.098056882,0
                37.736643918,36.1049359130001,0
                37.7120743570001,36.023896645,0
                37.6698669520001,35.9674946700001,0
                37.592376325,35.967411885,0
                37.5500221630001,36.0483796560001,0
                37.5076830520001,36.1152582220001,0
                37.518155881,36.2033270420001,0
                37.6695922540001,36.2246226570001,0
                37.7893091020001,36.2634959110001,0
                37.859672339,36.3410617960001,0
                37.919464911,36.4221386940001,0
                38.032174786,36.4257814100001,0
                38.141317203,36.4716879790001,0
                38.2433962040001,36.535198526,0
                38.257338652,36.672583323,0
                38.292475116,36.753633881,0
                38.362860932,36.810065959,0
                38.426356427,36.7220761630001,0
                38.4229620680001,36.60231416,0
                38.45481706,36.4579336790001,0
                38.5217558350001,36.44391597,0
                38.6449423010001,36.5321052040001,0
                38.7294286110001,36.577985432,0
                38.852720441,36.567550232,0
                38.9971423160001,36.5606599110001,0
                39.074501237,36.6840232390001,0
                39.1413290040001,36.773913415,0
                39.3068188330001,36.828685944,0
                39.4476581980001,36.87814868,0
                39.570889821,36.924070299,0
                39.7152703030001,36.9559252920001,0
                39.842012937,37.0124175780001,0
                39.933589005,37.016037716,0
                40.070958751,37.0161844730001,0
                40.215369336,37.019861056,0
                40.349273226,36.9671695320001,0
                40.458528533,36.907407064,0
                40.683978387,36.8865140880001,0
                40.814329872,36.861997209,0
                40.9447265110001,36.795212717,0
                41.036276238,36.823488964,0
                41.152485836,36.84826925,0
                41.328544451,36.901291918,0
                41.4518174660001,36.908468224,0
                41.6526187370001,36.8805043040001,0
                41.781117819,36.9414013480001,0
                41.9449048230001,36.9415763270001,0
                42.103473288,36.880985966,0
                42.2910245370001,36.891753248,0
                42.4442192390001,36.9156924700001,0
                42.5471251920001,37.02939675,0
                42.6025393460001,37.087573987,0
                42.6633441970001,37.045371285,0
                42.784970833,36.9451155240001,0
              </coordinates>
            </LinearRing>
          </outerBoundaryIs>
        </Polygon>
      </Placemark>
    </Document>
  </Document>
</kml>
