<?xml version="1.0" encoding="UTF-8"?>
<kml xmlns="http://www.opengis.net/kml/2.2">
  <Document id="root_doc">
    <Schema id="Bioregions_PA27.schema">
      <SimpleField name="OBJECTID" type="float"/>
      <SimpleField name="Shape_Leng" type="float"/>
      <SimpleField name="Shape_Area" type="float"/>
      <SimpleField name="Bioregions" type="string"/>
    </Schema>
    <Document id="Bioregions_PA27">
      <name>Bioregions_PA27</name>
      <Placemark id="Bioregions_PA27.1">
        <ExtendedData>
          <SchemaData schemaUrl="#Bioregions_PA27.schema">
            <SimpleData name="OBJECTID">125</SimpleData>
            <SimpleData name="Shape_Leng">75.77437893410</SimpleData>
            <SimpleData name="Shape_Area">56.06394296020</SimpleData>
            <SimpleData name="Bioregions">PA27</SimpleData>
          </SchemaData>
        </ExtendedData>
        <Polygon>
          <outerBoundaryIs>
            <LinearRing>
              <coordinates>
                44.102413304,41.7967372470001,0
                44.2010490260001,41.7862757070001,0
                44.2732975920001,41.747607535,0
                44.3315115180001,41.6578509440001,0
                44.3756550530001,41.5504677960001,0
                44.421554095,41.4483699800001,0
                44.44278574,41.356812727,0
                44.4516874490001,41.2670034540001,0
                44.4517909310001,41.1701401720001,0
                44.4518831240001,41.083843793,0
                44.3708683150001,41.0855183950001,0
                44.310949684,41.122438587,0
                44.2615565630001,41.19811538,0
                44.219200519,41.280844302,0
                44.176855764,41.3530063200001,0
                44.1398076310001,41.4128459300001,0
                44.072891434,41.405729831,0
                44.025364827,41.382784073,0
                43.9849223350001,41.322861679,0
                43.9709290860001,41.233027946,0
                43.9780640000001,41.148500244,0
                43.9992523700001,41.0974494550001,0
                44.0785436580001,41.0605499590001,0
                44.13670302,41.021866736,0
                44.2142369200001,40.981443058,0
                44.2811813390001,40.962141898,0
                44.318189961,40.939286451,0
                44.321789403,40.8670830400001,0
                44.263688368,40.851170596,0
                44.1985295580001,40.847578679,0
                44.1140131440001,40.829876862,0
                44.0418360740001,40.8016213120001,0
                44.017215714,40.7681331090001,0
                44.0137799620001,40.6871164190001,0
                44.027942545,40.618446598,0
                44.079066712,40.570950096,0
                44.133698129,40.5375465610001,0
                44.2393822160001,40.523570245,0
                44.3503553990001,40.5043161230001,0
                44.491245565,40.5062277930001,0
                44.5881032030001,40.5116147260001,0
                44.672593276,40.553972652,0
                44.7570504220001,40.6271507120001,0
                44.8045478660001,40.6773943040001,0
                44.8916965980001,40.703904697,0
                44.994729551,40.6987313130001,0
                45.1162743420001,40.6750856030001,0
                45.227252229,40.6514286030001,0
                45.391154946,40.54329282,0
                45.5100975220001,40.482660126,0
                45.5867527290001,40.440474357,0
                45.6660750610001,40.374515876,0
                45.711018268,40.342863143,0
                45.7110718910001,40.2926703520001,0
                45.629200966,40.2714490550001,0
                45.473370183,40.242223559,0
                45.3254391780001,40.236782062,0
                45.2541041120001,40.2446310390001,0
                45.188010165,40.2921115500001,0
                45.1007824110001,40.3395694820001,0
                45.0716782700001,40.3818060520001,0
                45.0346489520001,40.424034154,0
                44.9606185380001,40.482073101,0
                44.8892496060001,40.521622789,0
                44.83114857,40.5057103440001,0
                44.7942039180001,40.4686866700001,0
                44.7758162600001,40.3709230580001,0
                44.8287721340001,40.2573852890001,0
                44.923925066,40.2099358240001,0
                45.0190723540001,40.167769809,0
                45.137983885,40.1361961000001,0
                45.2568982390001,40.1019806640001,0
                45.3335026450001,40.10734596,0
                45.4391773250001,40.102175398,0
                45.5105208570001,40.0864012430001,0
                45.563386419,40.057398703,0
                45.5740351680001,39.980799941,0
                45.542376791,39.941140186,0
                45.4604974000001,39.9278440680001,0
                45.3759678160001,39.922470305,0
                45.3046666180001,39.898618571,0
                45.238682737,39.843071772,0
                45.2360861660001,39.8008013350001,0
                45.2995468550001,39.7453928250001,0
                45.436936356,39.7270475,0
                45.5214744080001,39.7244960850001,0
                45.6166019390001,39.700822153,0
                45.685405346,39.5899430440001,0
                45.75688999,39.442082595,0
                45.81337475,39.3223845630001,0
                45.883903559,39.2449691960001,0
                45.933321139,39.146397445,0
                46.046079933,39.104250246,0
                46.0461627190001,39.0267596200001,0
                46.250478764,39.0058440660001,0
                46.4195492220001,39.006024688,0
                46.5463144340001,39.041383168,0
                46.5974555350001,38.97803631,0
                46.5341670030001,38.8722995410001,0
                46.40212022,38.8351742670001,0
                46.2753173770001,38.8350387990001,0
                46.111536017,38.829580369,0
                46.0481007290001,38.8612133460001,0
                45.958332849,38.8135663240001,0
                45.7787632220001,38.749972991,0
                45.7735399520001,38.693635568,0
                45.8740233990001,38.6021379420001,0
                46.080128819,38.55480701,0
                46.243938402,38.533848182,0
                46.4183092440001,38.518184094,0
                46.5979466040001,38.518376006,0
                46.671903639,38.529021931,0
                46.735389728,38.449837889,0
                46.8781671040001,38.333754351,0
                47.020888035,38.27050533,0
                47.1706234650001,38.2354422450001,0
                47.272777725,38.228506769,0
                47.3502796400001,38.2180226510001,0
                47.4207520040001,38.1934418020001,0
                47.505339915,38.144219897,0
                47.547679026,38.0773413310001,0
                47.501938029,38.031502496,0
                47.4350293580001,38.017341795,0
                47.343468343,37.9996324520001,0
                47.195550505,37.9818661470001,0
                47.0476439620001,37.9535264470001,0
                46.9314155490001,37.9463576650001,0
                46.815183373,37.9427111860001,0
                46.727238733,37.8369480760001,0
                46.8153338920001,37.801819139,0
                46.8963581080001,37.7913387840001,0
                47.019646175,37.7844258850001,0
                47.160557037,37.7669648990001,0
                47.294408246,37.763585591,0
                47.4282556900001,37.763728584,0
                47.5480176930001,37.7603342240001,0
                47.6924358050001,37.756966205,0
                47.7980973140001,37.7641236970001,0
                47.862377715,37.7958931160001,0
                47.953119959,37.725543955,0
                48.0024773310001,37.6833290230001,0
                48.1011469200001,37.6411667720001,0
                48.1610373290001,37.6306638390001,0
                48.2138718470001,37.6307202840001,0
                48.2948471440001,37.666029844,0
                48.3266306410001,37.5885730850001,0
                48.3479112040001,37.451225917,0
                48.37618745,37.3596761900001,0
                48.4098594540001,37.300460893,0
                48.443237219,37.241763043,0
                48.506715795,37.1696111570001,0
                48.5983595960001,37.1098298740001,0
                48.7287848390001,37.01627233,0
                48.8485972620001,36.965682697,0
                48.933170121,36.9305499970001,0
                49.000150288,36.877786976,0
                49.067126692,36.828546256,0
                49.1271262270001,36.7158965890001,0
                49.183589893,36.615943402,0
                49.328029099,36.5928305370001,0
                49.394971636,36.575290528,0
                49.4830630320001,36.543683892,0
                49.588758409,36.519140673,0
                49.6275752180001,36.452258343,0
                49.6558514650001,36.3607086160001,0
                49.606588167,36.3148660200001,0
                49.5079900750001,36.290104548,0
                49.3917277950001,36.3146364770001,0
                49.2402274520001,36.353219982,0
                49.1274197390001,36.441157097,0
                49.0463804720001,36.4657266560001,0
                48.9301332430001,36.476169381,0
                48.964515083,36.363492346,0
                49.028957114,36.2895927820001,0
                49.1135977060001,36.1910586610001,0
                49.13480301,36.1241575170001,0
                49.082058804,36.039565843,0
                49.0081205820001,36.0113084110001,0
                49.0081845540001,35.9514292910001,0
                49.0258788450001,35.8739574800001,0
                49.0822808200001,35.8317500730001,0
                49.149237327,35.8011333590001,0
                49.2372948560001,35.8012274340001,0
                49.3183077840001,35.8013139820001,0
                49.4309811110001,35.8391672110001,0
                49.5330939780001,35.870977048,0
                49.656378282,35.8675864510001,0
                49.7831773610001,35.8712442190001,0
                49.871234891,35.8713382940001,0
                50.0050672840001,35.8855704920001,0
                50.068472469,35.8821159250001,0
                50.1917981650001,35.839980015,0
                50.2939852100001,35.802356328,0
                50.396170656,35.7662299420001,0
                50.438457086,35.7486635930001,0
                50.375168554,35.642926823,0
                50.424544741,35.5831003850001,0
                50.5302288280001,35.56912407,0
                50.6218086580001,35.569221907,0
                50.7063438870001,35.569312219,0
                50.8261021270001,35.5694401600001,0
                50.9564272710001,35.5695793900001,0
                51.058558953,35.583777721,0
                51.1571608080001,35.605016891,0
                51.2733741690001,35.6262748770001,0
                51.3508610330001,35.6298799640001,0
                51.456548883,35.6123813470001,0
                51.417908933,35.513715522,0
                51.3616424250001,35.4291200860001,0
                51.3617327370001,35.344584857,0
                51.2032291840001,35.3444155240001,0
                50.974279607,35.3441709300001,0
                50.7030624170001,35.343881181,0
                50.414233719,35.3435726160001,0
                50.227574335,35.3222393710001,0
                50.0092142400001,35.3008722590001,0
                50.0022561860001,35.2198518060001,0
                50.0551396230001,35.1741183350001,0
                50.090407789,35.131888351,0
                50.160921547,35.0685621900001,0
                50.2173272850001,35.0228324810001,0
                50.19634776,34.878395556,0
                50.1541403530001,34.8219935810001,0
                50.0414267150001,34.821873166,0
                49.8478205660001,34.7089525640001,0
                49.678862999,34.6031029050001,0
                49.5979667240001,34.4938250210001,0
                49.471209038,34.4514219390001,0
                49.3023342560001,34.2680816550001,0
                49.1968082130001,34.1341213200001,0
                49.168829241,33.947409254,0
                49.1865649260001,33.83119213,0
                49.2042705060001,33.7431534150001,0
                49.2465983280001,33.6868417520001,0
                49.3064623970001,33.7009949270001,0
                49.4015043210001,33.757453346,0
                49.4648041410001,33.8526232130001,0
                49.577446283,33.9196673500001,0
                49.6971330260001,33.9867190140001,0
                49.8273603320001,34.0784380740001,0
                49.950565614,34.1490158030001,0
                50.0772593300001,34.251298004,0
                50.193416246,34.3253905070001,0
                50.270842901,34.385352412,0
                50.337721468,34.4276915240001,0
                50.39755167,34.47354541,0
                50.4644302360001,34.515884521,0
                50.538413613,34.5018743380001,0
                50.503333594,34.3679892640001,0
                50.4578371910001,34.093200853,0
                50.458044155,33.8994742880001,0
                50.4476014300001,33.7832270600001,0
                50.4406885320001,33.659938993,0
                50.451323169,33.59654886,0
                50.588771938,33.522727291,0
                50.701545783,33.4664908880001,0
                50.789659757,33.4137504450001,0
                50.8742363790001,33.3750954430001,0
                50.909478205,33.357521567,0
                50.983363744,33.435091216,0
                51.0749548640001,33.4246221500001,0
                51.187739999,33.3578188430001,0
                51.30405496,33.283974696,0
                51.395713813,33.2101042090001,0
                51.5366848830001,33.136286403,0
                51.6635592220001,33.069498148,0
                51.829227793,32.95696137,0
                51.8928136000001,32.7844363460001,0
                51.9563805920001,32.6295228280001,0
                51.9988137780001,32.474586732,0
                52.034168493,32.3513438200001,0
                52.0519568600001,32.185814479,0
                52.009813423,32.0695333850001,0
                52.0521412460001,32.013221722,0
                52.1296318710001,32.013304507,0
                52.228233727,32.034543678,0
                52.3057469300001,32.013492656,0
                52.4184944350001,31.9819123610001,0
                52.418580983,31.9008994340001,0
                52.312934526,31.8796527370001,0
                52.2354852930001,31.8408246390001,0
                52.175670143,31.7808815490001,0
                51.953874295,31.6784977460001,0
                51.830653962,31.6220092230001,0
                51.8520173110001,31.4071714290001,0
                51.8522920080001,31.1500434430001,0
                51.8524312390001,31.0197183000001,0
                51.866678488,30.871796702,0
                51.9337414410001,30.7415430550001,0
                51.9972519890001,30.6394640550001,0
                52.0712880470001,30.5761416550001,0
                52.194609981,30.537528046,0
                52.2509668000001,30.5375882540001,0
                52.2613718960001,30.6890584940001,0
                52.2612439540001,30.8088167350001,0
                52.3069360320001,30.900445484,0
                52.3702810090001,30.9533477350001,0
                52.3701681200001,31.05901677,0
                52.3312911020001,31.1822559190001,0
                52.3171605040001,31.2209861800001,0
                52.41925832,31.266885222,0
                52.500338981,31.2035703490001,0
                52.648298208,31.182594587,0
                52.7012343270001,31.0875489000001,0
                52.7541591560001,31.003070117,0
                52.6029109310001,30.805659442,0
                52.754422564,30.756509034,0
                52.90947155,30.693273183,0
                53.0785984510001,30.640619289,0
                53.2265426270001,30.6337327320001,0
                53.29359429,30.5140459880001,0
                53.3606309020001,30.408448449,0
                53.46988621,30.3486859810001,0
                53.5861785930001,30.295975642,0
                53.6074064750001,30.207940691,0
                53.5863554530001,30.1304274870001,0
                53.790754285,30.032021306,0
                53.9247070930001,29.933539866,0
                53.970560979,29.873709665,0
                54.030575567,29.746970794,0
                54.090454687,29.747034764,0
                54.1855191880001,29.782359376,0
                54.1856998110001,29.6132889200001,0
                54.2351173920001,29.5147171680001,0
                54.249244226,29.479509208,0
                54.4535151160001,29.500861269,0
                54.6190068270001,29.553872647,0
                54.7704695410001,29.550512154,0
                54.89030304,29.480194071,0
                55.0313267920001,29.357064049,0
                55.130015196,29.2972902920001,0
                55.2674978310001,29.1917680130001,0
                55.366186235,29.131994256,0
                55.4647918530001,29.1497111250001,0
                55.5211298570001,29.167382839,0
                55.6163787450001,29.030114693,0
                55.679878004,28.9386025970001,0
                55.7362875050001,28.8893505880001,0
                55.852542258,28.8718632600001,0
                55.9546174960001,28.938896109,0
                56.0708158050001,28.9742432990001,0
                56.1729136210001,29.0201423400001,0
                56.2256728780001,29.090644809,0
                56.225597619,29.1610908330001,0
                56.317090901,29.2422015970001,0
                56.412249477,29.1894686800001,0
                56.4827632340001,29.1261425180001,0
                56.577948152,29.0487534920001,0
                56.6942254840001,29.0101323580001,0
                56.8951095400001,28.904677813,0
                57.1240929840001,28.873221696,0
                57.2439039060001,28.8240374210001,0
                57.3355213660001,28.7889122460001,0
                57.4306611280001,28.7537908350001,0
                57.4624897800001,28.6340664620001,0
                57.30763647,28.5141426500001,0
                57.2478589500001,28.418976548,0
                57.233886397,28.309770159,0
                57.0402727220001,28.2038941600001,0
                56.8360658020001,28.12266298,0
                56.677626219,28.0626145260001,0
                56.5437373820001,28.1012168450001,0
                56.3360081600001,28.019981902,0
                56.297383263,27.907226872,0
                56.424186106,27.9073623400001,0
                56.494665996,27.8757368880001,0
                56.4841931670001,27.7876680700001,0
                56.3715246850001,27.7452800400001,0
                56.2411995410001,27.7451408110001,0
                56.0581038510001,27.6850660150001,0
                55.9348233090001,27.6849343110001,0
                55.829090303,27.744700542,0
                55.9205835860001,27.825811307,0
                55.9522052730001,27.8998134980001,0
                55.9520961470001,28.001960232,0
                56.0789178040001,27.9844841940001,0
                56.1458452900001,27.9810333890001,0
                56.283053228,28.132639096,0
                56.3710543130001,28.185567688,0
                56.452055951,28.19622114,0
                56.5506088870001,28.263250226,0
                56.5892450740001,28.3654383530001,0
                56.5891735770001,28.4323620750001,0
                56.46938147,28.463934845,0
                56.3530853240001,28.5201674850001,0
                56.2227601800001,28.5200282550001,0
                56.0747783750001,28.562137824,0
                55.9937993140001,28.530350565,0
                56.0820525190001,28.3472849770001,0
                55.8320594460001,28.2624825780001,0
                55.779096988,28.3821843740001,0
                55.680446214,28.406735118,0
                55.465773991,28.230390518,0
                55.0359817500001,28.296855156,0
                54.7894582970001,28.2613687360001,0
                54.581510823,28.384427261,0
                54.4263451850001,28.556854448,0
                54.303090985,28.532066636,0
                54.116578356,28.373363645,0
                53.975720176,28.3415124150001,0
                53.485695095,28.739009394,0
                53.3943335180001,28.5346180880001,0
                53.225244246,28.552048971,0
                53.1722893130001,28.6647061640001,0
                53.070112475,28.6927754480001,0
                52.9257282300001,28.664442755,0
                52.862398306,28.5974512990001,0
                52.86245475,28.544616782,0
                52.763875473,28.502243805,0
                52.6899109120001,28.4986424800001,0
                52.5912450860001,28.5372824300001,0
                52.492564208,28.5900115850001,0
                52.446687744,28.670975593,0
                52.3903271620001,28.6744376870001,0
                52.295255135,28.6461576770001,0
                52.2037166960001,28.607314526,0
                52.140311512,28.610769093,0
                52.045100254,28.7128142280001,0
                51.9428556820001,28.804284932,0
                51.844076967,28.948593917,0
                51.717262836,28.9590253530001,0
                51.593959716,28.9800274560001,0
                51.4847156980001,29.0292230200001,0
                51.308461408,29.1593600150001,0
                51.1744295770001,29.331809779,0
                51.0333794860001,29.4795959090001,0
                50.9767968880001,29.6908737730001,0
                50.9166995150001,29.89510327,0
                50.8178417770001,30.1133805800001,0
                50.588689,30.3033402500001,0
                50.29614609,30.4826652840001,0
                50.035292601,30.6725910870001,0
                49.7849984910001,30.869572781,0
                49.5558682910001,31.038398644,0
                49.3830741460001,31.226721227,0
                49.2173473170001,31.393789817,0
                49.090375141,31.5521579030001,0
                48.9139891470001,31.8055754390001,0
                48.751778906,31.9779950990001,0
                48.593162464,32.083494801,0
                48.3781703880001,32.2065458010001,0
                48.233677017,32.280359844,0
                47.9518853970001,32.2871034070001,0
                47.8073957890001,32.3573951490001,0
                47.6347089560001,32.445268293,0
                47.5007298080001,32.56840584,0
                47.261145593,32.631551379,0
                47.0250799180001,32.6982229810001,0
                46.8524307160001,32.7508731130001,0
                46.5528770700001,32.89848991,0
                46.29556846,33.0672856690001,0
                46.119302883,33.207989567,0
                46.027649674,33.276576603,0
                45.9535458820001,33.4033004230001,0
                45.8530552280001,33.5015424800001,0
                45.7630763280001,33.6514194550001,0
                45.699528151,33.7887214670001,0
                45.7045858230001,34.0000651820001,0
                45.7149495260001,34.190280735,0
                45.725238948,34.4500262540001,0
                45.7356712870001,34.5759952930001,0
                45.642235838,34.745448959,0
                45.56097871,34.8928161310001,0
                45.362121023,35.084634689,0
                45.238268588,35.204103016,0
                45.084976983,35.351968433,0
                44.9937820310001,35.583901041,0
                44.910147857,35.796604614,0
                44.8994023220001,35.963799927,0
                44.856984206,36.104630437,0
                44.5557399800001,36.1861893660001,0
                44.381408648,36.1648692910001,0
                44.250244063,36.1700126220001,0
                44.164623437,36.31785797,0
                44.111597316,36.4971491680001,0
                44.0005237070001,36.6104061780001,0
                43.826121277,36.6556376360001,0
                43.6305996950001,36.6871295010001,0
                43.4667901120001,36.7080883300001,0
                43.1602991090001,36.7553120170001,0
                42.9171530830001,36.8554379550001,0
                42.784970833,36.9451155240001,0
                42.6633441970001,37.045371285,0
                42.6025393460001,37.087573987,0
                42.628863472,37.174779164,0
                42.607588553,37.30684288,0
                42.544167375,37.325267227,0
                42.4358396800001,37.3410018710001,0
                42.3380422000001,37.39109024,0
                42.266664802,37.4385651060001,0
                42.2058345500001,37.504543342,0
                42.1582609070001,37.525626349,0
                42.0605114040001,37.530805378,0
                41.9759253760001,37.5782661320001,0
                41.941359983,37.7869257880001,0
                41.9650564930001,37.8609195130001,0
                42.0072253290001,37.953425075,0
                41.993960255,38.0062454810001,0
                41.9093826930001,38.045781058,0
                41.8247853760001,38.1038087160001,0
                41.7058992450001,38.111606893,0
                41.626607956,38.148506388,0
                41.489195877,38.187985521,0
                41.3597371970001,38.2010558600001,0
                41.2751822130001,38.2194576300001,0
                41.1166673710001,38.2298552,0
                40.9924723880001,38.2614232650001,0
                40.9817333280001,38.4225572550001,0
                41.0520739890001,38.521256947,0
                41.122482382,38.5565552190001,0
                41.2210767120001,38.5848389920001,0
                41.2985221810001,38.627189392,0
                41.2984243440001,38.718769223,0
                41.2208885630001,38.7609540510001,0
                41.1292786280001,38.7890346230001,0
                41.037683745,38.80302599,0
                40.981259192,38.866367204,0
                40.9881833800001,38.9790883680001,0
                40.9458179280001,39.0706230420001,0
                40.8259618500001,39.1620749320001,0
                40.670927917,39.2112215770001,0
                40.586309903,39.288621891,0
                40.536877271,39.4012828470001,0
                40.5438089840001,39.506959409,0
                40.5648299010001,39.6126510220001,0
                40.5999701280001,39.6901792780001,0
                40.6703333660001,39.767745163,0
                40.684327556,39.8566983200001,0
                40.6816209180001,39.9174551940001,0
                40.6789114590001,39.9808537930001,0
                40.6761963540001,40.0495358430001,0
                40.6866983470001,40.110306828,0
                40.7209674050001,40.17902839,0
                40.7578612560001,40.26360313,0
                40.802708507,40.3217690760001,0
                40.8449013320001,40.391819968,0
                40.8871167350001,40.4407370530001,0
                40.9399427860001,40.4487186750001,0
                40.961137271,40.3919441470001,0
                41.006073422,40.3668957290001,0
                41.0219999780001,40.295586063,0
                41.022064889,40.234826368,0
                41.0141989790001,40.1793416580001,0
                41.0459335560001,40.147674814,0
                41.14629374,40.1715575920001,0
                41.2017248270001,40.2138844730001,0
                41.2703673670001,40.2535837400001,0
                41.3812549420001,40.314461969,0
                41.431380001,40.3779170120001,0
                41.4868139110001,40.417602167,0
                41.581918865,40.415062042,0
                41.6770661520001,40.3728960280001,0
                41.7272758780001,40.3570992950001,0
                41.7933105590001,40.365095029,0
                41.8408729130001,40.354578926,0
                41.92541943,40.3441023340001,0
                41.986167837,40.3547341490001,0
                42.065378691,40.393123841,0
                42.1208055450001,40.4394133110001,0
                42.1736344180001,40.4447532070001,0
                42.2396408770001,40.4791661990001,0
                42.3083172830001,40.487164755,0
                42.3215936460001,40.423777445,0
                42.3375173790001,40.3551095060001,0
                42.4088693780001,40.3314101730001,0
                42.477531674,40.3526173590001,0
                42.5409556720001,40.331551285,0
                42.61762499,40.2761568860001,0
                42.691638471,40.2339682950001,0
                42.7841016990001,40.231425346,0
                42.8791981860001,40.236810399,0
                42.9637221260001,40.2474676140001,0
                43.0403067760001,40.2713249920001,0
                43.140661315,40.3004912210001,0
                43.1828809520001,40.3454457170001,0
                43.227719736,40.4115368430001,0
                43.3465974000001,40.411663843,0
                43.3597665190001,40.448662117,0
                43.3596790300001,40.530555619,0
                43.4045432140001,40.5728712110001,0
                43.4546569830001,40.6468931580001,0
                43.4149492500001,40.723460876,0
                43.3488891700001,40.739240674,0
                43.290740156,40.7682375700001,0
                43.211505312,40.752302548,0
                43.1666326610001,40.717912133,0
                43.100623381,40.6861408670001,0
                43.087499418,40.6068749790001,0
                43.055860797,40.5487231430001,0
                43.000395842,40.5380969730001,0
                42.9264049400001,40.5591517570001,0
                42.8814335110001,40.6172217480001,0
                42.915696924,40.691226762,0
                42.9737556270001,40.7467650950001,0
                43.0027186560001,40.8366148200001,0
                43.03700747,40.8868443010001,0
                43.0950831050001,40.926532278,0
                43.14784989,40.989990144,0
                43.163593,41.0903926610001,0
                43.127428265,41.1475914850001,0
                43.0991802400001,41.212723952,0
                43.055111965,41.249661077,0
                42.9776044050001,41.2654286470001,0
                42.9247454280001,41.2882671610001,0
                42.928211285,41.341105441,0
                42.9845267110001,41.3799109620001,0
                43.0584668130001,41.406407243,0
                43.090114842,41.455753326,0
                43.0918026140001,41.5244400810001,0
                43.0565306840001,41.5701923660001,0
                42.9737471980001,41.57890969,0
                42.901545669,41.5735490970001,0
                42.8522278080001,41.578779866,0
                42.799374475,41.596334928,0
                42.7623658540001,41.6191903750001,0
                42.7341328810001,41.6702336380001,0
                42.74993808,41.7125181860001,0
                42.8379617430001,41.7443129700001,0
                42.9048873470001,41.742623317,0
                43.007028437,41.748015894,0
                43.1162254180001,41.7428490950001,0
                43.1814030420001,41.7288295050001,0
                43.253645964,41.6954447850001,0
                43.3276500380001,41.662061947,0
                43.426295166,41.6427946540001,0
                43.5354827400001,41.6464336080001,0
                43.618243647,41.658850091,0
                43.68514291,41.6818165460001,0
                43.7766888740001,41.713615094,0
                43.8647163000001,41.741887578,0
                43.9368802000001,41.7824711820001,0
                44.023150238,41.807219483,0
                44.102413304,41.7967372470001,0
              </coordinates>
            </LinearRing>
          </outerBoundaryIs>
        </Polygon>
      </Placemark>
    </Document>
  </Document>
</kml>
