<?xml version="1.0" encoding="UTF-8"?>
<kml xmlns="http://www.opengis.net/kml/2.2">
  <Document id="root_doc">
    <Schema id="Bioregions_PA28.schema">
      <SimpleField name="OBJECTID" type="float"/>
      <SimpleField name="Shape_Leng" type="float"/>
      <SimpleField name="Shape_Area" type="float"/>
      <SimpleField name="Bioregions" type="string"/>
    </Schema>
    <Document id="Bioregions_PA28">
      <name>Bioregions_PA28</name>
      <Placemark id="Bioregions_PA28.1">
        <ExtendedData>
          <SchemaData schemaUrl="#Bioregions_PA28.schema">
            <SimpleData name="OBJECTID">119</SimpleData>
            <SimpleData name="Shape_Leng">37.21725567510</SimpleData>
            <SimpleData name="Shape_Area">17.68078274420</SimpleData>
            <SimpleData name="Bioregions">PA28</SimpleData>
          </SchemaData>
        </ExtendedData>
        <Polygon>
          <outerBoundaryIs>
            <LinearRing>
              <coordinates>
                48.441079164,39.2617903240001,0
                48.6878133440001,39.100027878,0
                48.802598308,39.014368979,0
                48.8419540310001,38.733018074,0
                48.8490928740001,38.539871734,0
                49.43330009,38.507776215,0
                49.6900626720001,38.349129557,0
                50.8714854410001,38.7998781360001,0
                51.368485579,38.6978056240001,0
                51.5186667410001,38.3508596880001,0
                51.946318583,38.0265310400001,0
                52.573841859,37.860374887,0
                52.7263181920001,37.9009030870001,0
                53.39641211,37.418955198,0
                53.8673973910001,37.419458365,0
                53.9451713940001,37.15428739,0
                53.9876271580001,36.9782174860001,0
                54.1496906420001,36.943167572,0
                54.3680131080001,36.999757695,0
                54.6849374280001,37.07758699,0
                54.9807204160001,37.162438308,0
                55.2271159270001,37.317682968,0
                55.4733985490001,37.578596664,0
                55.769023492,37.8113846320001,0
                56.0154792110001,37.9102724740001,0
                56.276054238,37.980996958,0
                56.3746711460001,37.988146923,0
                56.473363313,37.924850866,0
                56.7129249490001,37.8828391340001,0
                56.9102566000001,37.805559235,0
                56.8909629660001,37.731570214,0
                56.9280374400001,37.6470744970001,0
                57.0443241790001,37.599647609,0
                57.2398965620001,37.520604678,0
                57.4195960110001,37.4626786210001,0
                57.6045732680001,37.4100416590001,0
                57.752566362,37.357365187,0
                57.9375718410001,37.278310967,0
                58.0486372180001,37.1727604660001,0
                58.191465394,37.00912586,0
                58.365960414,36.8772258340001,0
                58.498148309,36.782264814,0
                58.656753462,36.687332016,0
                58.8048312230001,36.555403767,0
                58.9898649250001,36.4499322880001,0
                59.0850460790001,36.376065564,0
                59.08519848,36.233412366,0
                58.910799415,36.2754937130001,0
                58.63068616,36.359729784,0
                58.5090990370001,36.423001383,0
                58.3770183870001,36.417576819,0
                58.3665813050001,36.2960461390001,0
                58.229194627,36.3117497380001,0
                57.7430662630001,36.3587815130001,0
                57.0667562150001,36.3844762800001,0
                56.8024763810001,36.484579641,0
                56.643922027,36.5319613720001,0
                56.5751581320001,36.6058563190001,0
                56.6649034340001,36.6746371470001,0
                56.892108793,36.659029505,0
                57.1721486710001,36.6434783060001,0
                57.4363212590001,36.6437605290001,0
                57.6424041000001,36.6175634050001,0
                57.7956750020001,36.570176029,0
                57.869671549,36.543837792,0
                57.94368503,36.5016492010001,0
                58.0387363610001,36.5493018670001,0
                58.0121610570001,36.697210295,0
                58.0490210410001,36.813485744,0
                57.974922894,36.934926112,0
                57.6860810270001,36.9469456030001,0
                57.5874114380001,36.9891078540001,0
                57.446429079,37.0734925620001,0
                57.3828846640001,37.207272274,0
                57.241947462,37.249389369,0
                57.04465344,37.291446256,0
                56.8685308550001,37.29830271,0
                56.7487726150001,37.2981747690001,0
                56.558703818,37.171168725,0
                56.3404566130001,37.044132577,0
                56.255778391,37.177889711,0
                55.9178181,37.008458009,0
                55.769986815,36.9096755300001,0
                55.488360765,36.7614378430001,0
                55.1574977590001,36.542701449,0
                54.763233332,36.3238973220001,0
                54.291448174,36.1331888190001,0
                53.925332052,35.942593205,0
                53.5381122270001,35.7237966050001,0
                53.1578090630001,35.6247657700001,0
                52.7492973870001,35.5538832410001,0
                52.3619496200001,35.4548448800001,0
                52.1646555980001,35.4969017670001,0
                51.988548065,35.4896690160001,0
                51.8332733010001,35.7642429370001,0
                51.5795773040001,35.848507231,0
                51.1356845700001,35.925523721,0
                50.9382701330001,36.080294247,0
                50.6211049820001,36.227892227,0
                50.212412681,36.3260801550001,0
                49.9623104820001,36.343424489,0
                49.821425961,36.336229368,0
                49.793191107,36.3890337820001,0
                49.751020657,36.503259122,0
                49.9621712520001,36.4737496330001,0
                49.96201697,36.6181639810001,0
                49.8140652690001,36.632095142,0
                49.6555240850001,36.667148819,0
                49.535701875,36.7268999980001,0
                49.274893542,36.874558187,0
                48.996428549,37.0644651750001,0
                48.7813423970001,37.2755737040001,0
                48.5768532550001,37.458515113,0
                48.4098594540001,37.300460893,0
                48.37618745,37.3596761900001,0
                48.3479112040001,37.451225917,0
                48.3266306410001,37.5885730850001,0
                48.2948471440001,37.666029844,0
                48.2138718470001,37.6307202840001,0
                48.1610373290001,37.6306638390001,0
                48.1011469200001,37.6411667720001,0
                48.0024773310001,37.6833290230001,0
                47.953119959,37.725543955,0
                47.862377715,37.7958931160001,0
                47.7980973140001,37.7641236970001,0
                47.6924358050001,37.756966205,0
                47.5480176930001,37.7603342240001,0
                47.4282556900001,37.763728584,0
                47.294408246,37.763585591,0
                47.160557037,37.7669648990001,0
                47.019646175,37.7844258850001,0
                46.8963581080001,37.7913387840001,0
                46.8153338920001,37.801819139,0
                46.727238733,37.8369480760001,0
                46.815183373,37.9427111860001,0
                46.9314155490001,37.9463576650001,0
                47.0476439620001,37.9535264470001,0
                47.195550505,37.9818661470001,0
                47.343468343,37.9996324520001,0
                47.4350293580001,38.017341795,0
                47.501938029,38.031502496,0
                47.547679026,38.0773413310001,0
                47.505339915,38.144219897,0
                47.4207520040001,38.1934418020001,0
                47.3502796400001,38.2180226510001,0
                47.272777725,38.228506769,0
                47.1706234650001,38.2354422450001,0
                47.020888035,38.27050533,0
                46.8781671040001,38.333754351,0
                46.735389728,38.449837889,0
                46.671903639,38.529021931,0
                46.5979466040001,38.518376006,0
                46.4183092440001,38.518184094,0
                46.243938402,38.533848182,0
                46.080128819,38.55480701,0
                45.8740233990001,38.6021379420001,0
                45.7735399520001,38.693635568,0
                45.7787632220001,38.749972991,0
                45.958332849,38.8135663240001,0
                46.0481007290001,38.8612133460001,0
                46.111536017,38.829580369,0
                46.2753173770001,38.8350387990001,0
                46.40212022,38.8351742670001,0
                46.5341670030001,38.8722995410001,0
                46.5974555350001,38.97803631,0
                46.8141673690001,38.8937325050001,0
                46.9761254900001,38.9573070230001,0
                47.124016983,38.9997326820001,0
                47.2930197060001,39.063314727,0
                47.455030509,39.0775770280001,0
                47.6170112070001,39.12001774,0
                47.771849466,39.254030755,0
                47.969098332,39.2542414820001,0
                48.060640533,39.2895623310001,0
                48.131011297,39.3600836150001,0
                48.441079164,39.2617903240001,0
              </coordinates>
            </LinearRing>
          </outerBoundaryIs>
        </Polygon>
      </Placemark>
    </Document>
  </Document>
</kml>
