<?xml version="1.0" encoding="UTF-8"?>
<kml xmlns="http://www.opengis.net/kml/2.2">
  <Document id="root_doc">
    <Schema id="Bioregions_PA29.schema">
      <SimpleField name="OBJECTID" type="float"/>
      <SimpleField name="Shape_Leng" type="float"/>
      <SimpleField name="Shape_Area" type="float"/>
      <SimpleField name="Bioregions" type="string"/>
    </Schema>
    <Document id="Bioregions_PA29">
      <name>Bioregions_PA29</name>
      <Placemark id="Bioregions_PA29.1">
        <ExtendedData>
          <SchemaData schemaUrl="#Bioregions_PA29.schema">
            <SimpleData name="OBJECTID">115</SimpleData>
            <SimpleData name="Shape_Leng">146.41064548700</SimpleData>
            <SimpleData name="Shape_Area">153.35324729000</SimpleData>
            <SimpleData name="Bioregions">PA29</SimpleData>
          </SchemaData>
        </ExtendedData>
        <Polygon>
          <outerBoundaryIs>
            <LinearRing>
              <coordinates>
                59.4191585710001,36.8501725560001,0
                59.595303734,36.8221822950001,0
                59.8207084310001,36.8435569320001,0
                59.975742365,36.7944102880001,0
                60.1027032520001,36.646609105,0
                60.180366975,36.4846660370001,0
                60.356557294,36.414408162,0
                60.511651435,36.3089046970001,0
                60.6385746930001,36.1963265270001,0
                60.779632312,36.0414957940001,0
                60.8713852390001,35.8795677780001,0
                60.897930439,35.759837759,0
                60.935030313,35.6515665090001,0
                60.9351460250001,35.543255748,0
                61.0409589940001,35.4086406170001,0
                61.1864063180001,35.2661426430001,0
                61.3027664360001,35.1500308820001,0
                61.442961353,34.978468278,0
                61.4535931680001,34.9177198720001,0
                61.4880343830001,34.825296155,0
                61.5699956180001,34.761982222,0
                61.699499454,34.706644269,0
                61.889746051,34.667221581,0
                61.976931473,34.659389537,0
                62.15132207,34.6252333680001,0
                62.315176808,34.562006925,0
                62.478992035,34.535764645,0
                62.7590347350001,34.517571721,0
                62.7591758460001,34.385485427,0
                62.6508650850001,34.385369715,0
                62.3946063860001,34.3956628620001,0
                62.2889429940001,34.3902665200001,0
                62.1489625670001,34.3610579580001,0
                62.0618533460001,34.297563403,0
                61.9668245930001,34.228776929,0
                61.8849818910001,34.1811383740001,0
                61.795214011,34.1334913520001,0
                61.6737143760001,34.114869448,0
                61.5891537470001,34.138554669,0
                61.4622436600001,34.2388047860001,0
                61.512394118,34.278484296,0
                61.570475399,34.312888822,0
                61.633806264,34.378999703,0
                61.6760287220001,34.4213124730001,0
                61.689175263,34.4794445530001,0
                61.6732712850001,34.529620412,0
                61.5702270420001,34.5453607000001,0
                61.4778005030001,34.513561211,0
                61.3933330080001,34.450069479,0
                61.306206854,34.4024252790001,0
                61.2270030560001,34.3574312710001,0
                61.1663308490001,34.2754728580001,0
                61.1452788870001,34.198840229,0
                61.153274621,34.1328055490001,0
                61.232548975,34.1117564080001,0
                61.3276144180001,34.146200445,0
                61.4227842830001,34.082900625,0
                61.4307884830001,34.0089407670001,0
                61.494291505,33.9139063690001,0
                61.5788747110001,33.8690873410001,0
                61.671360517,33.845410585,0
                61.7849716640001,33.829681586,0
                61.819407235,33.742541321,0
                61.814236672,33.636866641,0
                61.909333159,33.642251693,0
                62.004401424,33.674054004,0
                62.1311873340001,33.6900398270001,0
                62.2052121030001,33.637284332,0
                62.1524509640001,33.5685430140001,0
                62.004615915,33.4732828370001,0
                61.8619796500001,33.4572800810001,0
                61.6981813560001,33.467672006,0
                61.6347517120001,33.494021532,0
                61.51058213,33.501814064,0
                61.4155279760001,33.456803124,0
                61.3046150000001,33.4197004270001,0
                61.238625475,33.3694370800001,0
                61.302111563,33.2902530370001,0
                61.3761504440001,33.2242889120001,0
                61.4027088140001,33.0922308400001,0
                61.508389138,33.0817768260001,0
                61.54810816,32.994642205,0
                61.5165288060001,32.881014125,0
                61.595805983,32.85732326,0
                61.66182373,32.8811693480001,0
                61.7040010330001,32.9657497320001,0
                61.759392609,33.0450607760001,0
                61.8464764300001,33.132330864,0
                61.9203967760001,33.1773192270001,0
                62.0683701140001,33.1431348350001,0
                62.1899177270001,33.1168473990001,0
                62.3114399410001,33.114335496,0
                62.395983636,33.106500629,0
                62.4724807970001,33.21225151,0
                62.533260248,33.193824341,0
                62.6046207140001,33.1621998300001,0
                62.69185129,33.1121001720001,0
                62.845102436,33.0832048770001,0
                62.8531038140001,33.011886745,0
                62.7950422900001,32.9589901370001,0
                62.678814817,32.950940782,0
                62.5626550790001,32.879490005,0
                62.483423058,32.8609132560001,0
                62.393629778,32.8370417680001,0
                62.232507077,32.815735804,0
                62.0819879680001,32.760098693,0
                62.0239518440001,32.6834265540001,0
                62.0926875170001,32.635948865,0
                62.2274296480001,32.6228841700001,0
                62.457254156,32.6284131560001,0
                62.6659505010001,32.628636112,0
                62.8271352900001,32.591824106,0
                62.94866597,32.581387025,0
                63.0358203470001,32.602613966,0
                63.1388476560001,32.6027240340001,0
                63.2102335220001,32.547323991,0
                63.2736123650001,32.568525531,0
                63.400355941,32.6241372420001,0
                63.5033380950001,32.6665149230001,0
                63.53247328,32.5952193690001,0
                63.5299049320001,32.5265316740001,0
                63.61184359,32.4843515490001,0
                63.7175239150001,32.473897535,0
                63.8734054980001,32.455571966,0
                63.9843438730001,32.4688991290001,0
                64.119038027,32.5007437730001,0
                64.179746922,32.5483597510001,0
                64.2483697060001,32.6065510980001,0
                64.3276440600001,32.5855019580001,0
                64.409565785,32.559172188,0
                64.467607554,32.6305608770001,0
                64.4807230500001,32.7177519420001,0
                64.554671619,32.7363230460001,0
                64.6577497280001,32.688882047,0
                64.768719149,32.673150225,0
                64.9562365310001,32.715618218,0
                65.090925041,32.752746315,0
                65.1859340390001,32.840024869,0
                65.2650785700001,32.94049512,0
                65.3653653760001,33.0330627710001,0
                65.441859714,33.1414553770001,0
                65.5421606310001,33.2208143980001,0
                65.5977158970001,33.146905341,0
                65.6110120160001,33.0650259490001,0
                65.5556063280001,32.9989235350001,0
                65.4843559290001,32.9275207360001,0
                65.5214191140001,32.8535919220001,0
                65.592768291,32.832534315,0
                65.669355764,32.8537499670001,0
                65.7697441700001,32.851215487,0
                65.7619262370001,32.7508214370001,0
                65.651041483,32.6873014810001,0
                65.550703878,32.642284897,0
                65.429184488,32.642155073,0
                65.2891871260001,32.628796865,0
                65.2099579280001,32.6075783910001,0
                65.1863178620001,32.4807501490001,0
                65.096552805,32.4304614010001,0
                64.9988710360001,32.3722390090001,0
                64.935568393,32.27971087,0
                64.901350135,32.163438242,0
                64.8962021500001,32.036629755,0
                64.9517658830001,31.9547955190001,0
                65.049529497,31.9364078610001,0
                65.1551900650001,31.9444459270001,0
                65.189614347,31.867872565,0
                65.284727767,31.857407263,0
                65.374521047,31.8812787520001,0
                65.4642578830001,31.9579847590001,0
                65.5091220670001,32.00030035,0
                65.5804204440001,32.026793809,0
                65.7019059670001,32.0586243430001,0
                65.810219551,32.0560983290001,0
                65.723211931,31.8975016420001,0
                65.8183281730001,31.8843946120001,0
                65.9345415350001,31.9056525980001,0
                66.024320704,31.942732716,0
                66.140497376,31.9983331390001,0
                66.2857527880001,32.0354725240001,0
                66.285839337,31.954459597,0
                66.2542515150001,31.8487566950001,0
                66.321212867,31.813605179,0
                66.4339076900001,31.8313371,0
                66.5395447400001,31.8613895500001,0
                66.608235258,31.8561794760001,0
                66.6584224050001,31.86151655,0
                66.7112004790001,31.9144075130001,0
                66.803584684,31.98583289,0
                66.895988645,32.038766186,0
                67.020146939,32.0415405570001,0
                67.0334317690001,31.970228069,0
                66.938422771,31.8829495140001,0
                66.838096454,31.827366026,0
                66.7853381370001,31.755982982,0
                66.8778295880001,31.727022775,0
                66.822469056,31.618652748,0
                66.7247590640001,31.5868476150001,0
                66.6508217840001,31.557709607,0
                66.5874768080001,31.5048073560001,0
                66.5056397500001,31.4518853490001,0
                66.4130777440001,31.546888703,0
                66.383951026,31.6102590790001,0
                66.2861874120001,31.6286467370001,0
                66.162054518,31.6020968340001,0
                66.080214638,31.551816552,0
                66.0194831650001,31.525334382,0
                66.0089839950001,31.4619216720001,0
                66.0275550980001,31.387973103,0
                66.117382245,31.380143881,0
                66.215117637,31.3881734820001,0
                66.3193140590001,31.4250739190001,0
                66.439516784,31.307284646,0
                66.4099101030001,31.214908053,0
                66.3924190120001,31.1021756000001,0
                66.4734695700001,31.0670391370001,0
                66.5193234560001,31.007208936,0
                66.4595798030001,30.880342123,0
                66.382160673,30.813335615,0
                66.382288615,30.6935773750001,0
                66.2978211210001,30.630085642,0
                66.213282129,30.6335176320001,0
                66.1324347730001,30.478449831,0
                66.062210765,30.270558802,0
                65.963759429,30.108427584,0
                65.9040985620001,29.904070145,0
                65.8394336260001,29.731408107,0
                65.72129262,29.57277816,0
                65.587516672,29.505711444,0
                65.499496772,29.470394357,0
                65.418559105,29.399861786,0
                65.3376139120001,29.336373816,0
                65.30598846,29.2658939250001,0
                65.2884522140001,29.195429086,0
                65.24268864,29.1707240590001,0
                65.130023921,29.124813729,0
                65.0490599120001,29.078937265,0
                64.936368852,29.0576830430001,0
                64.844792785,29.054062904,0
                64.74268368,29.018730765,0
                64.605355327,28.979838697,0
                64.5067911020001,28.923376514,0
                64.404655656,28.9127004850001,0
                64.316583075,28.926695615,0
                64.2180489530001,28.8420550230001,0
                64.105387997,28.7926223910001,0
                63.992708227,28.7608012650001,0
                63.9082106280001,28.725487942,0
                63.8554588960001,28.6479408710001,0
                63.8626088610001,28.5493239640001,0
                63.936614816,28.514179975,0
                64.04582873,28.4931628200001,0
                64.211376886,28.4933396800001,0
                64.348724055,28.514620243,0
                64.4402925950001,28.5252849840001,0
                64.542390411,28.571184026,0
                64.6585849570001,28.610053517,0
                64.7853614590001,28.634845093,0
                64.8734001730001,28.6525506740001,0
                64.954288922,28.768873161,0
                65.1162771470001,28.8042692700001,0
                65.2500756740001,28.8502021780001,0
                65.25725198,28.7269291630001,0
                65.2432643760001,28.6318119790001,0
                65.1975798240001,28.5331386280001,0
                65.2399151720001,28.469782362,0
                65.408940472,28.5122305990001,0
                65.5322172510001,28.5158846050001,0
                65.5393258240001,28.45601301,0
                65.454948641,28.3079860490001,0
                65.419849807,28.191712481,0
                65.2755521110001,28.0823668620001,0
                65.148828291,28.0082630700001,0
                65.0432232270001,27.9482710610001,0
                64.9623006100001,27.863649283,0
                64.934216276,27.77556165,0
                64.8427041790001,27.7120623910001,0
                64.733550472,27.676722727,0
                64.606740104,27.6836318630001,0
                64.5010974090001,27.6588628650001,0
                64.346176364,27.6023404750001,0
                64.2193961,27.581071201,0
                64.08917632,27.482307538,0
                64.0188732890001,27.3483848330001,0
                64.0013934880001,27.2250854770001,0
                64.096499382,27.2216647760001,0
                64.2443908770001,27.2640904350001,0
                64.4521200980001,27.345325378,0
                64.5612625150001,27.3912319460001,0
                64.6879788090001,27.4723803410001,0
                64.8393512110001,27.5535550760001,0
                64.9696086220001,27.617095727,0
                65.0541250350001,27.634797544,0
                65.099997736,27.557355837,0
                65.0120229920001,27.4797711360001,0
                64.9029219660001,27.395119256,0
                64.7902911140001,27.317508214,0
                64.6740815160001,27.292727928,0
                64.5579020220001,27.2397692320001,0
                64.427659664,27.162139376,0
                64.272746145,27.0985723840001,0
                64.1565403110001,27.0702697950001,0
                64.036804649,27.0490080480001,0
                63.948814853,26.9855125510001,0
                63.9630207100001,26.8763362670001,0
                63.896119565,26.8551309640001,0
                63.783454846,26.8092206330001,0
                63.6848680430001,26.7738922570001,0
                63.5791839550001,26.787868572,0
                63.438254279,26.8229410660001,0
                63.3044256490001,26.805186566,0
                63.219912998,26.7839624480001,0
                63.1319156770001,26.727511554,0
                63.0262504040001,26.723876363,0
                62.9205587910001,26.7448972810001,0
                62.7550294500001,26.727108915,0
                62.571892367,26.7057794340001,0
                62.402874592,26.6562865940001,0
                62.321910583,26.61041013,0
                62.276199691,26.536392887,0
                62.2833233150001,26.4624320880001,0
                62.353837072,26.3991059260001,0
                62.420805951,26.3569098080001,0
                62.5546383430001,26.3711420070001,0
                62.6602772750001,26.3994333050001,0
                62.758905472,26.3960163680001,0
                62.917412787,26.3926634000001,0
                63.1216912040001,26.406970858,0
                63.3083430620001,26.435348705,0
                63.4034000390001,26.47771792,0
                63.5371872760001,26.5342177320001,0
                63.628680558,26.6153284960001,0
                63.804731647,26.6753957650001,0
                63.924459783,26.703702117,0
                64.1533754920001,26.7356474210001,0
                64.340038641,26.753458364,0
                64.4386781250001,26.7394745230001,0
                64.5549404050001,26.714942594,0
                64.6465390500001,26.6974289240001,0
                64.6501591890001,26.6058528570001,0
                64.5691726030001,26.5811102000001,0
                64.4459221650001,26.552800087,0
                64.347316547,26.5350832170001,0
                64.2346631170001,26.478605983,0
                64.2488501600001,26.3870412040001,0
                64.347497171,26.36601276,0
                64.4637142940001,26.383748445,0
                64.6045611860001,26.426166578,0
                64.7172334310001,26.4650323070001,0
                64.8123318,26.468656208,0
                64.8089449660001,26.3418496030001,0
                64.6716467160001,26.2747791240001,0
                64.5272775240001,26.2323572280001,0
                64.3864042910001,26.214595203,0
                64.234941577,26.217955696,0
                64.157402033,26.263662826,0
                64.01999842,26.29521678,0
                63.9037135630001,26.3408825170001,0
                63.7733470260001,26.3794886000001,0
                63.6711814770001,26.3969909790001,0
                63.5725608070001,26.393363315,0
                63.4845258560001,26.372135433,0
                63.382424277,26.329758692,0
                63.2944570590001,26.2451293890001,0
                63.1923855840001,26.174574239,0
                63.039485083,26.164312008,0
                63.044603217,26.0300018460001,0
                63.1678988100001,26.0160443450001,0
                63.2876419980001,26.030261492,0
                63.3721659380001,26.0409187060001,0
                63.477823684,26.0515985000001,0
                63.6257753850001,26.03766734,0
                63.597679762,25.96014661,0
                63.506163901,25.900169653,0
                63.4957098880001,25.7944893280001,0
                63.5310043960001,25.727603236,0
                63.6049539050001,25.7452937640001,0
                63.6859254410001,25.784125626,0
                63.795064095,25.833554495,0
                63.925381713,25.8407383270001,0
                64.03809535,25.8408587430001,0
                64.1790024490001,25.8269200570001,0
                64.2564742600001,25.8446143480001,0
                64.3409869110001,25.8658384670001,0
                64.393802613,25.883506418,0
                64.481878958,25.865988986,0
                64.5628768340001,25.8801647400001,0
                64.6685082390001,25.9155006410001,0
                64.7212825490001,25.9719139040001,0
                64.848085392,25.972049371,0
                64.911456709,26.0002955150001,0
                64.981850051,26.0496829910001,0
                65.0346619910001,26.0708732420001,0
                65.0945072440001,26.1026379240001,0
                65.2142767730001,26.0921989610001,0
                65.186233831,25.9653660160001,0
                65.2215471540001,25.880868417,0
                65.3554021250001,25.873966807,0
                65.4469669040001,25.88815385,0
                65.5033989820001,25.817768034,0
                65.5246381530001,25.7191661790001,0
                65.5247284650001,25.6346309510001,0
                65.5433481420001,25.517666734,0
                65.8439158190001,25.535893716,0
                64.998970736,21.56698842,0
                64.685727936,21.873017744,0
                63.3768107380001,21.8310400930001,0
                63.3540066260001,21.8725529320001,0
                63.322549671,21.922821346,0
                63.275098949,21.9913220820001,0
                63.2481685330001,22.0275903880001,0
                63.2174658500001,22.067195397,0
                63.1828146190001,22.1100402050001,0
                63.1440385600001,22.1560279080001,0
                63.086715186,22.2208558940001,0
                63.0551625630001,22.2551614980001,0
                63.0216166290001,22.290691882,0
                62.9782411910001,22.335331812,0
                62.9317803220001,22.381680536,0
                62.8821460130001,22.429689674,0
                62.8292502580001,22.4793108490001,0
                62.7662213230001,22.536566486,0
                62.733102364,22.565904416,0
                62.6988933200001,22.5957045280001,0
                62.6635788730001,22.625958401,0
                62.6271437080001,22.656657615,0
                62.5895725030001,22.6877937510001,0
                62.550849944,22.7193583860001,0
                62.495809728,22.7633559080001,0
                62.438532911,22.8081227430001,0
                62.378979911,22.853637131,0
                62.317111142,22.899877314,0
                62.2680549780001,22.9358281670001,0
                62.217594825,22.9721835190001,0
                62.165712812,23.008933546,0
                62.1123910690001,23.046068425,0
                62.054791048,23.0854927550001,0
                61.9955609140001,23.1253197680001,0
                61.934679934,23.1655380670001,0
                61.8721273740001,23.2061362540001,0
                61.8339121880001,23.2305095770001,0
                61.795162942,23.2551289040001,0
                61.7557246050001,23.279753902,0
                61.7157469150001,23.3046282290001,0
                61.627975948,23.3581561400001,0
                61.5830081820001,23.38512202,0
                61.537311662,23.412218539,0
                61.495704828,23.436546472,0
                61.4535759920001,23.461097099,0
                61.4107785190001,23.4856225190001,0
                61.3674510590001,23.510368514,0
                61.3173031090001,23.5386088170001,0
                61.2663637270001,23.566967892,0
                61.2146271390001,23.595442565,0
                61.162087571,23.6240296620001,0
                61.0976242040001,23.6586637080001,0
                61.0319735400001,23.693451198,0
                60.9651254410001,23.7283865580001,0
                60.89706977,23.763464217,0
                60.8238430580001,23.8006736090001,0
                60.749245086,23.838029051,0
                60.673263897,23.8755239710001,0
                60.6347345840001,23.8942882150001,0
                60.5958875330001,23.913151796,0
                60.538435115,23.9407383760001,0
                60.4802260910001,23.9683898970001,0
                60.4212557920001,23.9961037910001,0
                60.3615195460001,24.0238774910001,0
                60.093678991,24.1373008260001,0
                59.7972079900001,24.262848391,0
                59.6433594370001,24.406146085,0
                59.5126845840001,24.5278593200001,0
                59.3029512900001,24.613581181,0
                59.1366629940001,24.6815462700001,0
                59.090452971,24.695582213,0
                59.0350055040001,24.710838853,0
                58.960054234,24.729553905,0
                58.903941097,24.742340171,0
                58.8411780930001,24.7555093570001,0
                58.7721429750001,24.7686880790001,0
                58.6972134980001,24.781502953,0
                58.6496925210001,24.788845773,0
                58.600275502,24.7958442660001,0
                58.5490434870001,24.8024183220001,0
                58.4960775260001,24.8084878290001,0
                58.442545899,24.8138711770001,0
                58.3875019800001,24.818617101,0
                58.3310221360001,24.822650117,0
                58.273182739,24.825894738,0
                58.189801242,24.8289758240001,0
                58.1041002650001,24.830143822,0
                58.0470477260001,24.829775108,0
                57.9891569800001,24.8284453470001,0
                57.9304867430001,24.826096496,0
                57.8710957380001,24.822670514,0
                57.8231638180001,24.8191201110001,0
                57.7748392010001,24.8148154130001,0
                57.7261518380001,24.8097268120001,0
                57.677131681,24.803824702,0
                57.507483112,24.9201252880001,0
                57.330853179,25.041211866,0
                57.2179874990001,25.118585608,0
                57.114421673,25.2837501710001,0
                57.0175190240001,25.438288442,0
                56.917238459,25.5982137410001,0
                56.8317138450001,25.734606566,0
                56.8355180790001,25.888742144,0
                56.8370224560001,25.9496947370001,0
                56.8155767330001,26.129257313,0
                56.800187877,26.25810642,0
                56.786409201,26.426533459,0
                56.7745695670001,26.57125812,0
                56.748894368,26.7080371050001,0
                56.7377282740001,26.767522022,0
                56.5890919710001,26.73695367,0
                56.3908679830001,26.696187176,0
                56.242442,26.665662078,0
                56.1102709460001,26.547292585,0
                55.9828839190001,26.4621784400001,0
                55.899311164,26.406338975,0
                55.7277277040001,26.301996597,0
                55.6914727820001,26.3306182050001,0
                55.6495353440001,26.3604247230001,0
                55.5947301140001,26.3952546150001,0
                55.5567053980001,26.416855377,0
                55.515361727,26.4379763310001,0
                55.471182442,26.457764001,0
                55.424650881,26.4753649150001,0
                55.377017907,26.4897259790001,0
                55.328034953,26.5003268730001,0
                55.2781630760001,26.506353475,0
                55.2278633280001,26.506991661,0
                55.1648033770001,26.4989102060001,0
                55.1027086810001,26.47943629,0
                55.0381129830001,26.443977616,0
                54.9768174860001,26.39150849,0
                54.947760907,26.3582699830001,0
                54.9199539700001,26.3200290820001,0
                54.893538204,26.2765358820001,0
                54.868655136,26.227540473,0
                54.8383925360001,26.154008096,0
                54.8244572130001,26.113302837,0
                54.8113734790001,26.0698756960001,0
                54.799181994,26.023654621,0
                54.7879235140001,25.9745678940001,0
                54.777638745,25.9225436410001,0
                54.76836839,25.867509985,0
                54.5714417460001,25.760330292,0
                54.362442194,25.7292565160001,0
                54.193530256,25.7126593460001,0
                53.9878985620001,25.6924541180001,0
                53.733640221,25.66747087,0
                53.4998065300001,25.6444945320001,0
                53.2951926430001,25.6243893130001,0
                53.029134728,25.5982466460001,0
                52.9335954260001,25.7802637130001,0
                52.803649254,26.0278311610001,0
                52.6935550250001,26.2375776060001,0
                52.53127564,26.3767069780001,0
                52.380176336,26.5062511670001,0
                52.1413207860001,26.7110327070001,0
                52.0542903800001,26.7856477650001,0
                51.908124915,26.910961953,0
                51.7131258160001,27.0781433980001,0
                51.5123442180001,27.1177329700001,0
                51.228698582,27.173661447,0
                50.9896289960001,27.2208005410001,0
                50.8264721190001,27.365356879,0
                50.6409120850001,27.5297623270001,0
                50.524113889,27.633245061,0
                50.446774888,27.7795467130001,0
                50.3808554410001,27.904246072,0
                50.3575180380001,27.9756848910001,0
                50.341328757,28.025242377,0
                50.2533999620001,28.0245029330001,0
                50.1648491170001,28.023758258,0
                50.1134455750001,28.0233259770001,0
                50.0302268980001,28.022626143,0
                49.9585268970001,28.0220231760001,0
                49.930602557,28.0488182070001,0
                49.924342407,28.1010122340001,0
                49.944903541,28.139419688,0
                49.9761618580001,28.172725434,0
                50.025996132,28.2114262200001,0
                50.0483584350001,28.2261060430001,0
                50.0680131180001,28.238133109,0
                49.9646478600001,28.3216268100001,0
                49.8465624250001,28.417010793,0
                49.772214154,28.4770659060001,0
                49.7354087370001,28.527562308,0
                49.694166221,28.584146332,0
                49.6369080790001,28.662703521,0
                49.63349787,28.73936826,0
                49.631149287,28.792166625,0
                49.597142988,28.872782699,0
                49.5518462690001,28.9801640900001,0
                49.5084438390001,29.083054836,0
                49.472552309,29.1681400780001,0
                49.408781162,29.2430973530001,0
                49.3315333260001,29.3338952670001,0
                49.289410419,29.383406973,0
                49.253331965,29.425813964,0
                49.1447473750001,29.4423132200001,0
                49.05429658,29.4560570740001,0
                48.971881124,29.468579972,0
                48.9080830550001,29.5125143820001,0
                48.867816304,29.5402439970001,0
                48.7683445010001,29.60874505,0
                48.692935295,29.660675446,0
                48.640555824,29.6967464620001,0
                48.57221531,29.776849193,0
                48.5143710560001,29.844649132,0
                48.4449793580001,29.925983968,0
                48.355845446,30.0244538790001,0
                48.228986159,30.0771529300001,0
                48.0757265450001,30.1139734020001,0
                47.9489462810001,30.092704128,0
                47.8379027650001,30.17779269,0
                47.7374185420001,30.270015523,0
                47.6157332180001,30.425205987,0
                47.6208981360001,30.536164119,0
                47.673653631,30.610188889,0
                47.7892092000001,30.620879256,0
                47.8902299980001,30.6526879260001,0
                48.0698673580001,30.652879838,0
                48.2230874590001,30.6530435280001,0
                48.4027248190001,30.6532354400001,0
                48.5348336920001,30.6322427440001,0
                48.709159378,30.65884627,0
                48.862323035,30.711844478,0
                49.0207532100001,30.7806986850001,0
                49.2689964200001,30.8549323,0
                49.406939177,30.9451051680001,0
                48.9804443400001,31.4199540160001,0
                48.9144519930001,31.3723323940001,0
                48.824774425,31.240150144,0
                48.7720584410001,31.129141212,0
                48.7616157160001,31.0128939840001,0
                48.5874311420001,30.8542041640001,0
                48.4712572920001,30.795962016,0
                48.3972438110001,30.838150607,0
                48.365379411,30.9913368420001,0
                48.301819945,31.1392057580001,0
                48.2012876050001,31.2764682590001,0
                48.105999206,31.4507205670001,0
                48.1006367310001,31.524683247,0
                47.9260514000001,31.7411185020001,0
                47.787792439,31.9470256500001,0
                47.6508547060001,32.168784583,0
                47.486949167,32.279562092,0
                47.328400458,32.3216603710001,0
                47.1963198080001,32.316235808,0
                47.0272493520001,32.316055185,0
                46.8792901240001,32.3370309470001,0
                46.667788364,32.49002527,0
                46.5303565290001,32.5479964830001,0
                46.355844575,32.695746865,0
                46.218345006,32.8171195,0
                46.0333733940001,32.8644730090001,0
                45.853521544,33.0650522650001,0
                45.7265493680001,33.22342035,0
                45.7052744490001,33.3554840670001,0
                45.8850077650001,33.2658572990001,0
                46.027649674,33.276576603,0
                46.119302883,33.207989567,0
                46.29556846,33.0672856690001,0
                46.5528770700001,32.89848991,0
                46.8524307160001,32.7508731130001,0
                47.0250799180001,32.6982229810001,0
                47.261145593,32.631551379,0
                47.5007298080001,32.56840584,0
                47.6347089560001,32.445268293,0
                47.8073957890001,32.3573951490001,0
                47.9518853970001,32.2871034070001,0
                48.233677017,32.280359844,0
                48.3781703880001,32.2065458010001,0
                48.593162464,32.083494801,0
                48.751778906,31.9779950990001,0
                48.9139891470001,31.8055754390001,0
                49.090375141,31.5521579030001,0
                49.2173473170001,31.393789817,0
                49.3830741460001,31.226721227,0
                49.5558682910001,31.038398644,0
                49.7849984910001,30.869572781,0
                50.035292601,30.6725910870001,0
                50.29614609,30.4826652840001,0
                50.588689,30.3033402500001,0
                50.8178417770001,30.1133805800001,0
                50.9166995150001,29.89510327,0
                50.9767968880001,29.6908737730001,0
                51.0333794860001,29.4795959090001,0
                51.1744295770001,29.331809779,0
                51.308461408,29.1593600150001,0
                51.4847156980001,29.0292230200001,0
                51.593959716,28.9800274560001,0
                51.717262836,28.9590253530001,0
                51.844076967,28.948593917,0
                51.9428556820001,28.804284932,0
                52.045100254,28.7128142280001,0
                52.140311512,28.610769093,0
                52.2037166960001,28.607314526,0
                52.295255135,28.6461576770001,0
                52.3903271620001,28.6744376870001,0
                52.446687744,28.670975593,0
                52.492564208,28.5900115850001,0
                52.5912450860001,28.5372824300001,0
                52.6899109120001,28.4986424800001,0
                52.763875473,28.502243805,0
                52.86245475,28.544616782,0
                52.862398306,28.5974512990001,0
                52.9257282300001,28.664442755,0
                53.070112475,28.6927754480001,0
                53.1722893130001,28.6647061640001,0
                53.225244246,28.552048971,0
                53.3943335180001,28.5346180880001,0
                53.485695095,28.739009394,0
                53.975720176,28.3415124150001,0
                54.116578356,28.373363645,0
                54.303090985,28.532066636,0
                54.4263451850001,28.556854448,0
                54.581510823,28.384427261,0
                54.7894582970001,28.2613687360001,0
                55.0359817500001,28.296855156,0
                55.465773991,28.230390518,0
                55.680446214,28.406735118,0
                55.779096988,28.3821843740001,0
                55.8320594460001,28.2624825780001,0
                56.0820525190001,28.3472849770001,0
                55.9937993140001,28.530350565,0
                56.0747783750001,28.562137824,0
                56.2227601800001,28.5200282550001,0
                56.3530853240001,28.5201674850001,0
                56.46938147,28.463934845,0
                56.5891735770001,28.4323620750001,0
                56.5892450740001,28.3654383530001,0
                56.5506088870001,28.263250226,0
                56.452055951,28.19622114,0
                56.3710543130001,28.185567688,0
                56.283053228,28.132639096,0
                56.1458452900001,27.9810333890001,0
                56.0789178040001,27.9844841940001,0
                55.9520961470001,28.001960232,0
                55.9522052730001,27.8998134980001,0
                55.9205835860001,27.825811307,0
                55.829090303,27.744700542,0
                55.9348233090001,27.6849343110001,0
                56.0581038510001,27.6850660150001,0
                56.2411995410001,27.7451408110001,0
                56.3715246850001,27.7452800400001,0
                56.4841931670001,27.7876680700001,0
                56.494665996,27.8757368880001,0
                56.424186106,27.9073623400001,0
                56.297383263,27.907226872,0
                56.3360081600001,28.019981902,0
                56.5437373820001,28.1012168450001,0
                56.677626219,28.0626145260001,0
                56.8360658020001,28.12266298,0
                57.0402727220001,28.2038941600001,0
                57.233886397,28.309770159,0
                57.2478589500001,28.418976548,0
                57.30763647,28.5141426500001,0
                57.4624897800001,28.6340664620001,0
                57.4306611280001,28.7537908350001,0
                57.3355213660001,28.7889122460001,0
                57.2439039060001,28.8240374210001,0
                57.1240929840001,28.873221696,0
                56.8951095400001,28.904677813,0
                56.6942254840001,29.0101323580001,0
                56.577948152,29.0487534920001,0
                56.4827632340001,29.1261425180001,0
                56.412249477,29.1894686800001,0
                56.317090901,29.2422015970001,0
                56.225597619,29.1610908330001,0
                56.2256728780001,29.090644809,0
                56.1729136210001,29.0201423400001,0
                56.0708158050001,28.9742432990001,0
                55.9546174960001,28.938896109,0
                55.852542258,28.8718632600001,0
                55.7362875050001,28.8893505880001,0
                55.679878004,28.9386025970001,0
                55.6163787450001,29.030114693,0
                55.5211298570001,29.167382839,0
                55.4647918530001,29.1497111250001,0
                55.366186235,29.131994256,0
                55.2674978310001,29.1917680130001,0
                55.130015196,29.2972902920001,0
                55.0313267920001,29.357064049,0
                54.89030304,29.480194071,0
                54.7704695410001,29.550512154,0
                54.6190068270001,29.553872647,0
                54.4535151160001,29.500861269,0
                54.249244226,29.479509208,0
                54.2351173920001,29.5147171680001,0
                54.1856998110001,29.6132889200001,0
                54.1855191880001,29.782359376,0
                54.090454687,29.747034764,0
                54.030575567,29.746970794,0
                53.970560979,29.873709665,0
                53.9247070930001,29.933539866,0
                53.790754285,30.032021306,0
                53.5863554530001,30.1304274870001,0
                53.6074064750001,30.207940691,0
                53.5861785930001,30.295975642,0
                53.46988621,30.3486859810001,0
                53.3606309020001,30.408448449,0
                53.29359429,30.5140459880001,0
                53.2265426270001,30.6337327320001,0
                53.0785984510001,30.640619289,0
                52.90947155,30.693273183,0
                52.754422564,30.756509034,0
                52.6029109310001,30.805659442,0
                52.7541591560001,31.003070117,0
                52.7012343270001,31.0875489000001,0
                52.648298208,31.182594587,0
                52.500338981,31.2035703490001,0
                52.41925832,31.266885222,0
                52.3171605040001,31.2209861800001,0
                52.3312911020001,31.1822559190001,0
                52.3701681200001,31.05901677,0
                52.3702810090001,30.9533477350001,0
                52.3069360320001,30.900445484,0
                52.2612439540001,30.8088167350001,0
                52.2613718960001,30.6890584940001,0
                52.2509668000001,30.5375882540001,0
                52.194609981,30.537528046,0
                52.0712880470001,30.5761416550001,0
                51.9972519890001,30.6394640550001,0
                51.9337414410001,30.7415430550001,0
                51.866678488,30.871796702,0
                51.8524312390001,31.0197183000001,0
                51.8522920080001,31.1500434430001,0
                51.8520173110001,31.4071714290001,0
                51.830653962,31.6220092230001,0
                51.953874295,31.6784977460001,0
                52.175670143,31.7808815490001,0
                52.2354852930001,31.8408246390001,0
                52.312934526,31.8796527370001,0
                52.418580983,31.9008994340001,0
                52.4184944350001,31.9819123610001,0
                52.3057469300001,32.013492656,0
                52.228233727,32.034543678,0
                52.1296318710001,32.013304507,0
                52.0521412460001,32.013221722,0
                52.009813423,32.0695333850001,0
                52.0519568600001,32.185814479,0
                52.034168493,32.3513438200001,0
                51.9988137780001,32.474586732,0
                51.9563805920001,32.6295228280001,0
                51.8928136000001,32.7844363460001,0
                51.829227793,32.95696137,0
                51.6635592220001,33.069498148,0
                51.5366848830001,33.136286403,0
                51.395713813,33.2101042090001,0
                51.30405496,33.283974696,0
                51.187739999,33.3578188430001,0
                51.0749548640001,33.4246221500001,0
                50.983363744,33.435091216,0
                50.909478205,33.357521567,0
                50.8742363790001,33.3750954430001,0
                50.789659757,33.4137504450001,0
                50.701545783,33.4664908880001,0
                50.588771938,33.522727291,0
                50.451323169,33.59654886,0
                50.4406885320001,33.659938993,0
                50.4476014300001,33.7832270600001,0
                50.458044155,33.8994742880001,0
                50.4578371910001,34.093200853,0
                50.503333594,34.3679892640001,0
                50.538413613,34.5018743380001,0
                50.4644302360001,34.515884521,0
                50.39755167,34.47354541,0
                50.337721468,34.4276915240001,0
                50.270842901,34.385352412,0
                50.193416246,34.3253905070001,0
                50.0772593300001,34.251298004,0
                49.950565614,34.1490158030001,0
                49.8273603320001,34.0784380740001,0
                49.6971330260001,33.9867190140001,0
                49.577446283,33.9196673500001,0
                49.4648041410001,33.8526232130001,0
                49.4015043210001,33.757453346,0
                49.3064623970001,33.7009949270001,0
                49.2465983280001,33.6868417520001,0
                49.2042705060001,33.7431534150001,0
                49.1865649260001,33.83119213,0
                49.168829241,33.947409254,0
                49.1968082130001,34.1341213200001,0
                49.3023342560001,34.2680816550001,0
                49.471209038,34.4514219390001,0
                49.5979667240001,34.4938250210001,0
                49.678862999,34.6031029050001,0
                49.8478205660001,34.7089525640001,0
                50.0414267150001,34.821873166,0
                50.1541403530001,34.8219935810001,0
                50.19634776,34.878395556,0
                50.2173272850001,35.0228324810001,0
                50.160921547,35.0685621900001,0
                50.090407789,35.131888351,0
                50.0551396230001,35.1741183350001,0
                50.0022561860001,35.2198518060001,0
                50.0092142400001,35.3008722590001,0
                50.227574335,35.3222393710001,0
                50.414233719,35.3435726160001,0
                50.7030624170001,35.343881181,0
                50.974279607,35.3441709300001,0
                51.2032291840001,35.3444155240001,0
                51.3617327370001,35.344584857,0
                51.3616424250001,35.4291200860001,0
                51.417908933,35.513715522,0
                51.456548883,35.6123813470001,0
                51.3508610330001,35.6298799640001,0
                51.2733741690001,35.6262748770001,0
                51.1571608080001,35.605016891,0
                51.058558953,35.583777721,0
                50.9564272710001,35.5695793900001,0
                50.8261021270001,35.5694401600001,0
                50.7063438870001,35.569312219,0
                50.6218086580001,35.569221907,0
                50.5302288280001,35.56912407,0
                50.424544741,35.5831003850001,0
                50.375168554,35.642926823,0
                50.438457086,35.7486635930001,0
                50.396170656,35.7662299420001,0
                50.2939852100001,35.802356328,0
                50.1917981650001,35.839980015,0
                50.068472469,35.8821159250001,0
                50.0050672840001,35.8855704920001,0
                49.871234891,35.8713382940001,0
                49.7831773610001,35.8712442190001,0
                49.656378282,35.8675864510001,0
                49.5330939780001,35.870977048,0
                49.4309811110001,35.8391672110001,0
                49.3183077840001,35.8013139820001,0
                49.2372948560001,35.8012274340001,0
                49.149237327,35.8011333590001,0
                49.0822808200001,35.8317500730001,0
                49.0258788450001,35.8739574800001,0
                49.0081845540001,35.9514292910001,0
                49.0081205820001,36.0113084110001,0
                49.082058804,36.039565843,0
                49.13480301,36.1241575170001,0
                49.1135977060001,36.1910586610001,0
                49.028957114,36.2895927820001,0
                48.964515083,36.363492346,0
                48.9301332430001,36.476169381,0
                49.0463804720001,36.4657266560001,0
                49.1274197390001,36.441157097,0
                49.2402274520001,36.353219982,0
                49.3917277950001,36.3146364770001,0
                49.5079900750001,36.290104548,0
                49.606588167,36.3148660200001,0
                49.6558514650001,36.3607086160001,0
                49.6275752180001,36.452258343,0
                49.588758409,36.519140673,0
                49.4830630320001,36.543683892,0
                49.394971636,36.575290528,0
                49.328029099,36.5928305370001,0
                49.183589893,36.615943402,0
                49.1271262270001,36.7158965890001,0
                49.067126692,36.828546256,0
                49.000150288,36.877786976,0
                48.933170121,36.9305499970001,0
                48.8485972620001,36.965682697,0
                48.7287848390001,37.01627233,0
                48.5983595960001,37.1098298740001,0
                48.506715795,37.1696111570001,0
                48.443237219,37.241763043,0
                48.4098594540001,37.300460893,0
                48.5768532550001,37.458515113,0
                48.7813423970001,37.2755737040001,0
                48.996428549,37.0644651750001,0
                49.274893542,36.874558187,0
                49.535701875,36.7268999980001,0
                49.6555240850001,36.667148819,0
                49.8140652690001,36.632095142,0
                49.96201697,36.6181639810001,0
                49.9621712520001,36.4737496330001,0
                49.751020657,36.503259122,0
                49.793191107,36.3890337820001,0
                49.821425961,36.336229368,0
                49.9623104820001,36.343424489,0
                50.212412681,36.3260801550001,0
                50.6211049820001,36.227892227,0
                50.9382701330001,36.080294247,0
                51.1356845700001,35.925523721,0
                51.5795773040001,35.848507231,0
                51.8332733010001,35.7642429370001,0
                51.988548065,35.4896690160001,0
                52.1646555980001,35.4969017670001,0
                52.3619496200001,35.4548448800001,0
                52.7492973870001,35.5538832410001,0
                53.1578090630001,35.6247657700001,0
                53.5381122270001,35.7237966050001,0
                53.925332052,35.942593205,0
                54.291448174,36.1331888190001,0
                54.763233332,36.3238973220001,0
                55.1574977590001,36.542701449,0
                55.488360765,36.7614378430001,0
                55.769986815,36.9096755300001,0
                55.9178181,37.008458009,0
                56.255778391,37.177889711,0
                56.3404566130001,37.044132577,0
                56.558703818,37.171168725,0
                56.7487726150001,37.2981747690001,0
                56.8685308550001,37.29830271,0
                57.04465344,37.291446256,0
                57.241947462,37.249389369,0
                57.3828846640001,37.207272274,0
                57.446429079,37.0734925620001,0
                57.5874114380001,36.9891078540001,0
                57.6860810270001,36.9469456030001,0
                57.974922894,36.934926112,0
                58.0490210410001,36.813485744,0
                58.0121610570001,36.697210295,0
                58.0387363610001,36.5493018670001,0
                57.94368503,36.5016492010001,0
                57.869671549,36.543837792,0
                57.7956750020001,36.570176029,0
                57.6424041000001,36.6175634050001,0
                57.4363212590001,36.6437605290001,0
                57.1721486710001,36.6434783060001,0
                56.892108793,36.659029505,0
                56.6649034340001,36.6746371470001,0
                56.5751581320001,36.6058563190001,0
                56.643922027,36.5319613720001,0
                56.8024763810001,36.484579641,0
                57.0667562150001,36.3844762800001,0
                57.7430662630001,36.3587815130001,0
                58.229194627,36.3117497380001,0
                58.3665813050001,36.2960461390001,0
                58.3770183870001,36.417576819,0
                58.5090990370001,36.423001383,0
                58.63068616,36.359729784,0
                58.910799415,36.2754937130001,0
                59.08519848,36.233412366,0
                59.0850460790001,36.376065564,0
                58.9898649250001,36.4499322880001,0
                58.8048312230001,36.555403767,0
                58.656753462,36.687332016,0
                58.498148309,36.782264814,0
                58.365960414,36.8772258340001,0
                58.191465394,37.00912586,0
                58.0486372180001,37.1727604660001,0
                57.9375718410001,37.278310967,0
                57.752566362,37.357365187,0
                57.6045732680001,37.4100416590001,0
                57.4195960110001,37.4626786210001,0
                57.2398965620001,37.520604678,0
                57.0443241790001,37.599647609,0
                56.9280374400001,37.6470744970001,0
                56.8909629660001,37.731570214,0
                56.9102566000001,37.805559235,0
                57.0018439570001,37.7986124700001,0
                57.2132196570001,37.7636152370001,0
                57.530309549,37.6864632800001,0
                57.7909974660001,37.651518728,0
                58.0023957450001,37.5953876880001,0
                58.178650034,37.465250693,0
                58.4041939620001,37.356300187,0
                58.5381919260001,37.2155511330001,0
                58.7989325250001,37.131294365,0
                59.031472137,37.068141301,0
                59.228863995,36.934504583,0
                59.4191585710001,36.8501725560001,0
              </coordinates>
            </LinearRing>
          </outerBoundaryIs>
        </Polygon>
      </Placemark>
    </Document>
  </Document>
</kml>
