<?xml version="1.0" encoding="UTF-8"?>
<kml xmlns="http://www.opengis.net/kml/2.2">
  <Document id="root_doc">
    <Schema id="Bioregions_PA3.schema">
      <SimpleField name="OBJECTID" type="float"/>
      <SimpleField name="Shape_Leng" type="float"/>
      <SimpleField name="Shape_Area" type="float"/>
      <SimpleField name="Bioregions" type="string"/>
    </Schema>
    <Document id="Bioregions_PA3">
      <name>Bioregions_PA3</name>
      <Placemark id="Bioregions_PA3.1">
        <ExtendedData>
          <SchemaData schemaUrl="#Bioregions_PA3.schema">
            <SimpleData name="OBJECTID">180</SimpleData>
            <SimpleData name="Shape_Leng">136.84664195200</SimpleData>
            <SimpleData name="Shape_Area">252.55777237900</SimpleData>
            <SimpleData name="Bioregions">PA3</SimpleData>
          </SchemaData>
        </ExtendedData>
        <Polygon>
          <outerBoundaryIs>
            <LinearRing>
              <coordinates>
                36.4272374710001,73.4904475380001,0
                35.990606815,73.1856195060001,0
                35.580767301,72.899495363,0
                35.252516588,72.670331382,0
                35.0451458950001,72.525558222,0
                34.817116089,72.3663621680001,0
                34.446044435,72.1073033040001,0
                33.919902022,71.7399837990001,0
                33.311320854,71.3151107470001,0
                32.959208167,71.0692878390001,0
                32.5106007260001,70.7560983700001,0
                31.98987787,70.392562459,0
                31.569813068,70.267964308,0
                30.9994015500001,70.0987708390001,0
                30.4440557990001,70.080585699,0
                29.9646274730001,70.0648865220001,0
                29.6586226920001,70.054866207,0
                29.6097558760001,69.945606689,0
                29.578141714,69.8645598950001,0
                29.620473299,69.8047259310001,0
                29.6768263540001,69.8083084400001,0
                29.7683948960001,69.818973181,0
                29.863455636,69.857820094,0
                29.937435249,69.8473322130001,0
                30.0114713070001,69.784009815,0
                29.9904278120001,69.699452008,0
                29.937668554,69.6289495390001,0
                29.786220891,69.6182208280001,0
                29.6559108000001,69.6039923930001,0
                29.5220934590001,69.575670991,0
                29.3882761180001,69.547349588,0
                29.2156833600001,69.547165202,0
                29.124099766,69.5505896650001,0
                29.1240132180001,69.6316025930001,0
                29.1239266690001,69.71261552,0
                29.028783145,69.751259233,0
                28.9336810130001,69.7511576320001,0
                28.8244670990001,69.772174787,0
                28.697630389,69.80374003,0
                28.602516968,69.8142053330001,0
                28.525067736,69.7753772350001,0
                28.419447619,69.72947443,0
                28.313782346,69.725839239,0
                28.2151014680001,69.778568394,0
                28.183325499,69.8489805510001,0
                28.1620750390001,69.9581493090001,0
                28.158447375,70.0567699790001,0
                28.0422415400001,70.028467391,0
                27.9401324350001,69.993135253,0
                27.8379744110001,70.00359303,0
                27.8380571970001,69.9261024050001,0
                27.809931469,69.8767600850001,0
                27.764201761,69.820354347,0
                27.704367797,69.778022762,0
                27.595146357,69.8060845190001,0
                27.5950598090001,69.887097446,0
                27.594961971,69.978677276,0
                27.609013546,70.01391534,0
                27.4716212220001,70.0349023910001,0
                27.365963476,70.024222599,0
                27.270887685,69.9994648890001,0
                27.235751221,69.918414333,0
                27.204155874,69.819756032,0
                27.09501722,69.770327164,0
                26.883679149,69.7701013860001,0
                26.7498505190001,69.7523468860001,0
                26.623055202,69.745166817,0
                26.4892152830001,69.737979221,0
                26.376527986,69.713202697,0
                26.3061195920001,69.6779044260001,0
                26.2321475050001,69.6813477050001,0
                26.161641273,69.7376292640001,0
                25.9961044070001,69.7268855,0
                25.8798458900001,69.747895129,0
                25.7002085300001,69.747703217,0
                25.552215436,69.8003796890001,0
                25.3725893640001,69.789620874,0
                25.214063233,69.810585347,0
                25.119040124,69.7365154220001,0
                24.939391475,69.7468904130001,0
                24.812678944,69.6622197180001,0
                24.6436875100001,69.5880707700001,0
                24.432405884,69.535010474,0
                24.326748137,69.524330681,0
                24.231634716,69.5347959840001,0
                24.1998587460001,69.605208141,0
                24.2526481090001,69.6475321990001,0
                24.277236483,69.7109599620001,0
                24.280668473,69.795498953,0
                24.210162241,69.8517805120001,0
                24.0904002390001,69.8551748730001,0
                23.9424635890001,69.855016827,0
                23.8509402030001,69.802084472,0
                23.8193222780001,69.724559979,0
                23.865194979,69.6471182720001,0
                23.886415334,69.5661279220001,0
                23.823077884,69.506181069,0
                23.6927565030001,69.5025195380001,0
                23.6328209390001,69.555290084,0
                23.601048731,69.6221799400001,0
                23.505931547,69.636167544,0
                23.446090057,69.600880562,0
                23.382763895,69.530366805,0
                23.27713249,69.495030904,0
                23.231406545,69.435102865,0
                23.1962813700001,69.3434854050001,0
                23.1540739650001,69.2870834300001,0
                23.083676859,69.241218254,0
                22.9991642090001,69.2199941360001,0
                22.925218462,69.198781307,0
                22.861832093,69.1846243680001,0
                22.798457012,69.1599005260001,0
                22.735100747,69.1175651780001,0
                22.7034451920001,69.0752636970001,0
                22.6260486400001,68.987123383,0
                22.5450319500001,68.9905591350001,0
                22.474570875,69.0045730800001,0
                22.411158164,69.015072251,0
                22.3617932660001,69.064331785,0
                22.3300511630001,69.1030432310001,0
                22.294794285,69.134706312,0
                22.245455727,69.159309738,0
                22.153838267,69.1944349130001,0
                22.0763476400001,69.1943521270001,0
                21.9636565810001,69.1730979050001,0
                21.8615060830001,69.1765110800001,0
                21.7910224300001,69.2116588320001,0
                21.685323291,69.2397243520001,0
                21.6042652080001,69.2819054180001,0
                21.5338003690001,69.299441664,0
                21.42109802,69.288754345,0
                21.3013698840001,69.260447995,0
                21.248599337,69.2005124300001,0
                21.2178855060001,69.1009744950001,0
                21.270751068,69.071971955,0
                21.449509735,69.070401776,0
                21.5923288860001,69.0621602750001,0
                21.700082669,69.055942251,0
                21.741062943,68.9932225360001,0
                21.7279192250001,68.93244873,0
                21.5918961240001,68.929895876,0
                21.4294098440001,68.9268463660001,0
                21.289409662,68.9161298830001,0
                21.151997581,68.955609016,0
                21.043652954,68.9871940140001,0
                20.9777170520001,68.8867378750001,0
                21.041172095,68.8366128170001,0
                21.160094916,68.7944722030001,0
                21.2129802330001,68.7469775820001,0
                21.3345617140001,68.6889894350001,0
                21.474581652,68.681213836,0
                21.524850644,68.6099408600001,0
                21.5037704600001,68.5597254900001,0
                21.213169323,68.5699819480001,0
                21.2264654430001,68.4881025560001,0
                21.1736704360001,68.4510619490001,0
                21.044217401,68.4588488380001,0
                20.970195453,68.5089626070001,0
                20.8672584560001,68.424317311,0
                20.9703534980001,68.361025957,0
                21.0311696380001,68.3082563510001,0
                20.9968808240001,68.2580268710001,0
                20.8991821230001,68.215654833,0
                20.8332236430001,68.1363325010001,0
                20.6958454300001,68.144110922,0
                20.5769592980001,68.1519090990001,0
                20.500343603,68.1571107060001,0
                20.402594101,68.1622897350001,0
                20.355065613,68.141105128,0
                20.281159378,68.0829081360001,0
                20.244228837,68.032675833,0
                20.246935475,67.97191896,0
                20.2892595340001,67.919129598,0
                20.3130661110001,67.8900960130001,0
                20.3166533240001,67.8293400810001,0
                20.28505045,67.7377263830001,0
                20.235802204,67.677794582,0
                20.2376273260001,67.617917343,0
                20.2007278310001,67.5386260560001,0
                20.230727598,67.482301222,0
                20.359312287,67.4630659140001,0
                20.398178016,67.350393669,0
                20.2995648720001,67.3397214020001,0
                20.1938920740001,67.3431308140001,0
                20.095265759,67.3447866010001,0
                19.996601814,67.3816654,0
                19.9067417420001,67.420314757,0
                19.822153832,67.4695366620001,0
                19.751681467,67.4941175100001,0
                19.681241088,67.488758799,0
                19.661951217,67.4112474770001,0
                19.6550006900001,67.3231824210001,0
                19.589858813,67.3037401500001,0
                19.415501142,67.307076184,0
                19.3432883240001,67.312282494,0
                19.256991945,67.312190301,0
                19.190058815,67.3209245580001,0
                19.131925794,67.334951673,0
                19.0720335030001,67.3472157570001,0
                19.0138816670001,67.3788543790001,0
                18.97862667,67.4087563090001,0
                18.9134640980001,67.408686693,0
                18.8606784990001,67.3628403340001,0
                18.8695275260001,67.3223432770001,0
                18.904786286,67.288919046,0
                18.9365114560001,67.2660579550001,0
                18.9823333570001,67.2361673130001,0
                19.00705908,67.1710310830001,0
                19.0599180570001,67.1481925690001,0
                19.151507296,67.1394846540001,0
                19.2219627260001,67.1307541610001,0
                19.2871365870001,67.1202568720001,0
                19.2924971800001,67.048055343,0
                19.2027123660001,67.0162586760001,0
                19.024843683,67.0090240430001,0
                18.8381767720001,66.9947354000001,0
                18.7025512440001,67.0104408810001,0
                18.624998528,67.0684760650001,0
                18.589711546,67.1283175560001,0
                18.522746431,67.166991372,0
                18.448723543,67.217985717,0
                18.3958570400001,67.2478688310001,0
                18.3060383600001,67.2477728750001,0
                18.2391146370001,67.247701379,0
                18.1316825700001,67.249347759,0
                18.1017768770001,67.217615063,0
                18.1247320420001,67.161282704,0
                18.170576521,67.1102582550001,0
                18.149497277,67.05916231,0
                18.0825904880001,67.0432404580001,0
                17.9663658380001,67.0325493760001,0
                17.8712505350001,67.04477583,0
                17.8588491040001,67.1134475330001,0
                17.75315749,67.13446845,0
                17.6668611110001,67.134376257,0
                17.584096441,67.125482074,0
                17.582414312,67.051511868,0
                17.6159138040001,67.0163246050001,0
                17.6705828500001,66.9476980580001,0
                17.695295403,66.894889881,0
                17.7517067850001,66.8438767220001,0
                17.850363203,66.814042525,0
                17.936687804,66.787717458,0
                18.0529237440001,66.787841637,0
                18.1638762310001,66.7879601710001,0
                18.2871567720001,66.7880918750001,0
                18.3928314520001,66.782921313,0
                18.482668947,66.765405763,0
                18.524953494,66.7496005630001,0
                18.572536545,66.719711804,0
                18.650061038,66.6880938790001,0
                18.709994722,66.637084482,0
                18.7435111460001,66.586046863,0
                18.655504417,66.538401723,0
                18.5339680920001,66.554122255,0
                18.375481473,66.5381025660001,0
                18.238111727,66.53795581,0
                18.0690469150001,66.5324917350001,0
                17.9739560730001,66.521823231,0
                17.894882119,66.505888381,0
                17.7837630970001,66.5110531270001,0
                17.693966995,66.4898233640001,0
                17.6253103440001,66.4633327270001,0
                17.524919116,66.4685089340001,0
                17.4298113400001,66.473690784,0
                17.3558317260001,66.484178666,0
                17.2659791790001,66.515783421,0
                17.244907461,66.457642874,0
                17.157741796,66.4469828360001,0
                17.1101709750001,66.4654241170001,0
                17.0520106720001,66.5049879160001,0
                17.020428494,66.394001562,0
                16.9200796000001,66.3595518810001,0
                16.9307198820001,66.2908782970001,0
                16.9994499110001,66.2486840610001,0
                17.036546963,66.1430545360001,0
                17.0577710810001,66.0585418860001,0
                17.100112074,65.9899021690001,0
                17.1767559910001,65.958283302,0
                17.2930229740001,65.929348496,0
                17.282529449,65.8606523350001,0
                17.1848166360001,65.8314889270001,0
                17.0606301190001,65.855131815,0
                16.910015054,65.889313384,0
                16.7910978780001,65.926170546,0
                16.656344458,65.949802145,0
                16.5506359120001,65.9866734180001,0
                16.4793460010001,65.9522547810001,0
                16.4847366990001,65.851874842,0
                16.447806158,65.8016425390001,0
                16.347445975,65.7777597610001,0
                16.244393265,65.801425227,0
                16.1624658960001,65.8330384480001,0
                16.096400171,65.8541017000001,0
                16.099123741,65.7774944710001,0
                16.014639313,65.729853093,0
                15.9142424410001,65.7403127520001,0
                15.811206665,65.748127862,0
                15.7108182590001,65.750662343,0
                15.75059937,65.6054097530001,0
                15.6475777050001,65.6000162350001,0
                15.565639047,65.6421963600001,0
                15.47844516,65.6579535810001,0
                15.396540368,65.668432995,0
                15.356976569,65.6102726930001,0
                15.2459930370001,65.6392131430001,0
                15.1851768970001,65.691982749,0
                15.127030705,65.7183379190001,0
                15.050510966,65.6337208460001,0
                15.082259655,65.5888453730001,0
                15.1483394900001,65.554573492,0
                15.2434924230001,65.507124027,0
                15.288410229,65.499246827,0
                15.338611488,65.491375272,0
                15.4310803610001,65.483548872,0
                15.5235294780001,65.4942145540001,0
                15.6265624320001,65.4890411700001,0
                15.7401538230001,65.4918042510001,0
                15.848481517,65.4760696070001,0
                15.848569007,65.394176105,0
                15.8671288210001,65.33079444,0
                15.695419461,65.3279692680001,0
                15.5607055520001,65.314616705,0
                15.5026101610001,65.2934208090001,0
                15.505316798,65.2326639350001,0
                15.4895398200001,65.1639621300001,0
                15.4155968960001,65.1401075740001,0
                15.360168631,65.0951389670001,0
                15.2756531580001,65.0765565740001,0
                15.185865522,65.047401633,0
                15.088099087,65.0684310180001,0
                15.035225058,65.105358736,0
                14.9453414660001,65.166022475,0
                14.879250341,65.2108612590001,0
                14.784131276,65.2266100140001,0
                14.675800759,65.2449863840001,0
                14.593893145,65.2581075240001,0
                14.5463731240001,65.228997738,0
                14.5147373240001,65.1682041770001,0
                14.6257377900001,65.1234133710001,0
                14.7076538700001,65.1023670530001,0
                14.7869338690001,65.0760344610001,0
                14.8371492380001,65.054954277,0
                14.900584527,65.023321299,0
                14.9745980070001,64.9811327080001,0
                15.0036908590001,64.949463042,0
                14.8848978610001,64.8700842640001,0
                14.8136023060001,64.840949079,0
                14.668287627,64.859285938,0
                14.525589273,64.9014011510001,0
                14.419866616,64.9514810540001,0
                14.3115417440001,64.964573971,0
                14.2190644040001,64.9803255480001,0
                14.1239368720001,65.0039994810001,0
                14.039376244,65.027684703,0
                13.986637682,64.937809578,0
                13.8889559140001,64.879587185,0
                13.801824115,64.8372264380001,0
                13.712047768,64.797504594,0
                13.564136519,64.7735710150001,0
                13.437285698,64.8183448880001,0
                13.3474331520001,64.8499496420001,0
                13.265522716,64.865712509,0
                13.1308342070001,64.828584413,0
                13.05426649,64.78887668,0
                12.982965291,64.765024946,0
                12.8851960330001,64.788696056,0
                12.951120646,64.899719099,0
                13.0382524450001,64.942079848,0
                13.135928569,65.0055856920001,0
                13.2415383370001,65.061174824,0
                13.2546679440001,65.13515726,0
                13.1674655900001,65.1588396600001,0
                13.0460111100001,65.0979501410001,0
                12.950942846,65.0661478310001,0
                12.8875837580001,65.0264542080001,0
                12.818924285,65.0026052970001,0
                12.792526782,64.9840849930001,0
                12.729193094,64.920615839,0
                12.6817238730001,64.8439549880001,0
                12.570833475,64.7857184850001,0
                12.441439707,64.738029129,0
                12.3463714420001,64.7062268180001,0
                12.261824925,64.71670341,0
                12.211584155,64.761559128,0
                12.303940138,64.859401764,0
                12.338175329,64.959824036,0
                12.190207636,64.9887249760001,0
                12.084532956,64.9938955380001,0
                11.989425179,64.9990773900001,0
                11.8520610780001,64.9936471820001,0
                11.656612873,64.956454174,0
                11.54567732,64.9404852850001,0
                11.487604506,64.8981555810001,0
                11.408414819,64.8399529450001,0
                11.2552398730001,64.7975216410001,0
                11.1231705120001,64.7815301740001,0
                10.9805624700001,64.7391101590001,0
                10.8643829760001,64.686151463,0
                10.7798985480001,64.6385100860001,0
                10.721837023,64.5856134790001,0
                10.542239174,64.5484374050001,0
                10.4049089390001,64.5113064860001,0
                10.3310591480001,64.400274977,0
                10.225463491,64.3314772140001,0
                10.088184056,64.246795229,0
                9.97732188100002,64.1621414680001,0
                9.91928293400002,64.088111053,0
                9.86655001700007,63.9929524770001,0
                9.75034794500004,63.9611275880001,0
                9.66054055300003,63.950464728,0
                9.54435541500004,63.902789484,0
                9.48102737200003,63.8340368770001,0
                9.46000645400005,63.728345264,0
                9.44421818800004,63.670210362,0
                9.57984183600007,63.656266031,0
                9.61507801700003,63.6439756070001,0
                9.63802189400008,63.598210151,0
                9.61869063100005,63.559444141,0
                9.52896226200005,63.474812957,0
                9.43392786300006,63.4113099350001,0
                9.32966132400003,63.3730372910001,0
                9.21739100800005,63.331826736,0
                9.12759490500002,63.310596973,0
                8.92688582700004,63.252264514,0
                8.75255449700006,63.230944439,0
                8.60994645500006,63.1885244250001,0
                8.58890296000004,63.1039666180001,0
                8.64707737300006,63.05119419,0
                8.74749682400005,63.019600724,0
                8.82152159400005,62.9668452280001,0
                8.89541654000004,63.0356091240001,0
                8.99050738300002,63.046277628,0
                9.12259367800004,63.04641874,0
                9.23352358700004,63.0676710810001,0
                9.25989004600007,63.1152503700001,0
                9.37613162900004,63.1100910960001,0
                9.46072894600007,63.0520634380001,0
                9.49251432400007,62.9728455280001,0
                9.52432792400003,62.8672103600001,0
                9.57717937500007,62.8514164490001,0
                9.63529170000004,62.8567619890001,0
                9.72512166900003,62.8462910420001,0
                9.77799569800004,62.8093633240001,0
                9.66187264800004,62.70357011,0
                9.73593692900005,62.613830453,0
                9.81515483900006,62.645615831,0
                9.89433888200006,62.7091019200001,0
                9.96287135400007,62.8518284950001,0
                10.0050655910001,62.9205585240001,0
                10.0790113370001,62.9417713540001,0
                10.200502506,62.9683184350001,0
                10.279771216,62.952552747,0
                10.3221347850001,62.8627792230001,0
                10.390825303,62.857569149,0
                10.4700375680001,62.894637978,0
                10.5492554780001,62.9264233550001,0
                10.6548906470001,62.9582369560001,0
                10.7605540370001,62.9636332970001,0
                10.887351236,62.9690522160001,0
                10.9930767160001,62.9163305880001,0
                11.067101485,62.8635750920001,0
                11.1780821950001,62.8372763680001,0
                11.230944934,62.810915553,0
                11.2978498420001,62.828598556,0
                11.294274859,62.8779070090001,0
                11.2378427800001,62.9482928250001,0
                11.160280658,63.0151337630001,0
                11.216569744,63.0785953910001,0
                11.279993743,63.057529318,0
                11.3610518250001,63.0153482520001,0
                11.449143222,62.983741616,0
                11.512567221,62.9626755420001,0
                11.600643565,62.9451581110001,0
                11.6675597610001,62.95227421,0
                11.678025065,63.0473876300001,0
                11.639185678,63.1354037670001,0
                11.537016366,63.156428448,0
                11.4419292850001,63.142237643,0
                11.336233909,63.1667808620001,0
                11.2692424530001,63.2301107870001,0
                11.205792113,63.2758329690001,0
                11.1352745930001,63.3426814310001,0
                11.089435759,63.3884224280001,0
                11.2126749080001,63.4272994450001,0
                11.3253810190001,63.434464463,0
                11.4486540350001,63.4416407690001,0
                11.5437749810001,63.4241308640001,0
                11.6212994740001,63.392512939,0
                11.681197409,63.374965403,0
                11.7763033040001,63.3715447020001,0
                11.8467418010001,63.3786645650001,0
                11.8960239140001,63.4068956560001,0
                11.945290975,63.449215952,0
                12.026307665,63.4457801990001,0
                12.1073281180001,63.4388221460001,0
                12.065143289,63.361286363,0
                12.0229321200001,63.3084066900001,0
                12.022999853,63.245005269,0
                12.1111025390001,63.2028317290001,0
                12.1885781130001,63.21700372,0
                12.241337371,63.2875061880001,0
                12.325872599,63.2875964990001,0
                12.371692619,63.259467009,0
                12.4456684690001,63.2525014290001,0
                12.5266813960001,63.2525879780001,0
                12.614738926,63.2526820520001,0
                12.660566471,63.217507959,0
                12.7309711020001,63.2563285320001,0
                12.8155063300001,63.2564188430001,0
                12.8930308230001,63.224800918,0
                12.907187762,63.161414549,0
                12.9002108920001,63.0980056010001,0
                13.062232984,63.1017009990001,0
                13.146726819,63.140536624,0
                13.252395855,63.140649513,0
                13.319315814,63.1442433110001,0
                13.417902617,63.179571686,0
                13.5658355050001,63.183252032,0
                13.558858635,63.1198430860001,0
                13.643416442,63.0987995900001,0
                13.742059689,63.0812934480001,0
                13.7641342800001,63.0249601470001,0
                13.698161688,62.9588464440001,0
                13.6004291200001,62.9481751170001,0
                13.4920957800001,62.969193213,0
                13.4048793150001,63.006084242,0
                13.235825791,62.990053264,0
                13.143362563,62.9925962120001,0
                13.0456271730001,62.984566611,0
                12.982228574,62.981857152,0
                12.871315598,62.9447544550001,0
                12.7947337690001,62.9182553520001,0
                12.752508489,62.878584308,0
                12.829166517,62.833756813,0
                12.9058245460001,62.7889293170001,0
                12.9481711820001,62.715006148,0
                12.8504809470001,62.664708934,0
                12.8214840520001,62.6065599190001,0
                12.8215433190001,62.5510836760001,0
                12.731733105,62.5430625430001,0
                12.6498113810001,62.569392312,0
                12.5758289450001,62.582521919,0
                12.4860102640001,62.582425963,0
                12.4173395020001,62.5691439560001,0
                12.3434106890001,62.5320807700001,0
                12.3144335490001,62.455439675,0
                12.1744361880001,62.442081467,0
                12.055558524,62.4419544670001,0
                11.947228007,62.4603308360001,0
                11.875825208,62.531581235,0
                11.8440708740001,62.58174016,0
                11.8123419410001,62.6081235520001,0
                11.7436598900001,62.605408448,0
                11.6987731290001,62.584226663,0
                11.7702220240001,62.4698280750001,0
                11.770349965,62.3500698350001,0
                11.7281801890001,62.2584448480001,0
                11.6295106000001,62.300607099,0
                11.566176913,62.237137944,0
                11.495800504,62.1719001120001,0
                11.4747287860001,62.1137595650001,0
                11.4272031200001,62.0899332320001,0
                11.403506609,62.015939507,0
                11.456383461,61.976370064,0
                11.49867083,61.9579231380001,0
                11.5251699350001,61.88134131,0
                11.525243312,61.812656437,0
                11.604602334,61.7123555200001,0
                11.559791772,61.6198471370001,0
                11.4833002560001,61.5088128040001,0
                11.43044316,61.529890166,0
                11.343198472,61.593198455,0
                11.3431025150001,61.6830171340001,0
                11.298136732,61.7358036740001,0
                11.2690128350001,61.796532325,0
                11.202887843,61.8730718200001,0
                11.173724436,61.9707846330001,0
                11.0917236880001,62.071082727,0
                11.0361966450001,62.1185745270001,0
                11.012333622,62.2004426280001,0
                10.95141306,62.350956092,0
                11.049120228,62.3854029510001,0
                11.125735924,62.380201345,0
                11.1758779150001,62.4278060340001,0
                11.26037081,62.4675222330001,0
                11.336980861,62.467604077,0
                11.4188574300001,62.483541922,0
                11.519209146,62.5153498780001,0
                11.540252642,62.5999076840001,0
                11.4847227760001,62.6500412090001,0
                11.3895980660001,62.6710734160001,0
                11.265482105,62.628673157,0
                11.199467181,62.602185342,0
                11.117573678,62.602097852,0
                11.025090694,62.6231328810001,0
                10.96970194,62.5411801120001,0
                10.8931314010001,62.5041141040001,0
                10.798091358,62.445894535,0
                10.7162458330001,62.400897705,0
                10.658085531,62.440461505,0
                10.5788535090001,62.421884757,0
                10.539300999,62.35315755,0
                10.512988163,62.2553854700001,0
                10.5130587190001,62.1893423220001,0
                10.579149844,62.144503539,0
                10.6822477100001,62.078570459,0
                10.7536194640001,62.036379045,0
                10.758970649,61.9729832680001,0
                10.7326380580001,61.8937032690001,0
                10.671915051,61.8592959210001,0
                10.632314563,61.8354780550001,0
                10.674647088,61.7747635150001,0
                10.7566478360001,61.674465421,0
                10.8359645240001,61.6137903920001,0
                10.8730164200001,61.550428482,0
                10.907404012,61.5081975570001,0
                10.973500782,61.4580753220001,0
                11.0554648410001,61.3921196630001,0
                11.126859172,61.328794443,0
                11.1454161660001,61.268054503,0
                11.1164220920001,61.2072637630001,0
                11.142921195,61.130681935,0
                11.174709395,61.0488222990001,0
                11.113992034,61.009131499,0
                11.0056276490001,61.0592085800001,0
                10.9130910430001,61.1304364000001,0
                10.8232638970001,61.1382656220001,0
                10.683255247,61.135474318,0
                10.5801771380001,61.182915317,0
                10.484936716,61.312258285,0
                10.405588983,61.401992298,0
                10.315713859,61.4547308590001,0
                10.270708563,61.5445015610001,0
                10.1808165040001,61.6130904780001,0
                10.117361461,61.663215537,0
                10.0037446700001,61.684227988,0
                9.93234751500006,61.750194934,0
                9.84522418400007,61.6999090080001,0
                9.76860566600004,61.7077523410001,0
                9.71043407400003,61.757883044,0
                9.63907925300003,61.7842241020001,0
                9.55190229900006,61.784130969,0
                9.52275582500005,61.865993427,0
                9.43021357400005,61.942504699,0
                9.31653187200004,62.0242768460001,0
                9.21604186500002,62.1219134580001,0
                9.15789849500004,62.145626903,0
                9.05220970400006,62.1640060940001,0
                8.96235433500004,62.1982525750001,0
                8.86986853000008,62.221929329,0
                8.82769122700006,62.137348945,0
                8.91229136700002,62.076679561,0
                8.96257164700006,61.994839681,0
                8.91511936000006,61.902328476,0
                9.04459779500007,61.8707660540001,0
                9.15027247500007,61.8655954910001,0
                9.22164140800004,61.8260458030001,0
                9.26923198400004,61.789112442,0
                9.33267573900002,61.7495542870001,0
                9.38816609400004,61.7364049240001,0
                9.44893990100007,61.7232612070001,0
                9.44899070100007,61.6757101410001,0
                9.45170016000003,61.612311542,0
                9.53095758100005,61.607112757,0
                9.62573543800005,61.5916561780001,0
                9.70798426000005,61.5782428620001,0
                9.81366740700003,61.5651471210001,0
                9.91406710200005,61.5520457380001,0
                9.98542192300005,61.5257046790001,0
                10.0462154850001,61.49406888,0
                10.072683544,61.446546035,0
                10.054256374,61.3857665850001,0
                10.0146699970001,61.348740089,0
                9.91957633200008,61.3407133110001,0
                9.89321834000003,61.2852088450001,0
                9.89592215600004,61.227093697,0
                9.82731630500007,61.1530519950001,0
                9.75865965400004,61.1265613580001,0
                9.64770152200003,61.1317262750001,0
                9.55259656800007,61.134266401,0
                9.48390040700002,61.1447599270001,0
                9.40465427400005,61.139391808,0
                9.36242617100004,61.1023624900001,0
                9.25675431400003,61.1048913270001,0
                9.19326822500005,61.184075369,0
                9.13242386300004,61.2632622340001,0
                9.04523279800003,61.27637773,0
                8.91841020000004,61.2947343440001,0
                8.81803872700004,61.2814184690001,0
                8.76525783200003,61.2311692330001,0
                8.80494863200005,61.1704518710001,0
                8.90542170400005,61.088665613,0
                8.96622937800004,61.0438211850001,0
                9.00323329600008,61.025368615,0
                9.02178746600003,60.9672704010001,0
                9.02184673300007,60.9117941580001,0
                9.11698555400005,60.877553322,0
                9.19889599000004,60.8617904550001,0
                9.26759779700006,60.8460134790001,0
                9.31255793600008,60.798510391,0
                9.30734504100008,60.732461599,0
                9.27569230800003,60.6875183920001,0
                9.19645464300004,60.674225096,0
                9.14095864300003,60.69265791,0
                9.08808743700007,60.7269439020001,0
                9.02728540800007,60.7665048790001,0
                8.95066406900003,60.7769899370001,0
                8.85819801800005,60.7821746110001,0
                8.83450150800007,60.708180886,0
                8.89798477300008,60.6316385690001,0
                8.96144828400003,60.573588333,0
                9.03283132800004,60.520830016,0
                9.12796168100004,60.4945143570001,0
                9.23101439100003,60.4708488910001,0
                9.34990899000007,60.4551255370001,0
                9.44238632900004,60.4393739590001,0
                9.45038770700006,60.368055827,0
                9.43727785600004,60.2755813100001,0
                9.43468128600006,60.233310874,0
                9.32368364300004,60.275459954,0
                9.23393551900006,60.209320851,0
                9.13882774200005,60.2145027020001,0
                9.09384784600007,60.2804978710001,0
                8.98812236600003,60.3332195,0
                8.94318198200006,60.3622305060001,0
                8.86920519000006,60.370076661,0
                8.77413128100005,60.3435578030001,0
                8.81385030300004,60.256423182,0
                8.87469748700005,60.17459459,0
                8.88530672400003,60.1349799910001,0
                8.82988974800003,60.0794444810001,0
                8.76119358500006,60.0899380060001,0
                8.67138619500003,60.079275146,0
                8.64769815100004,59.9973562440001,0
                8.72436746800003,59.941961845,0
                8.76403851200007,59.8997365650001,0
                8.79314829700007,59.852216544,0
                8.74829822400005,59.7966923220001,0
                8.67440045500007,59.730570152,0
                8.61627119600007,59.741074966,0
                8.53701377500005,59.746273751,0
                8.43398646600002,59.7461636840001,0
                8.36797154100003,59.7196758690001,0
                8.37596445300005,59.6562829150001,0
                8.38129870500006,59.608737493,0
                8.31791421700007,59.5928194040001,0
                8.25451844000003,59.5874682190001,0
                8.16470822700006,59.579447085,0
                8.07486696900003,59.600484937,0
                8.00615105100007,59.6294705430001,0
                7.98755737000005,59.7245529190001,0
                7.93992445800006,59.8011121700001,0
                7.82633306800005,59.7983490880001,0
                7.82905099400006,59.727025311,0
                7.77889489200004,59.6926292520001,0
                7.69170947000003,59.7004612960001,0
                7.69180542700008,59.6106426160001,0
                7.71299567800003,59.557830677,0
                7.75002217400004,59.5182442990001,0
                7.76063987800006,59.4707045220001,0
                7.81878889200004,59.441707627,0
                7.83468722500004,59.3968152200001,0
                7.84793818800006,59.3572034430001,0
                7.84535572900006,59.301724377,0
                7.85599601100006,59.2330507930001,0
                7.90364585500004,59.1406411880001,0
                7.91163312100002,59.0825316840001,0
                8.05699860200002,59.0166437600001,0
                8.11516172600005,58.9744382360001,0
                8.10203494200005,58.8978140740001,0
                8.01488338800004,58.8739454070001,0
                8.00968178100004,58.7973297120001,0
                7.98596833700003,58.739186342,0
                7.96750165600002,58.7153910540001,0
                7.89354744200006,58.702103402,0
                7.83543229600002,58.699399586,0
                7.77729457000004,58.7178295780001,0
                7.75608174100006,58.7917753250001,0
                7.70321335600005,58.8234195910001,0
                7.63718432000007,58.8101404060001,0
                7.61349345400004,58.7308632300001,0
                7.57391554400004,58.6859115560001,0
                7.49467787800006,58.67261826,0
                7.41015393900005,58.6619610440001,0
                7.35726015500006,58.7173808430001,0
                7.33603603600005,58.8018934930001,0
                7.30429299200006,58.841485515,0
                7.25410020000004,58.841431893,0
                7.21452511100006,58.7938384930001,0
                7.20405416500006,58.7040085240001,0
                7.20413036500003,58.632681925,0
                7.18566932800007,58.6036031850001,0
                7.14606136300006,58.5877102480001,0
                7.07998660400006,58.616698763,0
                7.07220652400002,58.640921179,0
                7.05877990200003,58.6827195000001,0
                7.03415549900006,58.697049608,0
                6.99534210300004,58.7196355070001,0
                6.93219905900003,58.6797856970001,0
                6.92406202300003,58.674650274,0
                6.92562620800004,58.653079474,0
                6.92942652500005,58.6006882660001,0
                6.95324821800006,58.558444842,0
                7.00613118100006,58.5109516480001,0
                7.02203300600007,58.4634172280001,0
                7.01978729900003,58.4349770140001,0
                7.01681853600007,58.3973679420001,0
                6.97461318100005,58.3392047620001,0
                6.94379535600007,58.3129526490001,0
                6.92182779600006,58.2942395950001,0
                6.89941054600007,58.285534172,0
                6.83996759300004,58.2624503010001,0
                6.76549526300005,58.2736531020001,0
                6.75277462000003,58.2755666520001,0
                6.70904000300004,58.2888791080001,0
                6.65764288600008,58.304523939,0
                6.54669209700006,58.3044053500001,0
                6.23992514000003,57.8453424370001,0
                6.49310938600007,57.119997922,0
                6.49776027600007,57.10770254,0
                6.42801495200007,57.087628334,0
                6.10930215000008,56.9958957010001,0
                5.89380108400007,56.933869702,0
                5.72850629400006,56.8862941850001,0
                5.38883935900003,56.7885304860001,0
                5.06036513900006,56.6939883000001,0
                4.64120626000005,56.573345052,0
                4.38874176900003,56.500680156,0
                4.18091991900008,56.4408644050001,0
                3.98842284500006,56.385459466,0
                3.78824746000004,56.3278445380001,0
                3.45349290700005,56.231494732,0
                3.28751517600006,56.18372265,0
                3.15114558100004,56.1444724470001,0
                2.95356902100002,56.296182317,0
                2.81354951900005,56.4036967930001,0
                2.63879475100003,56.5378828680001,0
                2.47305642600003,56.665145635,0
                2.35039296900004,56.9226698790001,0
                2.25585203400004,57.121152652,0
                2.13784622100007,57.368898465,0
                2.04015830200007,57.5739881330001,0
                1.95484934600006,57.7530889430001,0
                1.85160260500004,57.9698490100001,0
                1.71767999800005,58.1160673860001,0
                1.61212374800004,58.231315018,0
                1.49293816100004,58.361443331,0
                1.37254620900006,58.4928887680001,0
                1.42578381600003,58.7305698370001,0
                1.47084866500006,58.931763356,0
                1.51798137200007,59.142188898,0
                1.56944630800007,59.3719558180001,0
                1.66663845200003,59.5313800430001,0
                1.78049821800005,59.7181441600001,0
                1.85472449500003,59.8398974850001,0
                1.94034267700005,59.9803369460001,0
                1.91204463800005,60.1336090460001,0
                1.86033975100003,60.413660846,0
                1.79947075700005,60.743348666,0
                1.75875321100006,60.9638891720001,0
                1.71916633100005,61.1783055990001,0
                1.67340494600006,61.426165311,0
                1.64164026200007,61.478683222,0
                1.60981478500003,61.5305842650001,0
                1.57793572800006,61.581870554,0
                1.54601030200007,61.6325442020001,0
                1.51565181200004,61.6801076730001,0
                1.48526418100005,61.727122207,0
                1.45485359100007,61.773589615,0
                1.42442622000004,61.8195117070001,0
                1.39744291500006,61.8596255470001,0
                1.37058733500004,61.899404356,0
                1.34360208100003,61.9386721170001,0
                1.31674948500006,61.9776067810001,0
                1.28119770300003,62.0283503360001,0
                1.24567115900004,62.0783633980001,0
                1.21017971400005,62.127648854,0
                1.17473322600006,62.176209595,0
                1.14987385200004,62.209774956,0
                1.12514414500004,62.243060476,0
                1.10035017400003,62.2759201050001,0
                1.07568991600004,62.3085011920001,0
                1.05097490900005,62.3406590870001,0
                1.02639769200005,62.372539697,0
                1.00177729200004,62.4040014890001,0
                0.977294627000049,62.435183947,0
                0.930052686000067,62.4943985720001,0
                0.883037212000033,62.5523259970001,0
                0.836272701000041,62.6089733970001,0
                0.78978365200004,62.664347949,0
                0.747521333000066,62.713891528,0
                0.70552874200007,62.762381599,0
                0.663824629000032,62.809823656,0
                0.622427744000049,62.8562231910001,0
                0.588317134000022,62.893944746,0
                0.554441779000058,62.930955118,0
                0.520812402000047,62.9672574470001,0
                0.487439719000065,63.0028548720001,0
                0.438564679000024,63.0542285320001,0
                0.390309535000029,63.1040766450001,0
                0.342708988000027,63.152409376,0
                0.295797737000044,63.1992368910001,0
                0.246647075000055,63.2474519370001,0
                0.198359035000067,63.293984424,0
                0.150975498000037,63.338846618,0
                0.104538348000062,63.382050791,0
                0.0532711570000401,63.428877749,0
                0.00332550100006301,63.473622199,0
                -0.0452382419999253,63.5163018280001,0
                -0.09235969599996,63.5569343230001,0
                -0.144440162999956,63.600946725,0
                -0.194462001999966,63.642327558,0
                -0.242334711999945,63.681103331,0
                -0.287967791999961,63.7173005600001,0
                -0.328376128999935,63.7487184230001,0
                -0.366689973999939,63.77794384,0
                -0.402836203999925,63.8049982310001,0
                -0.436741693999977,63.8299030160001,0
                -0.479907681999975,63.8609169380001,0
                -0.518430699999954,63.8878968180001,0
                -0.571281042999942,63.92371719,0
                -0.610112171999958,63.948986533,0
                -0.642224699999929,63.9688951150001,0
                -0.626260263999939,64.17626856,0
                -0.612783254999954,64.3513310660001,0
                -0.602252533999945,64.4881221050001,0
                -0.376901124999961,64.6123662530001,0
                -0.116898074999938,64.7557150690001,0
                0.109591582000064,64.880586775,0
                0.293988073000037,64.9822510380001,0
                0.512669917000039,65.0871948440001,0
                0.836516177000021,65.242606279,0
                1.07643861800005,65.3577432910001,0
                1.24689659800003,65.4395448210001,0
                1.33945575900003,65.4757437740001,0
                1.59158652400004,65.6472776190001,0
                1.85976269800005,65.829727747,0
                2.07630168700007,65.9770471960001,0
                2.23455974800004,66.084715982,0
                2.49634399200005,66.20587484,0
                2.74192630400006,66.319535128,0
                2.94285769500004,66.412530098,0
                3.20479003300005,66.5337574980001,0
                3.26105884300006,66.724023323,0
                3.31137431700006,66.8941587050001,0
                3.21998365900004,67.01582326,0
                3.17502503400004,67.0910094650001,0
                3.12892840300003,67.1826509730001,0
                3.07521622700006,67.3206440920001,0
                3.05253087600005,67.398471317,0
                3.03395296300005,67.481908004,0
                3.01616668100007,67.614595336,0
                3.01263413300006,67.7583374650001,0
                3.01987366100002,67.8609371590001,0
                3.03597462700003,67.9680371310001,0
                3.05664623700005,68.059755952,0
                3.08457161700005,68.1542928920001,0
                3.12029688400003,68.251533684,0
                3.16436815800006,68.351364059,0
                3.21101394600004,68.4422263180001,0
                3.26507621900004,68.5349658280001,0
                3.34359806200007,68.6533081310001,0
                3.38765588500007,68.713481464,0
                3.43503636400004,68.774296824,0
                3.48493927600003,68.834683743,0
                3.53823191100003,68.895653515,0
                3.62475129900002,68.9881915990001,0
                3.71940285900007,69.081937328,0
                3.78755436300003,69.145424028,0
                3.85958543500004,69.209406259,0
                3.91787159900002,69.2591002460001,0
                3.97856275000004,69.3090692860001,0
                4.04170041900005,69.35930469,0
                4.10732613500005,69.4097977660001,0
                4.22095539000003,69.493505827,0
                4.34163318700007,69.5778505660001,0
                4.40398838700003,69.6197946360001,0
                4.46813604600004,69.6618802830001,0
                4.53409862600006,69.7041028070001,0
                4.60189858800004,69.746457509,0
                4.70319979200002,69.8079072300001,0
                4.80845517400007,69.8696091320001,0
                4.91773258000006,69.9315490180001,0
                5.03109985900005,69.9937126940001,0
                5.11593919100005,70.0389406670001,0
                5.20299247700007,70.0842735210001,0
                5.29228561800005,70.129705835,0
                5.38384451900004,70.1752321910001,0
                5.48685849200007,70.2252461320001,0
                5.59266107900004,70.275359451,0
                5.70128641200006,70.325565005,0
                5.81276862500005,70.375855653,0
                5.91402516800002,70.4446059360001,0
                6.03737738300003,70.524166651,0
                6.11629575600006,70.573383402,0
                6.20635136800007,70.6281825120001,0
                6.27889569500007,70.6713613970001,0
                6.35711663300003,70.7170204710001,0
                6.44091015700008,70.7649536150001,0
                6.53017223800003,70.8149547070001,0
                6.63751985500005,70.873702531,0
                6.75157104600004,70.9345313910001,0
                6.84312799700007,70.9822210680001,0
                6.93844295300005,71.030818916,0
                7.03744892700007,71.0801922050001,0
                7.14007893000007,71.1302082030001,0
                7.22884884200005,71.17253112,0
                7.32007853600004,71.215134183,0
                7.41372856000004,71.2579392220001,0
                7.50975946200003,71.300868064,0
                7.58840098900004,71.3353037420001,0
                7.66852561300004,71.3697285000001,0
                7.75011303900004,71.4041021180001,0
                7.83314296800006,71.438384376,0
                7.91874542700003,71.4729952390001,0
                8.00578763600004,71.507429072,0
                8.09424846300004,71.541644004,0
                8.18410677600002,71.5755981630001,0
                8.28961840400007,71.614440868,0
                8.39693402400007,71.652815192,0
                8.50602106300005,71.6906565950001,0
                8.61684694800005,71.7279005350001,0
                8.70045891400002,71.755199825,0
                8.78500302200007,71.78210562,0
                8.87046583400007,71.808591296,0
                8.95683391200004,71.8346302260001,0
                9.06762705700004,71.8669628650001,0
                9.17982665400007,71.8984801560001,0
                9.29340530600007,71.9291278170001,0
                9.40833561900007,71.95885157,0
                9.50684370500005,71.9832950630001,0
                9.60628752900004,72.0070019080001,0
                9.70665038300007,72.029938997,0
                9.80791555700006,72.0520732200001,0
                10.13884362,72.2520315850001,0
                10.411427544,72.3623435390001,0
                10.806644869,72.5222839880001,0
                11.1772401380001,72.672260141,0
                11.5486650710001,72.76569204,0
                11.999355625,72.8790631970001,0
                12.3572655420001,72.9690953960001,0
                12.768192761,73.072464091,0
                13.1095074,73.158321748,0
                13.440842087,73.2416689510001,0
                13.842733346,73.3003169720001,0
                14.231063514,73.3569860220001,0
                14.6431838620001,73.4171267740001,0
                14.842345294,73.4461904170001,0
                15.1124927180001,73.48561305,0
                15.321454766,73.516106898,0
                15.625001098,73.5604034360001,0
                16.0371217860001,73.620544238,0
                16.4263449790001,73.6773436080001,0
                16.559305556,73.7063939810001,0
                16.71833078,73.7400808950001,0
                16.818886773,73.7609488520001,0
                16.932674407,73.7842080250001,0
                17.05674672,73.8091708200001,0
                17.192441812,73.8360222140001,0
                17.339192984,73.8645548090001,0
                17.416537507,73.879386745,0
                17.4964335350001,73.8945612050001,0
                17.589567936,73.912063758,0
                17.685759445,73.929932218,0
                17.7849062720001,73.948129334,0
                17.8869066230001,73.9666178520001,0
                18.009155804,73.988467025,0
                18.134976255,74.010602046,0
                18.2642072,74.032964076,0
                18.3966878580001,74.0554942740001,0
                18.495004669,74.0719548760001,0
                18.594894008,74.0884506800001,0
                18.6962939950001,74.1049590370001,0
                18.7991427490001,74.1214573,0
                18.880260322,74.1342933020001,0
                18.9621909320001,74.1470986990001,0
                19.04490529,74.159862773,0
                19.1283741070001,74.1725748060001,0
                19.432125441,74.21737804,0
                19.509351645,74.228396633,0
                19.5870515290001,74.2393270920001,0
                19.6652042590001,74.2501617890001,0
                19.743789001,74.2608931010001,0
                19.8383492520001,74.273585934,0
                19.933462406,74.2861068020001,0
                20.0290927830001,74.2984426450001,0
                20.1252046990001,74.310580406,0
                20.2311648740001,74.323653881,0
                20.3376146150001,74.336455954,0
                20.4445067990001,74.348969379,0
                20.551794301,74.3611769090001,0
                20.6970565010001,74.3771284540001,0
                20.8428365890001,74.3924497140001,0
                20.9353990600001,74.401809928,0
                21.0280935390001,74.4108894760001,0
                21.1208906260001,74.419677597,0
                21.2137609230001,74.4281635310001,0
                21.3440294930001,74.439531216,0
                21.4743031570001,74.450254149,0
                21.6045008990001,74.4603026830001,0
                21.734541705,74.4696471670001,0
                21.8441220760001,74.476964675,0
                21.9534842030001,74.483741637,0
                22.0625793730001,74.489960228,0
                22.171358867,74.495602617,0
                22.291438806,74.5011590330001,0
                22.4110053100001,74.5059621840001,0
                22.5299921430001,74.5099878280001,0
                22.648333071,74.5132117270001,0
                22.762693653,74.5155542110001,0
                22.8763203890001,74.5170938420001,0
                22.989152432,74.5178083480001,0
                23.1011289310001,74.5176754600001,0
                23.198447102,74.523364374,0
                23.316742322,74.5297086800001,0
                23.3923211540001,74.533532135,0
                23.478481636,74.5377045870001,0
                23.6234609140001,74.5443242630001,0
                23.7039910410001,74.5478011660001,0
                23.789734438,74.551355809,0
                23.907776762,74.5560118810001,0
                24.034062455,74.5607011750001,0
                24.1683552690001,74.5653696520001,0
                24.310418956,74.5699632760001,0
                24.4078901030001,74.5729150600001,0
                24.508547794,74.5757958520001,0
                24.6123249930001,74.5785903180001,0
                24.7191546620001,74.5812831250001,0
                24.814537564,74.5835314720001,0
                24.912136461,74.585681148,0
                25.0119071930001,74.5877220500001,0
                25.113805605,74.5896440800001,0
                25.243048518,74.59184716,0
                25.3754108690001,74.5938326720001,0
                25.5108084610001,74.5955813570001,0
                25.6491571020001,74.5970739570001,0
                25.789547258,74.598284999,0
                25.932688442,74.5992049490001,0
                26.2268929310001,74.6000958750001,0
                26.3546674130001,74.6000227390001,0
                26.4642054130001,74.599812823,0
                26.473443837,74.599798461,0
                26.476766685,74.599784205,0
                26.484190461,74.5997523570001,0
                26.6154117500001,74.5991991060001,0
                26.7482806690001,74.5983462790001,0
                26.8765285160001,74.597223494,0
                26.954234055,74.5964362820001,0
                26.973888527,74.596245588,0
                26.982560542,74.596137179,0
                27.006186337,74.5958418340001,0
                27.1372112810001,74.594229044,0
                27.2695580230001,74.59227078,0
                27.3776754300001,74.590419453,0
                27.4866093090001,74.588424338,0
                27.5026530800001,74.5881110990001,0
                27.50914484,74.5879898030001,0
                27.5238525250001,74.587679409,0
                27.5963344630001,74.5861765870001,0
                27.7068293410001,74.583750041,0
                27.8118314980001,74.5812195930001,0
                27.8281771040001,74.5808061920001,0
                27.8402610260001,74.5805068070001,0
                27.8492813660001,74.580261551,0
                27.917479035,74.578501567,0
                28.0237517730001,74.575566214,0
                28.1306303480001,74.5724174800001,0
                28.2053913390001,74.570096816,0
                28.280429924,74.5676690350001,0
                28.3557395,74.565132626,0
                28.4308578550001,74.562502093,0
                28.4313134330001,74.562485285,0
                28.507145209,74.5597278820001,0
                28.583228134,74.5568565280001,0
                28.659555633,74.553870503,0
                28.7361211030001,74.550768297,0
                28.814353489,74.547487172,0
                28.892818979,74.5440823260001,0
                28.9715077270001,74.540486769,0
                29.010416788,74.5387490730001,0
                29.0161427200001,74.5384933510001,0
                29.020314338,74.5382903760001,0
                29.050417888,74.5368256560001,0
                29.129544262,74.5331094890001,0
                29.2088723580001,74.5291937860001,0
                29.288398655,74.525146379,0
                29.3681161700001,74.520965668,0
                29.4624988320001,74.515854415,0
                29.5571269610001,74.5105523820001,0
                29.648609207,74.505252736,0
                29.6497196240001,74.5051898240001,0
                29.6500813330001,74.505167455,0
                29.6519885860001,74.5050495040001,0
                29.7470736290001,74.4993654530001,0
                29.84236917,74.4934752980001,0
                29.937864183,74.4873838400001,0
                30.0335471710001,74.4810884520001,0
                30.1294066360001,74.474586501,0
                30.235574356,74.4671303200001,0
                30.2807522270001,74.4638877450001,0
                30.2991306160001,74.4625786130001,0
                30.3088542040001,74.4618555540001,0
                30.3419265480001,74.4593962530001,0
                30.4484577370001,74.451509684,0
                30.555138883,74.443289457,0
                30.6526690850001,74.4355481270001,0
                30.750303757,74.4275790730001,0
                30.84803107,74.4193795890001,0
                30.9458391950001,74.410946971,0
                31.0723608160001,74.3996976450001,0
                31.198971613,74.388042559,0
                31.200885686,74.3878663670001,0
                31.2018393560001,74.3877785810001,0
                31.2045446970001,74.387518163,0
                31.3256476490001,74.375993593,0
                31.4523617770001,74.3635271840001,0
                31.5591102440001,74.352702515,0
                31.66585273,74.341578204,0
                31.7725739700001,74.330150759,0
                31.879258701,74.3184166880001,0
                31.9657740070001,74.3086692150001,0
                32.0522470820001,74.2987157590001,0
                32.138669775,74.2885544550001,0
                32.2250339340001,74.278183439,0
                32.3630520520001,74.2611517730001,0
                32.44712464,74.2504267450001,0
                32.4676778410001,74.2478402880001,0
                32.476659854,74.246658977,0
                32.5008661360001,74.2435710140001,0
                32.6384428160001,74.2254335260001,0
                32.7757487150001,74.2067316770001,0
                32.9033025790001,74.1888070030001,0
                33.030558926,74.170331574,0
                33.0426161190001,74.1685830760001,0
                33.047930799,74.167812358,0
                33.060949394,74.1658485730001,0
                33.157511781,74.1514457920001,0
                33.2841132660001,74.1319969350001,0
                33.410300577,74.1120345800001,0
                33.4997977670001,74.0974573030001,0
                33.51501532,74.095006475,0
                33.5211119040001,74.0939856630001,0
                33.5360786540001,74.0914796310001,0
                33.661454416,74.070525182,0
                33.786367145,74.0489658330001,0
                33.89885609,74.0290114000001,0
                34.010931633,74.008593499,0
                34.014029066,74.0080293130001,0
                34.015543592,74.0077534480001,0
                34.019731258,74.006964032,0
                34.122581467,73.9877496010001,0
                34.233778176,73.9664331500001,0
                34.317488832,73.950019255,0
                34.4009223050001,73.9333389990001,0
                34.484070027,73.916390419,0
                34.5669234280001,73.899171558,0
                34.6407248460001,73.8835503190001,0
                34.7142781530001,73.8677101740001,0
                34.787563043,73.8515839890001,0
                34.8021338360001,73.848404691,0
                34.8058446380001,73.8475950070001,0
                34.8089930670001,73.8468755970001,0
                34.860615959,73.8353675640001,0
                34.93338822,73.8188623010001,0
                35.0058878940001,73.8021325330001,0
                35.1500450070001,73.7679938810001,0
                35.44921988,73.702980272,0
                35.7381813920001,73.6401861250001,0
                36.050486349,73.5723192200001,0
                36.2444430560001,73.5301705420001,0
                36.4272374710001,73.4904475380001,0
              </coordinates>
            </LinearRing>
          </outerBoundaryIs>
        </Polygon>
      </Placemark>
    </Document>
  </Document>
</kml>
