<?xml version="1.0" encoding="UTF-8"?>
<kml xmlns="http://www.opengis.net/kml/2.2">
  <Document id="root_doc">
    <Schema id="Bioregions_PA30.schema">
      <SimpleField name="OBJECTID" type="float"/>
      <SimpleField name="Shape_Leng" type="float"/>
      <SimpleField name="Shape_Area" type="float"/>
      <SimpleField name="Bioregions" type="string"/>
    </Schema>
    <Document id="Bioregions_PA30">
      <name>Bioregions_PA30</name>
      <Placemark id="Bioregions_PA30.1">
        <ExtendedData>
          <SchemaData schemaUrl="#Bioregions_PA30.schema">
            <SimpleData name="OBJECTID">116</SimpleData>
            <SimpleData name="Shape_Leng">109.74035562500</SimpleData>
            <SimpleData name="Shape_Area">75.87296970900</SimpleData>
            <SimpleData name="Bioregions">PA30</SimpleData>
          </SchemaData>
        </ExtendedData>
        <Polygon>
          <outerBoundaryIs>
            <LinearRing>
              <coordinates>
                68.0962685810001,38.5818498140001,0
                68.1421111780001,38.532586516,0
                68.061241244,38.3986525220001,0
                68.0084706970001,38.3387169580001,0
                67.973334234,38.2576664000001,0
                67.966383706,38.169601345,0
                67.9383972090001,37.9899338810001,0
                67.9068018620001,37.8912755810001,0
                67.906914751,37.7856065460001,0
                67.914064716,37.686989639,0
                67.9141663170001,37.591887507,0
                67.9143205990001,37.447473159,0
                67.858084196,37.334699313,0
                67.84760384,37.253675097,0
                67.907569509,37.1727261410001,0
                67.9815754640001,37.137582152,0
                68.0414508210001,37.1411684230001,0
                68.1259785230001,37.1483033370001,0
                68.213990897,37.190665026,0
                68.2984809700001,37.2330229510001,0
                68.3935078420001,37.303570576,0
                68.484982309,37.4022928460001,0
                68.5236297850001,37.493914069,0
                68.5657882730001,37.5961059590001,0
                68.5868091900001,37.701797572,0
                68.586726405,37.7792881990001,0
                68.586636093,37.8638234270001,0
                68.5865570700001,37.9377917520001,0
                68.646375983,37.994212541,0
                68.6991992120001,38.004835889,0
                68.7590820940001,38.001377559,0
                68.7591611170001,37.927409234,0
                68.7838623810001,37.885167961,0
                68.8402455410001,37.86057206,0
                68.9388963150001,37.836021316,0
                68.981178981,37.821977266,0
                69.012917321,37.786788121,0
                69.030641717,37.6811379010001,0
                69.051824443,37.635370563,0
                69.094163553,37.5684919970001,0
                69.1541254590001,37.4910653410001,0
                69.217613429,37.410120148,0
                69.245900964,37.3080035180001,0
                69.2741659220001,37.227020694,0
                69.316437299,37.2235435490001,0
                69.400946187,37.248289969,0
                69.4290681510001,37.3011545900001,0
                69.4289891290001,37.3751229150001,0
                69.3831051390001,37.4631315250001,0
                69.393577968,37.551200345,0
                69.428759588,37.5899832870001,0
                69.47450811,37.628777519,0
                69.530846114,37.6464492320001,0
                69.615377579,37.650061845,0
                69.692860679,37.6571892330001,0
                69.773877369,37.65375348,0
                69.890094494,37.671489164,0
                69.9957898700001,37.6469459460001,0
                70.045109612,37.6399540250001,0
                70.129667419,37.6189105290001,0
                70.1859941340001,37.6471491470001,0
                70.2282165920001,37.689461916,0
                70.2316899740001,37.7352555950001,0
                70.2245550600001,37.8197832970001,0
                70.199895725,37.931200092,0
                70.1645254210001,37.9606113730001,0
                70.1574281370001,38.009916064,0
                70.203146556,38.076888705,0
                70.2911551670001,38.122772695,0
                70.3263405490001,38.1580333370001,0
                70.39674518,38.196853909,0
                70.453034265,38.260315538,0
                70.505819864,38.306161898,0
                70.5762847020001,38.2886256520001,0
                70.593982757,38.2076315400001,0
                70.5940542530001,38.1407078170001,0
                70.5941445650001,38.056172589,0
                70.628432322,37.991179383,0
                70.6048883280001,37.8906357230001,0
                70.5783241400001,37.887481747,0
                70.5168119840001,37.908153154,0
                70.4533766960001,37.9397861300001,0
                70.3864642620001,37.9291477310001,0
                70.3618683620001,37.8727645710001,0
                70.372484184,37.8269859440001,0
                70.4077674040001,37.770666755,0
                70.513466543,37.7426012350001,0
                70.5592752730001,37.7250386490001,0
                70.601554176,37.7145169,0
                70.619199549,37.6828350050001,0
                70.6403898010001,37.630023065,0
                70.661576289,37.5807334260001,0
                70.686266264,37.549059056,0
                70.7356499780001,37.4821880160001,0
                70.7357478150001,37.3906081850001,0
                70.6547762810001,37.3517763240001,0
                70.6195306910001,37.3728725010001,0
                70.570188371,37.400998229,0
                70.5314242430001,37.4185683420001,0
                70.4750787130001,37.4079412300001,0
                70.464564491,37.358617725,0
                70.454050269,37.309294219,0
                70.5069600460001,37.238904641,0
                70.566861745,37.2178348040001,0
                70.6232637190001,37.1756273980001,0
                70.7360225130001,37.1334801990001,0
                70.7994164080001,37.1405925350001,0
                70.845187508,37.158252959,0
                70.845131064,37.211087478,0
                70.8450783820001,37.2603996940001,0
                70.8661783220001,37.2921229820001,0
                70.8872744990001,37.3273685720001,0
                70.9400864390001,37.3485588240001,0
                71.007017687,37.341585718,0
                71.0563750590001,37.2993707850001,0
                71.091677094,37.2254400910001,0
                71.1445755830001,37.165617415,0
                71.197481597,37.098750137,0
                71.243350535,37.0248307310001,0
                71.2751340310001,36.947373972,0
                71.275239395,36.848749539,0
                71.345756915,36.781901077,0
                71.4478998850001,36.7855325040001,0
                71.498961964,36.79615397,0
                71.5694079880001,36.7962292300001,0
                71.6239998930001,36.7998098580001,0
                71.6944459160001,36.799885117,0
                71.7965926510001,36.7999942440001,0
                71.870519582,36.8388185790001,0
                71.9444239370001,36.898776722,0
                72.0183245280001,36.962257166,0
                72.0887291590001,37.001077738,0
                72.183786135,37.0434469530001,0
                72.321106962,37.089383624,0
                72.41617899,37.1176636340001,0
                72.497161813,37.1459285920001,0
                72.557037171,37.149514864,0
                72.6450947000001,37.149608938,0
                72.7190743140001,37.1391210570001,0
                72.733235015,37.072212386,0
                72.698057159,37.0299071430001,0
                72.6346971300001,36.991094096,0
                72.557229082,36.9698775040001,0
                72.483260758,36.9697984810001,0
                72.409322537,36.9415410490001,0
                72.2931242270001,36.906193859,0
                72.1523112030001,36.832075015,0
                72.0572692790001,36.7756165960001,0
                71.958731395,36.694498305,0
                71.8707114950001,36.6591812190001,0
                71.78267278,36.6414756390001,0
                71.684055873,36.634325673,0
                71.5361192230001,36.6341676280001,0
                71.4586436500001,36.619995638,0
                71.4199434920001,36.5776866300001,0
                71.4094367960001,36.521318523,0
                71.3601659730001,36.4825205280001,0
                71.3038618350001,36.4331481030001,0
                71.2440692640001,36.3520712060001,0
                71.184167566,36.373141042,0
                71.1277693540001,36.411826148,0
                71.071356091,36.4646004580001,0
                71.0325430440001,36.527960486,0
                71.0113151620001,36.615995438,0
                70.9337944330001,36.644091062,0
                70.8703177520001,36.714469352,0
                70.8667201920001,36.784911612,0
                70.8032585620001,36.8412006980001,0
                70.736342366,36.8340845990001,0
                70.718791068,36.777708965,0
                70.718877616,36.696696038,0
                70.7259899520001,36.633302142,0
                70.7436729550001,36.5663972340001,0
                70.733211415,36.467761512,0
                70.7191899430001,36.4043450400001,0
                70.7298283430001,36.337432606,0
                70.7580782490001,36.2705389880001,0
                70.7475903690001,36.1965593740001,0
                70.71947593,36.13665015,0
                70.73011433,36.0697377170001,0
                70.705533481,35.9992653520001,0
                70.6456543610001,35.999201381,0
                70.603364169,36.020290033,0
                70.5645398340001,36.094216965,0
                70.518682185,36.1575694680001,0
                70.497506984,36.196292203,0
                70.451713306,36.1997655850001,0
                70.3636745920001,36.182060004,0
                70.2790904450001,36.227759608,0
                70.303667719,36.3015774720001,0
                70.374057109,36.354664052,0
                70.384556279,36.4180767620001,0
                70.356321425,36.470881175,0
                70.3456943140001,36.527226705,0
                70.3773047130001,36.6117958,0
                70.4054041000001,36.6857942290001,0
                70.3806652060001,36.763258514,0
                70.398193926,36.840767955,0
                70.3769735710001,36.921758304,0
                70.3311573140001,36.946365493,0
                70.2642448820001,36.9357270940001,0
                70.2326156670001,36.8687695040001,0
                70.1445882420001,36.840497021,0
                70.1305780600001,36.766513644,0
                70.088359364,36.720678573,0
                70.017917104,36.7170810120001,0
                69.9650750600001,36.7240691700001,0
                69.8911368380001,36.695811737,0
                69.8595038620001,36.63237645,0
                69.820818757,36.5759782370001,0
                69.7503840210001,36.5653360750001,0
                69.736347499,36.516008807,0
                69.651857426,36.47365088,0
                69.64841791,36.396156492,0
                69.588617813,36.3221241960001,0
                69.4970607490001,36.3007157490001,0
                69.4513346150001,36.2409645130001,0
                69.514867741,36.117751705,0
                69.514924186,36.064917188,0
                69.462127298,36.029637731,0
                69.381144475,36.0013727730001,0
                69.3565297590001,35.9626011190001,0
                69.3636383320001,35.902729525,0
                69.3778103220001,35.825253951,0
                69.4095524260001,35.7865425050001,0
                69.335685701,35.6913613510001,0
                69.307586315,35.617362922,0
                69.3428582450001,35.5716106360001,0
                69.437945325,35.5858014410001,0
                69.4942720400001,35.6140400580001,0
                69.5998921560001,35.659942863,0
                69.6914117800001,35.7163975190001,0
                69.740671315,35.7657624180001,0
                69.7970017920001,35.790478734,0
                69.8569072540001,35.765886596,0
                69.8569599350001,35.7165743800001,0
                69.8359013880001,35.646105778,0
                69.7655155720001,35.5896737,0
                69.695129756,35.5332416210001,0
                69.642332868,35.497962165,0
                69.6247928590001,35.4310196280001,0
                69.561447882,35.378117376,0
                69.5050873000001,35.381579469,0
                69.4311453170001,35.3568443390001,0
                69.4100641910001,35.3075095450001,0
                69.4770405950001,35.258268824,0
                69.5193232610001,35.2442247760001,0
                69.600324899,35.2548782270001,0
                69.6566779560001,35.2584607360001,0
                69.6919348340001,35.226797656,0
                69.6990170660001,35.1915821700001,0
                69.7166662020001,35.1563779730001,0
                69.7378489270001,35.1106106350001,0
                69.829436285,35.10366387,0
                69.8716587420001,35.1459766410001,0
                69.959712509,35.149593016,0
                70.0231666120001,35.100348533,0
                70.0865567450001,35.1109831700001,0
                70.0758656630001,35.22720782,0
                70.040518472,35.3434061300001,0
                70.0122572770001,35.420866651,0
                70.012185781,35.487790374,0
                70.029722028,35.5582552130001,0
                70.0754630230001,35.604094047,0
                70.1387967110001,35.6675632020001,0
                70.195187397,35.635922699,0
                70.2058069820001,35.5866217710001,0
                70.2023486520001,35.5267388880001,0
                70.2411315950001,35.4915572690001,0
                70.315099919,35.4916362920001,0
                70.3609048870001,35.4775960060001,0
                70.41025097,35.4459479760001,0
                70.4561048560001,35.386117776,0
                70.5195062770001,35.386185509,0
                70.5933842900001,35.47079976,0
                70.6285282800001,35.5448057150001,0
                70.6284417310001,35.6258186410001,0
                70.6847646830001,35.65757956,0
                70.7270097190001,35.6787585230001,0
                70.7657136400001,35.7175452290001,0
                70.8255476040001,35.7598768130001,0
                70.881904423,35.759937021,0
                70.906594398,35.7282626510001,0
                70.9102107740001,35.640208885,0
                70.8821076240001,35.5697327570001,0
                70.839900217,35.513330782,0
                70.9350324530001,35.4852539730001,0
                70.977356512,35.432464612,0
                70.9492420730001,35.3725553880001,0
                70.9034709730001,35.354894963,0
                70.850677848,35.3160932050001,0
                70.8014070240001,35.2772952110001,0
                70.794418867,35.224453167,0
                70.8473399330001,35.1434966850001,0
                70.9318488200001,35.168243105,0
                71.023375969,35.2176531580001,0
                71.0796763430001,35.2705478830001,0
                71.1254211020001,35.3128644170001,0
                71.17118844,35.3340471430001,0
                71.181695136,35.39041525,0
                71.181604824,35.474950478,0
                71.1850292880001,35.566534072,0
                71.230747707,35.633506713,0
                71.311779449,35.6159817560001,0
                71.3893189930001,35.5702746270001,0
                71.4668397240001,35.5421790020001,0
                71.5161782800001,35.5175755760001,0
                71.5444281870001,35.450681957,0
                71.5691595540001,35.3802622750001,0
                71.6149946260001,35.338043579,0
                71.553317668,35.3170173230001,0
                71.504061897,35.2641301240001,0
                71.4724101050001,35.2183063410001,0
                71.4759963770001,35.1584309840001,0
                71.5499759910001,35.147943103,0
                71.6838347250001,35.1375191930001,0
                71.747239908,35.1340646260001,0
                71.796567177,35.120028103,0
                71.8564801630001,35.088391362,0
                71.905837536,35.0461764300001,0
                71.9023679160001,34.996860451,0
                71.85313096,34.9263617450001,0
                71.916573774,34.8876841650001,0
                71.97295317,34.8666105660001,0
                72.039918286,34.82793675,0
                72.0576050510001,34.757509541,0
                72.0717770410001,34.680033967,0
                72.096485832,34.630748092,0
                72.1528577020001,34.6167190950001,0
                72.167014641,34.5533327250001,0
                72.142422503,34.493427265,0
                72.286829326,34.500626149,0
                72.3220899670001,34.465440766,0
                72.3819916640001,34.444370931,0
                72.427830498,34.398629934,0
                72.5229401570001,34.391686932,0
                72.5828982990001,34.317782578,0
                72.681597992,34.2474419170001,0
                72.7590622770001,34.2721808110001,0
                72.8541606460001,34.2758047130001,0
                72.9246631140001,34.223045455,0
                72.942357406,34.145573644,0
                73.0691677740001,34.1386645090001,0
                73.0974402580001,34.050637083,0
                73.058770205,33.980149667,0
                72.9918652970001,33.9624666650001,0
                72.9496127350001,33.9483323040001,0
                72.9073714610001,33.92363104,0
                72.8827755610001,33.86724788,0
                72.886343018,33.8249840290001,0
                72.918130277,33.7440049680001,0
                72.9781411020001,33.6207883980001,0
                73.0663077570001,33.518735738,0
                73.1333067400001,33.4483612110001,0
                73.246106926,33.367468699,0
                73.3342547670001,33.283027546,0
                73.4787481380001,33.2092135030001,0
                73.6408643030001,33.124851371,0
                73.8064952440001,33.047537606,0
                73.9157656040001,32.9736859330001,0
                74.028562026,32.8963157220001,0
                74.1061392020001,32.815385581,0
                74.1449635370001,32.741458649,0
                74.145042559,32.667490324,0
                74.1909039710001,32.6006155210001,0
                74.321326952,32.5091749200001,0
                74.4446488870001,32.470561311,0
                74.5151551180001,32.414279752,0
                74.6068064450001,32.3474538680001,0
                74.6984690620001,32.270061078,0
                74.807728131,32.2067763090001,0
                74.8888012670001,32.150506039,0
                74.8501274500001,32.083540924,0
                74.779715293,32.0517649540001,0
                74.6775501440001,32.068893315,0
                74.568328303,32.0973290910001,0
                74.4449574510001,32.181732615,0
                74.3673727510001,32.2697073590001,0
                74.2862958530001,32.3294999300001,0
                74.1875848710001,32.410407494,0
                74.099485949,32.4490587330001,0
                74.025461179,32.5018142270001,0
                73.9091198770001,32.600314482,0
                73.835076293,32.6706814830001,0
                73.722325025,32.7057840790001,0
                73.5602502520001,32.751400898,0
                73.4686327920001,32.7865260720001,0
                73.3277294550001,32.7969424560001,0
                73.2009567160001,32.76862858,0
                73.0988626640001,32.719207237,0
                73.0002495200001,32.7085349700001,0
                72.859357473,32.708384451,0
                72.7255401310001,32.6800630480001,0
                72.5811634140001,32.6446857550001,0
                72.4755357700001,32.6058275520001,0
                72.376945204,32.5740214780001,0
                72.260758185,32.5281073840001,0
                72.1656748670001,32.510394278,0
                72.038872025,32.51025881,0
                71.9543179820001,32.5277800050001,0
                71.901419493,32.5876026810001,0
                71.8942732900001,32.6826972860001,0
                71.9470062070001,32.7778558630001,0
                71.999769229,32.8448360300001,0
                72.048957267,32.96112465,0
                72.0488443770001,33.066793686,0
                72.031101167,33.190055412,0
                72.0098356560001,33.3133133760001,0
                72.006177887,33.4401124560001,0
                71.9638011470001,33.542214034,0
                71.8897801410001,33.5914472270001,0
                71.7664807840001,33.608927029,0
                71.6502486080001,33.60528055,0
                71.4918052630001,33.548754397,0
                71.3791254920001,33.516933271,0
                71.291071726,33.5133168950001,0
                71.1501947300001,33.4990771710001,0
                71.0022844210001,33.474263018,0
                70.921286546,33.460087264,0
                70.8931608180001,33.410744944,0
                70.8932436040001,33.333254319,0
                70.872173768,33.27335262,0
                70.8299625980001,33.2204729470001,0
                70.7736245950001,33.202801234,0
                70.699667558,33.1921553080001,0
                70.6327287840001,33.206173015,0
                70.622094147,33.269563148,0
                70.6748496420001,33.343587917,0
                70.7100086840001,33.403504667,0
                70.674702886,33.480957663,0
                70.5690526660001,33.4632332680001,0
                70.537389584,33.42797639,0
                70.4952009930001,33.353962908,0
                70.3931520960001,33.262273952,0
                70.3087071790001,33.1776484120001,0
                70.2313219170001,33.078941193,0
                70.2313934140001,33.012017471,0
                70.2490651270001,32.955679467,0
                70.326593383,32.92053924,0
                70.372424691,32.881842846,0
                70.4077455400001,32.790300646,0
                70.4183801770001,32.7269105130001,0
                70.4642001970001,32.698781022,0
                70.5170572920001,32.6777036600001,0
                70.5734442140001,32.649585458,0
                70.6017054100001,32.5721249360001,0
                70.5630090160001,32.5262936280001,0
                70.510174497,32.526237184,0
                70.450295377,32.526173213,0
                70.37985688,32.519053351,0
                70.3552421640001,32.4802816970001,0
                70.3482841100001,32.3992612440001,0
                70.362433523,32.3429194770001,0
                70.2356908890001,32.286427191,0
                70.1441825540001,32.219405631,0
                70.1724512760001,32.1349005070001,0
                70.211309478,32.0292728640001,0
                70.2149183270001,31.9482637,0
                70.2326239070001,31.8602249850001,0
                70.2362402840001,31.772171219,0
                70.2398491330001,31.6911620540001,0
                70.306893271,31.578519913,0
                70.345766525,31.458803066,0
                70.3705693900001,31.3214596610001,0
                70.398879503,31.198209223,0
                70.4835765400001,31.0468405840001,0
                70.497797448,30.923575095,0
                70.5331672170001,30.7862429790001,0
                70.5332801060001,30.6805739430001,0
                70.547572512,30.4903847310001,0
                70.508936325,30.3881966050001,0
                70.4456590820001,30.2718929320001,0
                70.385896615,30.1626376240001,0
                70.312056231,30.042800362,0
                70.2205591860001,29.9652118980001,0
                70.1079433850001,29.873511652,0
                70.0623190410001,29.7184814820001,0
                70.0308365830001,29.5141541460001,0
                69.9746152320001,29.3872910960001,0
                69.9113981960001,29.214630605,0
                69.770645379,29.0841549420001,0
                69.584083832,28.9712418660001,0
                69.355220805,28.8899843460001,0
                69.133353459,28.8545242660001,0
                68.9396268950001,28.8543173030001,0
                68.7282963500001,28.8470469210001,0
                68.59793734,28.8786084010001,0
                68.5521060310001,28.9173047960001,0
                68.506225805,29.001791106,0
                68.5413923720001,29.0546632520001,0
                68.6223902470001,29.0688390060001,0
                68.728074335,29.054862691,0
                68.86897767,29.0444463060001,0
                68.9887321470001,29.048096549,0
                69.0943898940001,29.0587763410001,0
                69.1330486580001,29.1398306620001,0
                69.090720837,29.196142325,0
                69.0272930740001,29.2207306990001,0
                68.9181017380001,29.220614047,0
                68.8617373930001,29.227598442,0
                68.773679864,29.2275043670001,0
                68.699711538,29.227425345,0
                68.653872704,29.273166341,0
                68.5447152350001,29.2413489780001,0
                68.446124668,29.209542904,0
                68.3791106350001,29.2940066360001,0
                68.2909928980001,29.35026938,0
                68.2592056380001,29.431248441,0
                68.3049165310001,29.5052656840001,0
                68.280192689,29.5686407650001,0
                68.1885639400001,29.6143328430001,0
                68.093405363,29.6670657600001,0
                68.0158470040001,29.730384396,0
                67.9277819490001,29.737334923,0
                67.860869515,29.726696523,0
                67.7798791650001,29.705476167,0
                67.7270935670001,29.659629808,0
                67.7341946130001,29.606802816,0
                67.7624181790001,29.564565305,0
                67.7695305140001,29.50117141,0
                67.7484569160001,29.444792013,0
                67.692149015,29.398941891,0
                67.628804039,29.346039639,0
                67.6041930860001,29.303745684,0
                67.604257057,29.243866564,0
                67.5444419070001,29.183923473,0
                67.4670039630001,29.1345284710001,0
                67.456534897,29.042937352,0
                67.4566063940001,28.9760136290001,0
                67.3580873240001,28.877283833,0
                67.344141112,28.743421336,0
                67.344242713,28.6483192040001,0
                67.3584034140001,28.581410534,0
                67.38315736,28.4898570440001,0
                67.383307879,28.3489649960001,0
                67.436277864,28.222218599,0
                67.4786245010001,28.1482954300001,0
                67.5033972620001,28.0391304340001,0
                67.5105622790001,27.9264243220001,0
                67.493067426,27.817214171,0
                67.4192007010001,27.7220330170001,0
                67.3875714870001,27.655075427,0
                67.3911841,27.570543962,0
                67.391312041,27.450785722,0
                67.370264783,27.369750217,0
                67.3738962100001,27.2676072450001,0
                67.3424137520001,27.0632799100001,0
                67.324979107,26.8977129400001,0
                67.332129073,26.7990960330001,0
                67.34986852,26.679356607,0
                67.3640405100001,26.601881034,0
                67.452180825,26.524484482,0
                67.5544592630001,26.401313067,0
                67.6567264130001,26.288708555,0
                67.7132036470001,26.1760551260001,0
                67.758993563,26.176104045,0
                67.8118055030001,26.1972942960001,0
                67.8117340060001,26.2642180190001,0
                67.8186657190001,26.3698945800001,0
                67.9172976780001,26.362955341,0
                67.9666926800001,26.285517397,0
                67.963245638,26.2150676100001,0
                67.9633171350001,26.1481438870001,0
                67.9739630610001,26.074186852,0
                67.977575674,25.989655387,0
                67.9670614510001,25.9403318810001,0
                67.946033008,25.8416848700001,0
                67.9391351620001,25.7043075980001,0
                67.9638740560001,25.6268433130001,0
                67.967517571,25.513385403,0
                67.9535555080001,25.3943601460001,0
                67.9008000140001,25.3203353760001,0
                67.862054701,25.320293984,0
                67.8232567060001,25.3695648080001,0
                67.770380796,25.4082536760001,0
                67.7315715120001,25.4680914030001,0
                67.7455760500001,25.5473582320001,0
                67.7578438960001,25.603728221,0
                67.7383414170001,25.7252269150001,0
                67.6573792900001,25.6775893010001,0
                67.6027892660001,25.6722475230001,0
                67.5816121840001,25.7127314090001,0
                67.5780372020001,25.762039863,0
                67.5779506530001,25.8430527890001,0
                67.5725637190001,25.939910427,0
                67.5302396610001,25.9926997900001,0
                67.4808371330001,26.0771823360001,0
                67.445527573,26.158157633,0
                67.3610262110001,26.126366611,0
                67.361112759,26.0453536840001,0
                67.364695268,25.989000628,0
                67.3577108740001,25.9326362830001,0
                67.3260703710001,25.876245598,0
                67.308552939,25.788169253,0
                67.2945164170001,25.738841984,0
                67.2382273310001,25.6753803560001,0
                67.1889866120001,25.6084039520001,0
                67.153831333,25.5449649,0
                67.090433675,25.5413748660001,0
                67.0551391660001,25.6082609580001,0
                67.0268779720001,25.685721481,0
                66.995132105,25.727955228,0
                66.935249222,25.731413558,0
                66.843639287,25.7594941300001,0
                66.8047773220001,25.868644074,0
                66.755269431,26.0517510540001,0
                66.6881425070001,26.241883821,0
                66.6422284130001,26.358070841,0
                66.561061205,26.5023986410001,0
                66.518744671,26.5481434010001,0
                66.4904684250001,26.639693127,0
                66.490366824,26.7347952590001,0
                66.465582775,26.854527159,0
                66.416255506,26.8685636820001,0
                66.366947053,26.864988699,0
                66.3212587370001,26.7698376480001,0
                66.32490898,26.6500831710001,0
                66.3284839630001,26.600774717,0
                66.3179735040001,26.547928911,0
                66.265210483,26.480948744,0
                66.2617258110001,26.445721969,0
                66.244197091,26.3682125280001,0
                66.272522257,26.230872886,0
                66.300813556,26.1252339540001,0
                66.300915156,26.030131822,0
                66.279860371,25.9561409200001,0
                66.2412279480001,25.850430492,0
                66.1920022800001,25.769364883,0
                66.1568771060001,25.677747423,0
                66.1252366030001,25.621356737,0
                66.1041479510001,25.579066545,0
                66.0583730880001,25.564928422,0
                65.970311796,25.5683566480001,0
                65.866759039,25.5290469770001,0
                65.8439158190001,25.535893716,0
                65.5433481420001,25.517666734,0
                65.5247284650001,25.6346309510001,0
                65.5246381530001,25.7191661790001,0
                65.5033989820001,25.817768034,0
                65.4469669040001,25.88815385,0
                65.3554021250001,25.873966807,0
                65.2215471540001,25.880868417,0
                65.186233831,25.9653660160001,0
                65.2142767730001,26.0921989610001,0
                65.0945072440001,26.1026379240001,0
                65.0346619910001,26.0708732420001,0
                64.981850051,26.0496829910001,0
                64.911456709,26.0002955150001,0
                64.848085392,25.972049371,0
                64.7212825490001,25.9719139040001,0
                64.6685082390001,25.9155006410001,0
                64.5628768340001,25.8801647400001,0
                64.481878958,25.865988986,0
                64.393802613,25.883506418,0
                64.3409869110001,25.8658384670001,0
                64.2564742600001,25.8446143480001,0
                64.1790024490001,25.8269200570001,0
                64.03809535,25.8408587430001,0
                63.925381713,25.8407383270001,0
                63.795064095,25.833554495,0
                63.6859254410001,25.784125626,0
                63.6049539050001,25.7452937640001,0
                63.5310043960001,25.727603236,0
                63.4957098880001,25.7944893280001,0
                63.506163901,25.900169653,0
                63.597679762,25.96014661,0
                63.6257753850001,26.03766734,0
                63.477823684,26.0515985000001,0
                63.3721659380001,26.0409187060001,0
                63.2876419980001,26.030261492,0
                63.1678988100001,26.0160443450001,0
                63.044603217,26.0300018460001,0
                63.039485083,26.164312008,0
                63.1923855840001,26.174574239,0
                63.2944570590001,26.2451293890001,0
                63.382424277,26.329758692,0
                63.4845258560001,26.372135433,0
                63.5725608070001,26.393363315,0
                63.6711814770001,26.3969909790001,0
                63.7733470260001,26.3794886000001,0
                63.9037135630001,26.3408825170001,0
                64.01999842,26.29521678,0
                64.157402033,26.263662826,0
                64.234941577,26.217955696,0
                64.3864042910001,26.214595203,0
                64.5272775240001,26.2323572280001,0
                64.6716467160001,26.2747791240001,0
                64.8089449660001,26.3418496030001,0
                64.8123318,26.468656208,0
                64.7172334310001,26.4650323070001,0
                64.6045611860001,26.426166578,0
                64.4637142940001,26.383748445,0
                64.347497171,26.36601276,0
                64.2488501600001,26.3870412040001,0
                64.2346631170001,26.478605983,0
                64.347316547,26.5350832170001,0
                64.4459221650001,26.552800087,0
                64.5691726030001,26.5811102000001,0
                64.6501591890001,26.6058528570001,0
                64.6465390500001,26.6974289240001,0
                64.5549404050001,26.714942594,0
                64.4386781250001,26.7394745230001,0
                64.340038641,26.753458364,0
                64.1533754920001,26.7356474210001,0
                63.924459783,26.703702117,0
                63.804731647,26.6753957650001,0
                63.628680558,26.6153284960001,0
                63.5371872760001,26.5342177320001,0
                63.4034000390001,26.47771792,0
                63.3083430620001,26.435348705,0
                63.1216912040001,26.406970858,0
                62.917412787,26.3926634000001,0
                62.758905472,26.3960163680001,0
                62.6602772750001,26.3994333050001,0
                62.5546383430001,26.3711420070001,0
                62.420805951,26.3569098080001,0
                62.353837072,26.3991059260001,0
                62.2833233150001,26.4624320880001,0
                62.276199691,26.536392887,0
                62.321910583,26.61041013,0
                62.402874592,26.6562865940001,0
                62.571892367,26.7057794340001,0
                62.7550294500001,26.727108915,0
                62.9205587910001,26.7448972810001,0
                63.0262504040001,26.723876363,0
                63.1319156770001,26.727511554,0
                63.219912998,26.7839624480001,0
                63.3044256490001,26.805186566,0
                63.438254279,26.8229410660001,0
                63.5791839550001,26.787868572,0
                63.6848680430001,26.7738922570001,0
                63.783454846,26.8092206330001,0
                63.896119565,26.8551309640001,0
                63.9630207100001,26.8763362670001,0
                63.948814853,26.9855125510001,0
                64.036804649,27.0490080480001,0
                64.1565403110001,27.0702697950001,0
                64.272746145,27.0985723840001,0
                64.427659664,27.162139376,0
                64.5579020220001,27.2397692320001,0
                64.6740815160001,27.292727928,0
                64.7902911140001,27.317508214,0
                64.9029219660001,27.395119256,0
                65.0120229920001,27.4797711360001,0
                65.099997736,27.557355837,0
                65.0541250350001,27.634797544,0
                64.9696086220001,27.617095727,0
                64.8393512110001,27.5535550760001,0
                64.6879788090001,27.4723803410001,0
                64.5612625150001,27.3912319460001,0
                64.4521200980001,27.345325378,0
                64.2443908770001,27.2640904350001,0
                64.096499382,27.2216647760001,0
                64.0013934880001,27.2250854770001,0
                64.0188732890001,27.3483848330001,0
                64.08917632,27.482307538,0
                64.2193961,27.581071201,0
                64.346176364,27.6023404750001,0
                64.5010974090001,27.6588628650001,0
                64.606740104,27.6836318630001,0
                64.733550472,27.676722727,0
                64.8427041790001,27.7120623910001,0
                64.934216276,27.77556165,0
                64.9623006100001,27.863649283,0
                65.0432232270001,27.9482710610001,0
                65.148828291,28.0082630700001,0
                65.2755521110001,28.0823668620001,0
                65.419849807,28.191712481,0
                65.454948641,28.3079860490001,0
                65.5393258240001,28.45601301,0
                65.5322172510001,28.5158846050001,0
                65.408940472,28.5122305990001,0
                65.2399151720001,28.469782362,0
                65.1975798240001,28.5331386280001,0
                65.2432643760001,28.6318119790001,0
                65.25725198,28.7269291630001,0
                65.2500756740001,28.8502021780001,0
                65.1162771470001,28.8042692700001,0
                64.954288922,28.768873161,0
                64.8734001730001,28.6525506740001,0
                64.7853614590001,28.634845093,0
                64.6585849570001,28.610053517,0
                64.542390411,28.571184026,0
                64.4402925950001,28.5252849840001,0
                64.348724055,28.514620243,0
                64.211376886,28.4933396800001,0
                64.04582873,28.4931628200001,0
                63.936614816,28.514179975,0
                63.8626088610001,28.5493239640001,0
                63.8554588960001,28.6479408710001,0
                63.9082106280001,28.725487942,0
                63.992708227,28.7608012650001,0
                64.105387997,28.7926223910001,0
                64.2180489530001,28.8420550230001,0
                64.316583075,28.926695615,0
                64.404655656,28.9127004850001,0
                64.5067911020001,28.923376514,0
                64.605355327,28.979838697,0
                64.74268368,29.018730765,0
                64.844792785,29.054062904,0
                64.936368852,29.0576830430001,0
                65.0490599120001,29.078937265,0
                65.130023921,29.124813729,0
                65.24268864,29.1707240590001,0
                65.2884522140001,29.195429086,0
                65.30598846,29.2658939250001,0
                65.3376139120001,29.336373816,0
                65.418559105,29.399861786,0
                65.499496772,29.470394357,0
                65.587516672,29.505711444,0
                65.72129262,29.57277816,0
                65.8394336260001,29.731408107,0
                65.9040985620001,29.904070145,0
                65.963759429,30.108427584,0
                66.062210765,30.270558802,0
                66.1324347730001,30.478449831,0
                66.213282129,30.6335176320001,0
                66.2978211210001,30.630085642,0
                66.382288615,30.6935773750001,0
                66.382160673,30.813335615,0
                66.4595798030001,30.880342123,0
                66.5193234560001,31.007208936,0
                66.4734695700001,31.0670391370001,0
                66.3924190120001,31.1021756000001,0
                66.4099101030001,31.214908053,0
                66.439516784,31.307284646,0
                66.3193140590001,31.4250739190001,0
                66.215117637,31.3881734820001,0
                66.117382245,31.380143881,0
                66.0275550980001,31.387973103,0
                66.0089839950001,31.4619216720001,0
                66.0194831650001,31.525334382,0
                66.080214638,31.551816552,0
                66.162054518,31.6020968340001,0
                66.2861874120001,31.6286467370001,0
                66.383951026,31.6102590790001,0
                66.4130777440001,31.546888703,0
                66.5056397500001,31.4518853490001,0
                66.5874768080001,31.5048073560001,0
                66.6508217840001,31.557709607,0
                66.7247590640001,31.5868476150001,0
                66.822469056,31.618652748,0
                66.8778295880001,31.727022775,0
                66.7853381370001,31.755982982,0
                66.838096454,31.827366026,0
                66.938422771,31.8829495140001,0
                67.0334317690001,31.970228069,0
                67.020146939,32.0415405570001,0
                66.895988645,32.038766186,0
                66.803584684,31.98583289,0
                66.7112004790001,31.9144075130001,0
                66.6584224050001,31.86151655,0
                66.608235258,31.8561794760001,0
                66.5395447400001,31.8613895500001,0
                66.4339076900001,31.8313371,0
                66.321212867,31.813605179,0
                66.2542515150001,31.8487566950001,0
                66.285839337,31.954459597,0
                66.2857527880001,32.0354725240001,0
                66.140497376,31.9983331390001,0
                66.024320704,31.942732716,0
                65.9345415350001,31.9056525980001,0
                65.8183281730001,31.8843946120001,0
                65.723211931,31.8975016420001,0
                65.810219551,32.0560983290001,0
                65.7019059670001,32.0586243430001,0
                65.5804204440001,32.026793809,0
                65.5091220670001,32.00030035,0
                65.4642578830001,31.9579847590001,0
                65.374521047,31.8812787520001,0
                65.284727767,31.857407263,0
                65.189614347,31.867872565,0
                65.1551900650001,31.9444459270001,0
                65.049529497,31.9364078610001,0
                64.9517658830001,31.9547955190001,0
                64.8962021500001,32.036629755,0
                64.901350135,32.163438242,0
                64.935568393,32.27971087,0
                64.9988710360001,32.3722390090001,0
                65.096552805,32.4304614010001,0
                65.1863178620001,32.4807501490001,0
                65.2099579280001,32.6075783910001,0
                65.2891871260001,32.628796865,0
                65.429184488,32.642155073,0
                65.550703878,32.642284897,0
                65.651041483,32.6873014810001,0
                65.7619262370001,32.7508214370001,0
                65.7697441700001,32.851215487,0
                65.669355764,32.8537499670001,0
                65.592768291,32.832534315,0
                65.5214191140001,32.8535919220001,0
                65.4843559290001,32.9275207360001,0
                65.5556063280001,32.9989235350001,0
                65.6110120160001,33.0650259490001,0
                65.5977158970001,33.146905341,0
                65.5421606310001,33.2208143980001,0
                65.441859714,33.1414553770001,0
                65.3653653760001,33.0330627710001,0
                65.2650785700001,32.94049512,0
                65.1859340390001,32.840024869,0
                65.090925041,32.752746315,0
                64.9562365310001,32.715618218,0
                64.768719149,32.673150225,0
                64.6577497280001,32.688882047,0
                64.554671619,32.7363230460001,0
                64.4807230500001,32.7177519420001,0
                64.467607554,32.6305608770001,0
                64.409565785,32.559172188,0
                64.3276440600001,32.5855019580001,0
                64.2483697060001,32.6065510980001,0
                64.179746922,32.5483597510001,0
                64.119038027,32.5007437730001,0
                63.9843438730001,32.4688991290001,0
                63.8734054980001,32.455571966,0
                63.7175239150001,32.473897535,0
                63.61184359,32.4843515490001,0
                63.5299049320001,32.5265316740001,0
                63.53247328,32.5952193690001,0
                63.5033380950001,32.6665149230001,0
                63.400355941,32.6241372420001,0
                63.2736123650001,32.568525531,0
                63.2102335220001,32.547323991,0
                63.1388476560001,32.6027240340001,0
                63.0358203470001,32.602613966,0
                62.94866597,32.581387025,0
                62.8271352900001,32.591824106,0
                62.6659505010001,32.628636112,0
                62.457254156,32.6284131560001,0
                62.2274296480001,32.6228841700001,0
                62.0926875170001,32.635948865,0
                62.0239518440001,32.6834265540001,0
                62.0819879680001,32.760098693,0
                62.232507077,32.815735804,0
                62.393629778,32.8370417680001,0
                62.483423058,32.8609132560001,0
                62.5626550790001,32.879490005,0
                62.678814817,32.950940782,0
                62.7950422900001,32.9589901370001,0
                62.8531038140001,33.011886745,0
                62.845102436,33.0832048770001,0
                62.69185129,33.1121001720001,0
                62.6046207140001,33.1621998300001,0
                62.533260248,33.193824341,0
                62.4724807970001,33.21225151,0
                62.395983636,33.106500629,0
                62.3114399410001,33.114335496,0
                62.1899177270001,33.1168473990001,0
                62.0683701140001,33.1431348350001,0
                61.9203967760001,33.1773192270001,0
                61.8464764300001,33.132330864,0
                61.759392609,33.0450607760001,0
                61.7040010330001,32.9657497320001,0
                61.66182373,32.8811693480001,0
                61.595805983,32.85732326,0
                61.5165288060001,32.881014125,0
                61.54810816,32.994642205,0
                61.508389138,33.0817768260001,0
                61.4027088140001,33.0922308400001,0
                61.3761504440001,33.2242889120001,0
                61.302111563,33.2902530370001,0
                61.238625475,33.3694370800001,0
                61.3046150000001,33.4197004270001,0
                61.4155279760001,33.456803124,0
                61.51058213,33.501814064,0
                61.6347517120001,33.494021532,0
                61.6981813560001,33.467672006,0
                61.8619796500001,33.4572800810001,0
                62.004615915,33.4732828370001,0
                62.1524509640001,33.5685430140001,0
                62.2052121030001,33.637284332,0
                62.1311873340001,33.6900398270001,0
                62.004401424,33.674054004,0
                61.909333159,33.642251693,0
                61.814236672,33.636866641,0
                61.819407235,33.742541321,0
                61.7849716640001,33.829681586,0
                61.671360517,33.845410585,0
                61.5788747110001,33.8690873410001,0
                61.494291505,33.9139063690001,0
                61.4307884830001,34.0089407670001,0
                61.4227842830001,34.082900625,0
                61.3276144180001,34.146200445,0
                61.232548975,34.1117564080001,0
                61.153274621,34.1328055490001,0
                61.1452788870001,34.198840229,0
                61.1663308490001,34.2754728580001,0
                61.2270030560001,34.3574312710001,0
                61.306206854,34.4024252790001,0
                61.3933330080001,34.450069479,0
                61.4778005030001,34.513561211,0
                61.5702270420001,34.5453607000001,0
                61.6732712850001,34.529620412,0
                61.689175263,34.4794445530001,0
                61.6760287220001,34.4213124730001,0
                61.633806264,34.378999703,0
                61.570475399,34.312888822,0
                61.512394118,34.278484296,0
                61.4622436600001,34.2388047860001,0
                61.5891537470001,34.138554669,0
                61.6737143760001,34.114869448,0
                61.795214011,34.1334913520001,0
                61.8849818910001,34.1811383740001,0
                61.9668245930001,34.228776929,0
                62.0618533460001,34.297563403,0
                62.1489625670001,34.3610579580001,0
                62.2889429940001,34.3902665200001,0
                62.3946063860001,34.3956628620001,0
                62.6508650850001,34.385369715,0
                62.7591758460001,34.385485427,0
                62.7590347350001,34.517571721,0
                62.478992035,34.535764645,0
                62.315176808,34.562006925,0
                62.15132207,34.6252333680001,0
                61.976931473,34.659389537,0
                61.889746051,34.667221581,0
                61.699499454,34.706644269,0
                61.5699956180001,34.761982222,0
                61.4880343830001,34.825296155,0
                61.4535931680001,34.9177198720001,0
                61.442961353,34.978468278,0
                61.3027664360001,35.1500308820001,0
                61.1864063180001,35.2661426430001,0
                61.0409589940001,35.4086406170001,0
                60.9351460250001,35.543255748,0
                60.935030313,35.6515665090001,0
                60.897930439,35.759837759,0
                60.8713852390001,35.8795677780001,0
                61.06137125,36.0840644470001,0
                61.2022632970001,36.084214966,0
                61.357184342,36.140737356,0
                61.4767920620001,36.281757344,0
                61.554192377,36.366375358,0
                61.6245104600001,36.4862088580001,0
                61.6349644730001,36.591889182,0
                61.6419112390001,36.683476539,0
                61.6558875540001,36.7891606260001,0
                61.662823029,36.891314886,0
                61.680325409,36.993480436,0
                61.7189879370001,37.071012454,0
                61.8949901060001,37.1768696390001,0
                62.0464076640001,37.2157767590001,0
                62.162643603,37.2159009380001,0
                62.2612379330001,37.2441847110001,0
                62.380905861,37.3288478810001,0
                62.5076071030001,37.424085479,0
                62.6201890360001,37.547486436,0
                62.74337174,37.639197971,0
                62.9159193420001,37.6816499720001,0
                63.092023112,37.692405024,0
                63.2752053520001,37.6714668910001,0
                63.3985197590001,37.639897885,0
                63.52534518,37.6188995460001,0
                63.676807894,37.615539052,0
                63.835307684,37.6192306880001,0
                63.9867026640001,37.6792716150001,0
                64.109896657,37.7604162480001,0
                64.1908493760001,37.8168596150001,0
                64.2647499670001,37.8803400580001,0
                64.370298587,37.993166586,0
                64.4688552870001,38.0566733700001,0
                64.56398376,38.0321188620001,0
                64.637963373,38.021630981,0
                64.7014024250001,37.9864757030001,0
                64.8423734940001,37.912657897,0
                64.948125315,37.8352801610001,0
                65.0115681290001,37.796602582,0
                65.0116321,37.736723462,0
                65.0257965640001,37.66629249,0
                65.0927353380001,37.6522747820001,0
                65.166692374,37.6629207080001,0
                65.237119582,37.6806074740001,0
                65.3216209440001,37.712398496,0
                65.413125515,37.782942357,0
                65.4553065810001,37.86400044,0
                65.589138974,37.8782326370001,0
                65.7370756230001,37.878390682,0
                65.8779676710001,37.8785412020001,0
                66.0329338710001,37.892795978,0
                66.2371972350001,37.9211926400001,0
                66.3780366010001,37.970655376,0
                66.532965172,38.020133163,0
                66.680803983,38.1118710390001,0
                66.8075089880001,38.2035863360001,0
                66.9272672280001,38.2037142780001,0
                67.061152303,38.16863426,0
                67.18100838,38.0771823700001,0
                67.293684388,38.112525797,0
                67.420487231,38.112661265,0
                67.526058429,38.2043539840001,0
                67.6317274640001,38.204466874,0
                67.6668676900001,38.28199513,0
                67.6667548010001,38.387664165,0
                67.747669891,38.479330545,0
                67.828603795,38.5533854170001,0
                67.9060266880001,38.6168696240001,0
                68.029307229,38.6170013280001,0
                68.0962685810001,38.5818498140001,0
              </coordinates>
            </LinearRing>
          </outerBoundaryIs>
        </Polygon>
      </Placemark>
    </Document>
  </Document>
</kml>
