<?xml version="1.0" encoding="UTF-8"?>
<kml xmlns="http://www.opengis.net/kml/2.2">
  <Document id="root_doc">
    <Schema id="Bioregions_PA31.schema">
      <SimpleField name="OBJECTID" type="float"/>
      <SimpleField name="Shape_Leng" type="float"/>
      <SimpleField name="Shape_Area" type="float"/>
      <SimpleField name="Bioregions" type="string"/>
    </Schema>
    <Document id="Bioregions_PA31">
      <name>Bioregions_PA31</name>
      <Placemark id="Bioregions_PA31.1">
        <ExtendedData>
          <SchemaData schemaUrl="#Bioregions_PA31.schema">
            <SimpleData name="OBJECTID">142</SimpleData>
            <SimpleData name="Shape_Leng">110.45521559000</SimpleData>
            <SimpleData name="Shape_Area">80.83087759220</SimpleData>
            <SimpleData name="Bioregions">PA31</SimpleData>
          </SchemaData>
        </ExtendedData>
        <Polygon>
          <outerBoundaryIs>
            <LinearRing>
              <coordinates>
                82.7206488960001,45.392000206,0
                82.7208295180001,45.22292975,0
                82.720942408,45.1172607140001,0
                82.622317975,45.1171553500001,0
                82.5166790430001,45.088864051,0
                82.3969659590001,45.046468496,0
                82.3477214760001,44.9830143930001,0
                82.4534732980001,44.9056366570001,0
                82.5662095120001,44.8846232650001,0
                82.7211907650001,44.884788836,0
                82.848038763,44.8426566890001,0
                82.890404215,44.751122014,0
                82.791930301,44.6101246040001,0
                82.8906600970001,44.5116055340001,0
                83.010508649,44.427198247,0
                83.1373415960001,44.3991553050001,0
                83.3064045260001,44.40638053,0
                83.46843038,44.4065536270001,0
                83.6022702990001,44.4137412220001,0
                83.7361177440001,44.413884216,0
                83.8558910360001,44.399922953,0
                83.9687025110001,44.3084635370001,0
                84.123683763,44.308629108,0
                84.3349917300001,44.3370332960001,0
                84.5110842110001,44.3583552530001,0
                84.6871992700001,44.3585434020001,0
                84.8281439990001,44.309381704,0
                84.947902239,44.309509645,0
                85.1028232830001,44.366032036,0
                85.2225363680001,44.40842759,0
                85.342249452,44.4508231460001,0
                85.5114026940001,44.373513143,0
                85.673496282,44.3102848190001,0
                85.8989461360001,44.289391842,0
                86.0891805040001,44.2614166340001,0
                86.370972124,44.2546730710001,0
                86.6246229640001,44.2126763900001,0
                86.8078202560001,44.177649054,0
                87.0121739320001,44.1215104880001,0
                87.181342225,44.03011128,0
                87.301138096,43.995016209,0
                87.3645846730001,43.952816329,0
                87.4351059560001,43.8824455650001,0
                87.470471961,43.7486357500001,0
                87.548000217,43.7134955230001,0
                87.667720826,43.748846476,0
                87.738016331,43.8898137830001,0
                87.7871328720001,44.073026127,0
                87.7869522500001,44.242096583,0
                87.871321907,44.3971681470001,0
                87.9910274650001,44.4466083040001,0
                88.1459786130001,44.474952285,0
                88.315003915,44.5174005220001,0
                88.4981635760001,44.517596197,0
                88.6673092920001,44.4473307960001,0
                88.8153287270001,44.3699982160001,0
                88.9703852390001,44.299717763,0
                89.0972257110001,44.264630219,0
                89.2099167710001,44.2858844410001,0
                89.343704008,44.342384253,0
                89.5198190670001,44.342572402,0
                89.7734849590001,44.2864865180001,0
                89.935616177,44.1880351820001,0
                89.984996127,44.124686442,0
                90.133000511,44.061443066,0
                90.2739602920001,43.998192164,0
                90.4008007640001,43.963104619,0
                90.5346557350001,43.9562030100001,0
                90.6686010170001,43.8647661730001,0
                90.8025011440001,43.8155969490001,0
                90.9857134870001,43.7664804070001,0
                91.084352972,43.752496566,0
                91.218253098,43.7033273430001,0
                91.394109837,43.69937751,0
                91.5915853450001,43.6949421080001,0
                91.8170593510001,43.6898778450001,0
                91.9790626270001,43.711184749,0
                92.119864362,43.7958704960001,0
                92.239487136,43.92280128,0
                92.352193248,43.9299662980001,0
                92.556449086,43.965407563,0
                92.6831917210001,44.0218998490001,0
                92.8310004290001,44.1418161340001,0
                92.9718473200001,44.1842342670001,0
                93.1127544190001,44.1702955820001,0
                93.3029436310001,44.184587987,0
                93.4649845380001,44.17067188,0
                93.6693758430001,44.0793103010001,0
                93.852640868,43.9808815440001,0
                93.9865635720001,43.9105785130001,0
                94.0993750480001,43.819119098,0
                94.0995105150001,43.692316255,0
                94.2334256930001,43.629057828,0
                94.3320877560001,43.5939401790001,0
                94.4026165650001,43.516524813,0
                94.5717773330001,43.4321702070001,0
                94.762026753,43.3901057940001,0
                94.980507264,43.298759268,0
                95.100288081,43.277753402,0
                95.058140882,43.1649946090001,0
                94.9454648750001,43.129651181,0
                94.811677638,43.0731513690001,0
                94.6637485140001,43.065948722,0
                94.50172266,43.0657756250001,0
                94.3255624450001,43.10785509,0
                94.1070819340001,43.199201616,0
                93.9238394870001,43.276496567,0
                93.7265003100001,43.3608210690001,0
                93.578563661,43.3606630240001,0
                93.4094781520001,43.374571605,0
                93.2122970190001,43.3109594580001,0
                93.1349495310001,43.1770291380001,0
                93.0669897120001,43.1958287320001,0
                92.8812683620001,43.247204385,0
                92.6699144830001,43.261067897,0
                92.310557551,43.3381743680001,0
                92.197961794,43.3634730590001,0
                92.092122864,43.3872534390001,0
                91.990468627,43.4190825160001,0
                91.84547704,43.4644806910001,0
                91.7953244460001,43.471949017,0
                91.704564394,43.485464027,0
                91.5213596280001,43.527535856,0
                91.3925387680001,43.5018683970001,0
                91.3735051300001,43.4498872440001,0
                91.3736330710001,43.330129006,0
                91.176384612,43.3299182810001,0
                91.0617212980001,43.3465731210001,0
                90.887508843,43.371877269,0
                90.633912863,43.364561844,0
                90.54183678,43.360078629,0
                90.338055764,43.3501562800001,0
                90.1689989540001,43.335886477,0
                89.9365113800001,43.3497272990001,0
                89.689913243,43.384687066,0
                89.4292314950001,43.4125869480001,0
                89.1614697950001,43.475702481,0
                88.935982729,43.531818365,0
                88.654212489,43.517428147,0
                88.5388528670001,43.520422759,0
                88.3935560210001,43.5241944150001,0
                88.083577797,43.5379524680001,0
                87.900448209,43.5095784010001,0
                87.7949226790001,43.375618187,0
                87.7935344750001,43.373653946,0
                87.6753446880001,43.20641964,0
                87.6755629410001,43.0021260830001,0
                87.6545345820001,42.903479132,0
                87.471427448,42.8539711660001,0
                87.2600582260001,42.881923597,0
                87.20628652,42.869914013,0
                87.1332869120001,42.8536098540001,0
                86.971260713,42.8534367570001,0
                86.861170584,42.882282344,0
                86.8373760530001,42.888516897,0
                86.6613297440001,42.824927259,0
                86.4640943300001,42.810627395,0
                86.1823118610001,42.8103263150001,0
                86.041494475,42.739729901,0
                85.994217136,42.6821972110001,0
                85.942997227,42.619866261,0
                85.8232612800001,42.5986044540001,0
                85.6189904450001,42.577252478,0
                85.5347138590001,42.553075875,0
                85.4710999170001,42.5348265630001,0
                85.2668289480001,42.5134747380001,0
                85.090730152,42.499197431,0
                85.032866223,42.466568427,0
                84.978082042,42.435675513,0
                84.914638348,42.4285575420001,0
                84.7879013670001,42.414338376,0
                84.6469713440001,42.449410958,0
                84.442647933,42.4773710590001,0
                84.2947096240001,42.477213012,0
                84.1045074680001,42.4770098770001,0
                83.9705919090001,42.540268338,0
                83.8367437250001,42.5401253420001,0
                83.6183914810001,42.511713652,0
                83.587318979,42.498002081,0
                83.4423601120001,42.4340348370001,0
                83.280333913,42.4338617390001,0
                83.234701709,42.4323869770001,0
                83.054914432,42.4265763870001,0
                82.9000318810001,42.334831088,0
                82.7802953670001,42.3135691630001,0
                82.6394177720001,42.299329469,0
                82.5861006370001,42.2645923750001,0
                82.498623007,42.2075990820001,0
                82.4824046910001,42.206680691,0
                82.371828415,42.2004191020001,0
                82.2027574900001,42.2002384790001,0
                81.998479128,42.1859310310001,0
                81.836528419,42.11531181,0
                81.716799284,42.0870054750001,0
                81.5759099160001,42.0868549360001,0
                81.4580995480001,42.0277931420001,0
                81.449173036,42.0233180160001,0
                81.3508100550001,42.010096016,0
                81.2378645680001,41.994913878,0
                81.0546892250001,42.0088073150001,0
                80.927887904,42.0086718490001,0
                80.899478055,41.995106273,0
                80.7800258620001,41.938067893,0
                80.4841902310001,41.902528741,0
                80.329231796,41.8812294470001,0
                80.110879777,41.8528177480001,0
                79.8643868550001,41.7891529400001,0
                79.6107814050001,41.7888819410001,0
                79.4488079800001,41.7393965740001,0
                79.244589934,41.6687324280001,0
                79.110863367,41.5558755760001,0
                79.0194114320001,41.436019505,0
                78.9466054230001,41.3727859000001,0
                78.913838635,41.3443268510001,0
                78.7307466780001,41.2807298650001,0
                78.6476617650001,41.239076186,0
                78.5617679330001,41.1960138490001,0
                78.5057162960001,41.15856037,0
                78.45617271,41.1254550530001,0
                78.3435348720001,41.0544483480001,0
                78.2732011680001,40.949144356,0
                78.1161059070001,40.877995733,0
                78.0549245540001,40.850286458,0
                78.012128509,40.82757144,0
                77.93523356,40.786757284,0
                77.7732374970001,40.7584056110001,0
                77.5266917390001,40.744052955,0
                77.48372799,40.737561557,0
                77.385822218,40.722768806,0
                77.1956187150001,40.722565606,0
                77.091262364,40.726802052,0
                77.026540303,40.7294294340001,0
                76.9712136570001,40.738104752,0
                76.8926703960001,40.750420381,0
                76.8449765230001,40.7609655030001,0
                76.765836784,40.7784630620001,0
                76.7076035910001,40.7242731950001,0
                76.6673116170001,40.6867780750001,0
                76.596963132,40.5951229390001,0
                76.4853057350001,40.5095492400001,0
                76.4773019500001,40.50341516,0
                76.471477275,40.499678584,0
                76.301308202,40.3905135430001,0
                76.139394892,40.28467139,0
                75.9633861670001,40.1858585620001,0
                75.850694554,40.1646045890001,0
                75.7309357330001,40.1644766040001,0
                75.6181920610001,40.1925345880001,0
                75.5054794060001,40.1924141650001,0
                75.4364770590001,40.1641003670001,0
                75.3505632150001,40.1288471350001,0
                75.1885399510001,40.1286740400001,0
                75.047617571,40.1567017730001,0
                74.9884075910001,40.133603389,0
                74.9208660940001,40.1072543340001,0
                74.8783912590001,40.0724260470001,0
                74.8434441350001,40.0437701160001,0
                74.7307387130001,40.036604928,0
                74.611009724,40.0082986290001,0
                74.615753398,39.9753414310001,0
                74.62520356,39.9096893560001,0
                74.7380676480001,39.768917668,0
                74.805371506,39.7375969060001,0
                74.8437908120001,39.7197181780001,0
                74.9777431580001,39.621236921,0
                75.090577002,39.508643691,0
                75.2033882700001,39.41718423,0
                75.3161468550001,39.3750371040001,0
                75.318805807,39.37326855,0
                75.4218907280001,39.3047039300001,0
                75.4923744810001,39.2695562000001,0
                75.565035713,39.254067175,0
                75.5910219500001,39.2485277980001,0
                75.682616878,39.234536457,0
                75.732027486,39.1430092630001,0
                75.727201113,39.1089700530001,0
                75.7180424480001,39.04436975,0
                75.7676198080001,38.9639997850001,0
                75.7744977940001,38.9528500760001,0
                75.7897014800001,38.941472554,0
                75.859100266,38.889539041,0
                75.939373839,38.855237636,0
                75.957770382,38.847376705,0
                75.9649050310001,38.762849067,0
                75.82409577,38.6852079220001,0
                75.6338915060001,38.685004721,0
                75.4648361010001,38.670734893,0
                75.218267493,38.6775160870001,0
                75.0835046650001,38.7099534390001,0
                74.9927198020001,38.789988894,0
                75.0067111690001,38.8815837770001,0
                75.1863626400001,38.868567059,0
                75.3131795940001,38.855493897,0
                75.3730304920001,38.881975127,0
                75.436371706,38.93839968,0
                75.401058382,39.022897277,0
                75.2953216130001,39.086185809,0
                75.196621921,39.1565264700001,0
                75.1261533190001,39.1775850180001,0
                74.928806616,39.268954121,0
                74.85127836,39.304094348,0
                74.6944569340001,39.377895219,0
                74.4408173830001,39.4093249960001,0
                74.2611010000001,39.483101408,0
                74.1184308690001,39.498799363,0
                73.917608902,39.5461359390001,0
                73.84359542,39.5883245310001,0
                73.7536525630001,39.7044645140001,0
                73.642558964,39.8364322740001,0
                73.552649972,39.9208715460001,0
                73.468030077,40.0000330120001,0
                73.3940278850001,40.0316547,0
                73.3147196640001,40.084404551,0
                73.2723673820001,40.1636111720001,0
                73.219482064,40.2111057920001,0
                73.134935548,40.221582384,0
                73.066273252,40.2003752000001,0
                73.0293850460001,40.110517008,0
                72.9766069720001,40.0576260450001,0
                72.8392372270001,40.0574792890001,0
                72.7599685170001,40.073244978,0
                72.691221554,40.131289569,0
                72.6331148740001,40.120660576,0
                72.5221736760001,40.109975139,0
                72.4165046410001,40.10986225,0
                72.3213460640001,40.1625951670001,0
                72.242094287,40.1625104990001,0
                72.1787380220001,40.1201751520001,0
                72.1735392370001,40.040917731,0
                72.2264471330001,39.972289302,0
                72.2264979330001,39.9247382360001,0
                72.1578356380001,39.9035310520001,0
                72.0204658920001,39.9033842950001,0
                71.9517810190001,39.9033109170001,0
                71.883039701,39.956072056,0
                71.909372293,40.0353520560001,0
                71.851197879,40.088124484,0
                71.750823584,40.077450336,0
                71.6504605790001,40.056209284,0
                71.5236972480001,40.019089654,0
                71.455040597,39.992599017,0
                71.3652783620001,39.939668544,0
                71.2754653260001,39.9342891360001,0
                71.1486624830001,39.9341536690001,0
                71.090595314,39.886540514,0
                71.000816145,39.8494603950001,0
                70.9057591690001,39.80709118,0
                70.8423690370001,39.796456543,0
                70.7736051410001,39.8703514900001,0
                70.6732421360001,39.849110438,0
                70.546439293,39.84897497,0
                70.4566431910001,39.8277452080001,0
                70.3404354740001,39.80120377,0
                70.197754054,39.8274686290001,0
                70.113218826,39.8273783170001,0
                69.9970167530001,39.7955534290001,0
                69.9442273920001,39.7532293690001,0
                69.9257974000001,39.6950916440001,0
                69.9548817840001,39.671347156,0
                70.0288642200001,39.658217549,0
                70.0949130120001,39.653004653,0
                70.1635950620001,39.655719757,0
                70.211151773,39.650487105,0
                70.293053743,39.642649417,0
                70.3828921780001,39.624253292,0
                70.4014632820001,39.5503047230001,0
                70.3618599710001,39.5291285820001,0
                70.309048031,39.5079383300001,0
                70.232437981,39.507856486,0
                70.1637672190001,39.4945744790001,0
                70.095071057,39.5050680040001,0
                70.0184610060001,39.5049861590001,0
                69.968254103,39.5181411660001,0
                69.883730164,39.507483951,0
                69.799194936,39.507393639,0
                69.6671058200001,39.509894253,0
                69.627482753,39.507210194,0
                69.5535313620001,39.491280816,0
                69.4743021640001,39.4700623420001,0
                69.371308721,39.438251564,0
                69.3264219590001,39.4170697800001,0
                69.3423400470001,39.353685291,0
                69.3265235590001,39.3219676480001,0
                69.2525834570001,39.2954713660001,0
                69.1257806140001,39.2953358990001,0
                68.9646325130001,39.297805468,0
                68.7876368780001,39.297616378,0
                68.6714009400001,39.2974922000001,0
                68.576315741,39.281540245,0
                68.507667557,39.24712443,0
                68.4258417880001,39.1836355200001,0
                68.3545490560001,39.1518586080001,0
                68.3043675530001,39.1412380830001,0
                68.2567826210001,39.1728879930001,0
                68.251428613,39.238925496,0
                68.2936426050001,39.2891634430001,0
                68.3305872550001,39.3261871170001,0
                68.3437479070001,39.3711105680001,0
                68.3172629140001,39.4344837670001,0
                68.2512197670001,39.434413211,0
                68.1878381020001,39.415853396,0
                68.124473369,39.381443226,0
                68.0584810230001,39.333821604,0
                68.0136224830001,39.286222561,0
                67.9449686550001,39.257090197,0
                67.8921651810001,39.227974768,0
                67.857859434,39.193595643,0
                67.842062701,39.143385917,0
                67.8764446490001,39.106438444,0
                67.937218456,39.0932947260001,0
                67.997980973,39.0907179110001,0
                68.066668668,39.0881495630001,0
                68.12484026,39.0380188610001,0
                68.1513054970001,38.993137743,0
                68.2041513030001,38.982627285,0
                68.2754807250001,38.9800617590001,0
                68.3256622280001,38.990682285,0
                68.3705659230001,38.9960137150001,0
                68.428672604,39.006642707,0
                68.4920712030001,39.009352166,0
                68.542263995,39.009405789,0
                68.5977063710001,39.0411657660001,0
                68.642556444,39.096689989,0
                68.7164683250001,39.149603529,0
                68.777236486,39.141743262,0
                68.8327183750001,39.1365190770001,0
                68.8750396120001,39.086371442,0
                68.9041352850001,39.052060049,0
                68.9490700250001,39.028332495,0
                69.0018819650001,39.049522746,0
                69.0388237940001,39.089188146,0
                69.0758023120001,39.0945111090001,0
                69.110130638,39.107756427,0
                69.1550343320001,39.113087857,0
                69.1972680800001,39.144833723,0
                69.2764972790001,39.166052198,0
                69.324053989,39.160819546,0
                69.3716078780001,39.158228621,0
                69.406012403,39.10014734,0
                69.4403887060001,39.0684833180001,0
                69.514348564,39.0764875180001,0
                69.5777161190001,39.108255963,0
                69.6437225770001,39.142668955,0
                69.7123933390001,39.1559509620001,0
                69.75996416,39.137509682,0
                69.8022317750001,39.137554837,0
                69.8418266190001,39.166656156,0
                69.8813960620001,39.2195330070001,0
                69.9262771790001,39.2459982440001,0
                69.994931008,39.2751306070001,0
                70.031867192,39.3200794580001,0
                70.1005181990001,39.3518535470001,0
                70.1956062190001,39.365163776,0
                70.235246219,39.3519974800001,0
                70.277536411,39.3309088300001,0
                70.317179233,39.3151008080001,0
                70.372658298,39.3125183490001,0
                70.451893141,39.3284533710001,0
                70.5231971630001,39.3496633780001,0
                70.58658165,39.365581467,0
                70.6605217520001,39.3920777480001,0
                70.7186058550001,39.423840549,0
                70.7846292470001,39.442403185,0
                70.8533141200001,39.4424765640001,0
                70.929929815,39.4372749570001,0
                71.0038812060001,39.4532043340001,0
                71.0725265680001,39.490261875,0
                71.143810833,39.529963964,0
                71.223028743,39.5617493410001,0
                71.30226923,39.572400912,0
                71.3735986520001,39.5698353860001,0
                71.4502002360001,39.577842409,0
                71.4924876050001,39.5593954830001,0
                71.569103301,39.5541938760001,0
                71.6351351590001,39.5648313360001,0
                71.6985140020001,39.586032877,0
                71.7513118310001,39.6204317580001,0
                71.8041350600001,39.6310551060001,0
                71.8648919330001,39.633761743,0
                71.923018369,39.6258986550001,0
                71.9600251090001,39.6048043590001,0
                71.9785454130001,39.5784068560001,0
                71.9997271980001,39.533520094,0
                71.9997667090001,39.496535931,0
                71.976039154,39.4516011910001,0
                71.9364471320001,39.419858146,0
                71.883632371,39.4013096210001,0
                71.7779859130001,39.3800629250001,0
                71.7093066840001,39.3747060950001,0
                71.624808145,39.340273347,0
                71.5694165690001,39.260962303,0
                71.4901873700001,39.2397438290001,0
                71.4109525270001,39.2238088070001,0
                71.3105923430001,39.199926029,0
                71.2392798550001,39.1866411990001,0
                71.1626698050001,39.1865593540001,0
                71.101879065,39.2155534280001,0
                71.0305411780001,39.226044131,0
                70.9433585780001,39.2312344480001,0
                70.8984464160001,39.233828197,0
                70.848264913,39.2232076710001,0
                70.776960892,39.201997663,0
                70.6950730340001,39.1966267220001,0
                70.6316631460001,39.204484166,0
                70.586753807,39.204436188,0
                70.523369319,39.1885180990001,0
                70.4811129940001,39.177906041,0
                70.4335675720001,39.172571788,0
                70.3913225360001,39.1513928250001,0
                70.3147322400001,39.132818899,0
                70.3623566850001,39.064184826,0
                70.4046976770001,38.995545109,0
                70.4390542240001,38.982373169,0
                70.5130366610001,38.969243562,0
                70.5870021630001,38.97196431,0
                70.6900068940001,38.9932081850001,0
                70.758666367,39.017057095,0
                70.8273117300001,39.0541146360001,0
                70.9118243790001,39.0753387550001,0
                70.9857785940001,39.0886264060001,0
                71.059752562,39.083421978,0
                71.1178874650001,39.067633712,0
                71.1469633830001,39.0518144010001,0
                71.1733891090001,39.0439174460001,0
                71.2051067530001,39.028100957,0
                71.2553136560001,39.01494595,0
                71.300228641,39.0097104760001,0
                71.345154914,38.9939080990001,0
                71.353116781,38.959574129,0
                71.3320365970001,38.909358759,0
                71.3030255900001,38.8644183750001,0
                71.266106339,38.8036191680001,0
                71.2132972210001,38.77978719,0
                71.165774378,38.7533191310001,0
                71.1314742740001,38.7136565540001,0
                71.1394417860001,38.6740391320001,0
                71.168540281,38.637086014,0
                71.221419955,38.594874845,0
                71.2954165020001,38.568536609,0
                71.3482510200001,38.5685930540001,0
                71.435427974,38.5686861880001,0
                71.490895751,38.5766706320001,0
                71.5226641950001,38.513303077,0
                71.5253595440001,38.4631131080001,0
                71.4699030560001,38.4445617600001,0
                71.4303025680001,38.4207438930001,0
                71.401297205,38.3705200570001,0
                71.3934585760001,38.2894986630001,0
                71.4006010160001,38.1979263590001,0
                71.4605290540001,38.152200414,0
                71.5415457450001,38.148764661,0
                71.619006267,38.1770258560001,0
                71.7070374560001,38.201776039,0
                71.7704351140001,38.2053660730001,0
                71.819788723,38.166673442,0
                71.8339155570001,38.1314654820001,0
                71.802256239,38.0926863030001,0
                71.7459332880001,38.0609253850001,0
                71.686072983,38.0432499080001,0
                71.629734978,38.025578194,0
                71.5945571220001,37.9832729500001,0
                71.5770171130001,37.916330413,0
                71.5946888270001,37.859992409,0
                71.6757280950001,37.8354228490001,0
                71.7672891110001,37.8531321930001,0
                71.8341827290001,37.8813820980001,0
                71.9011365550001,37.8532751860001,0
                71.9047228270001,37.7933998290001,0
                71.8766121510001,37.7299683040001,0
                71.837904468,37.694703899,0
                71.77101085,37.6664539930001,0
                71.6900092120001,37.6558005410001,0
                71.6689280860001,37.606465746,0
                71.690118338,37.553653807,0
                71.71130859,37.5008418670001,0
                71.7254956310001,37.4092770880001,0
                71.6938438400001,37.3634533060001,0
                71.630438655,37.3669078730001,0
                71.588144701,37.391518826,0
                71.5528878220001,37.4231819070001,0
                71.496583684,37.3738094830001,0
                71.5107406230001,37.3104231130001,0
                71.5390093440001,37.225917989,0
                71.5461028650001,37.1801356,0
                71.5708568110001,37.0885821100001,0
                71.58854734,37.0146326,0
                71.584537122,36.9517193980001,0
                71.4336676880001,36.919364897,0
                71.415950819,37.0179705150001,0
                71.3459460830001,37.1450541240001,0
                71.329443713,37.2151271880001,0
                71.309973219,37.3066863220001,0
                71.3098377520001,37.433489165,0
                71.3132471640001,37.539161963,0
                71.3554131770001,37.634309251,0
                71.38348246,37.736486089,0
                71.4151041480001,37.8104882810001,0
                71.414995022,37.912635015,0
                71.3832190510001,37.9830471710001,0
                71.302187309,38.000572129,0
                71.242327005,37.9828966530001,0
                71.1789895540001,37.922949798,0
                71.0803914620001,37.8981883270001,0
                70.9817519760001,37.912172168,0
                70.9323569750001,37.989610112,0
                71.0273386910001,38.1024253510001,0
                71.0942134950001,38.148286763,0
                71.118794343,38.2187591270001,0
                71.0447883890001,38.2539031160001,0
                70.970793724,38.278480202,0
                70.9143465930001,38.362955222,0
                70.850975276,38.33470908,0
                70.777052106,38.2923624430001,0
                70.699561481,38.2922796570001,0
                70.5762847020001,38.2886256520001,0
                70.505819864,38.306161898,0
                70.453034265,38.260315538,0
                70.39674518,38.196853909,0
                70.3263405490001,38.1580333370001,0
                70.2911551670001,38.122772695,0
                70.203146556,38.076888705,0
                70.1574281370001,38.009916064,0
                70.1645254210001,37.9606113730001,0
                70.199895725,37.931200092,0
                70.2245550600001,37.8197832970001,0
                70.2316899740001,37.7352555950001,0
                70.2282165920001,37.689461916,0
                70.1859941340001,37.6471491470001,0
                70.129667419,37.6189105290001,0
                70.045109612,37.6399540250001,0
                69.9957898700001,37.6469459460001,0
                69.890094494,37.671489164,0
                69.773877369,37.65375348,0
                69.692860679,37.6571892330001,0
                69.615377579,37.650061845,0
                69.530846114,37.6464492320001,0
                69.47450811,37.628777519,0
                69.428759588,37.5899832870001,0
                69.393577968,37.551200345,0
                69.3831051390001,37.4631315250001,0
                69.4289891290001,37.3751229150001,0
                69.4290681510001,37.3011545900001,0
                69.400946187,37.248289969,0
                69.316437299,37.2235435490001,0
                69.2741659220001,37.227020694,0
                69.245900964,37.3080035180001,0
                69.217613429,37.410120148,0
                69.1541254590001,37.4910653410001,0
                69.094163553,37.5684919970001,0
                69.051824443,37.635370563,0
                69.030641717,37.6811379010001,0
                69.012917321,37.786788121,0
                68.981178981,37.821977266,0
                68.9388963150001,37.836021316,0
                68.8402455410001,37.86057206,0
                68.7838623810001,37.885167961,0
                68.7591611170001,37.927409234,0
                68.7590820940001,38.001377559,0
                68.6991992120001,38.004835889,0
                68.646375983,37.994212541,0
                68.5865570700001,37.9377917520001,0
                68.586636093,37.8638234270001,0
                68.586726405,37.7792881990001,0
                68.5868091900001,37.701797572,0
                68.5657882730001,37.5961059590001,0
                68.5236297850001,37.493914069,0
                68.484982309,37.4022928460001,0
                68.3935078420001,37.303570576,0
                68.2984809700001,37.2330229510001,0
                68.213990897,37.190665026,0
                68.1259785230001,37.1483033370001,0
                68.0414508210001,37.1411684230001,0
                67.9815754640001,37.137582152,0
                67.907569509,37.1727261410001,0
                67.84760384,37.253675097,0
                67.858084196,37.334699313,0
                67.9143205990001,37.447473159,0
                67.9141663170001,37.591887507,0
                67.914064716,37.686989639,0
                67.906914751,37.7856065460001,0
                67.9068018620001,37.8912755810001,0
                67.9383972090001,37.9899338810001,0
                67.966383706,38.169601345,0
                67.973334234,38.2576664000001,0
                68.0084706970001,38.3387169580001,0
                68.061241244,38.3986525220001,0
                68.1421111780001,38.532586516,0
                68.0962685810001,38.5818498140001,0
                68.029307229,38.6170013280001,0
                67.9060266880001,38.6168696240001,0
                67.828603795,38.5533854170001,0
                67.747669891,38.479330545,0
                67.6667548010001,38.387664165,0
                67.6668676900001,38.28199513,0
                67.6317274640001,38.204466874,0
                67.526058429,38.2043539840001,0
                67.420487231,38.112661265,0
                67.293684388,38.112525797,0
                67.18100838,38.0771823700001,0
                67.061152303,38.16863426,0
                66.9272672280001,38.2037142780001,0
                66.8075089880001,38.2035863360001,0
                66.680803983,38.1118710390001,0
                66.532965172,38.020133163,0
                66.3780366010001,37.970655376,0
                66.2371972350001,37.9211926400001,0
                66.0329338710001,37.892795978,0
                65.8779676710001,37.8785412020001,0
                65.7370756230001,37.878390682,0
                65.589138974,37.8782326370001,0
                65.4553065810001,37.86400044,0
                65.4551936920001,37.969669475,0
                65.4656627580001,38.061260594,0
                65.493773434,38.124692119,0
                65.539488089,38.1951870620001,0
                65.571090962,38.2868007590001,0
                65.560433748,38.3713246990001,0
                65.5532724930001,38.4805085090001,0
                65.5989645700001,38.572137259,0
                65.67991729,38.6285806270001,0
                65.7925782460001,38.6780132580001,0
                65.919320881,38.7345055440001,0
                65.9122047820001,38.8014217410001,0
                65.8980591320001,38.854241206,0
                65.8627759130001,38.9105603960001,0
                65.8274926940001,38.9668795850001,0
                65.7957091980001,39.0443363430001,0
                65.7850595090001,39.121815681,0
                65.8202072610001,39.192299335,0
                65.8800111210001,39.262809329,0
                65.953911712,39.3262897720001,0
                65.999645183,39.3791732080001,0
                66.0418413,39.4461420870001,0
                66.0347176750001,39.5201028860001,0
                66.0592684210001,39.61875366,0
                66.0662001330001,39.724430221,0
                66.0026632450001,39.851165329,0
                65.9250973590001,39.921528568,0
                65.78065667,39.946030394,0
                65.6855470130001,39.9529733960001,0
                65.5974480900001,39.9916246350001,0
                65.526953147,40.03733929,0
                65.4669912420001,40.114765945,0
                65.4176451590001,40.146413974,0
                65.3471163500001,40.2238293410001,0
                65.297766503,40.258999671,0
                65.185041577,40.269446159,0
                65.107532135,40.2869748790001,0
                65.0511339240001,40.3256599850001,0
                65.01936548,40.389027539,0
                65.005212305,40.4488916070001,0
                65.036856571,40.501759991,0
                65.1460102770001,40.5370996560001,0
                65.1705685480001,40.628705827,0
                65.2303912240001,40.6816043160001,0
                65.304318155,40.7204286510001,0
                65.4064159710001,40.7663276930001,0
                65.497965698,40.7946039400001,0
                65.649371967,40.8440779650001,0
                65.765543935,40.9040812630001,0
                65.8500001410001,40.978139899,0
                65.9485417880001,41.0557358890001,0
                65.9414294520001,41.1191297840001,0
                66.039993677,41.1755919670001,0
                66.1244423580001,41.256695205,0
                66.201914168,41.274389496,0
                66.2934563690001,41.309710346,0
                66.360316121,41.3696609630001,0
                66.476491852,41.4261419590001,0
                66.515173195,41.4860624720001,0
                66.5327207300001,41.5459604070001,0
                66.553779277,41.6164290090001,0
                66.6241989600001,41.6411603760001,0
                66.750941595,41.697652663,0
                66.8248911050001,41.715343191,0
                66.9234478050001,41.7788499750001,0
                66.986822884,41.8035738180001,0
                67.0959314360001,41.881181096,0
                67.2227117,41.9024503700001,0
                67.349488202,41.927241946,0
                67.462160447,41.9661076740001,0
                67.5501916360001,41.990857857,0
                67.627607002,42.061386666,0
                67.6980078700001,42.1037295400001,0
                67.754338348,42.1284458550001,0
                67.856451215,42.1602556930001,0
                67.9551095150001,42.1286603450001,0
                67.9727962810001,42.0582331370001,0
                67.937614662,42.0194501940001,0
                67.9201009930001,41.927851549,0
                67.8849494780001,41.8608901970001,0
                67.8779989500001,41.7728251410001,0
                67.8957158200001,41.674219523,0
                67.902850733,41.58969182,0
                67.892400482,41.4804891950001,0
                67.8467084040001,41.388860445,0
                67.82914958,41.339529414,0
                67.8292210760001,41.2726056910001,0
                67.9067493320001,41.2374654660001,0
                67.991280798,41.241078078,0
                68.0475661200001,41.308062008,0
                68.068639719,41.364441404,0
                68.100280222,41.42083209,0
                68.1072458020001,41.494807941,0
                68.107136676,41.5969546760001,0
                68.0964869860001,41.6744340120001,0
                68.08931068,41.797707028,0
                68.0997910350001,41.8787312440001,0
                68.138408407,41.9985308770001,0
                68.18057442,42.093678164,0
                68.201651783,42.1465352600001,0
                68.198061748,42.209932918,0
                68.2226275450001,42.2944944870001,0
                68.257771534,42.368500442,0
                68.2611847090001,42.4706509390001,0
                68.2575608070001,42.5657493080001,0
                68.2363253990001,42.6608288620001,0
                68.236253903,42.7277525850001,0
                68.23614854,42.8263770180001,0
                68.2360920950001,42.879211535,0
                68.207819611,42.9672389610001,0
                68.172551443,43.009468945,0
                68.1090484220001,43.1045033440001,0
                68.0561649860001,43.150236814,0
                67.9997441960001,43.2100557260001,0
                67.9433535100001,43.2416962290001,0
                67.8869364830001,43.2979928410001,0
                67.8692459550001,43.371942351,0
                67.795191082,43.452876255,0
                67.745848761,43.4810019830001,0
                67.6506939480001,43.530212599,0
                67.5801500860001,43.6217171700001,0
                67.5237255340001,43.6850583840001,0
                67.4848786210001,43.7801191230001,0
                67.4425545620001,43.8329084850001,0
                67.407286395,43.875138469,0
                67.3685222660001,43.8927085820001,0
                67.3367726370001,43.9384646300001,0
                67.3543201730001,43.998362566,0
                67.4176651490001,44.0512648170001,0
                67.463436249,44.068925242,0
                67.5232438730001,44.1359129350001,0
                67.6006705280001,44.19587484,0
                67.6288113080001,44.2311279560001,0
                67.6252325620001,44.283958711,0
                67.589964394,44.326188695,0
                67.4736757740001,44.375376734,0
                67.3961362300001,44.421083863,0
                67.364390363,44.46331761,0
                67.293880368,44.5231214710001,0
                67.237478394,44.5653288770001,0
                67.149379471,44.6039801160001,0
                67.107089279,44.6250687680001,0
                67.085883976,44.691969912,0
                67.1034315110001,44.751867847,0
                67.166817881,44.7660247850001,0
                67.2513643980001,44.755548193,0
                67.3218442880001,44.7239227420001,0
                67.3958803460001,44.6606003430001,0
                67.4910539750001,44.593778221,0
                67.61793584,44.5199453640001,0
                67.7025124610001,44.481290362,0
                67.8047344550001,44.410953465,0
                67.882289051,44.35115713,0
                67.9245905330001,44.3195015760001,0
                68.01269698,44.2738057350001,0
                68.072583627,44.266825103,0
                68.1606411560001,44.266919177,0
                68.2874477610001,44.2635323430001,0
                68.3720093310001,44.2389665470001,0
                68.4671829600001,44.1721444250001,0
                68.5517482920001,44.144056327,0
                68.646850424,44.144157928,0
                68.805410421,44.091492744,0
                68.8899908060001,44.049315441,0
                68.967549164,43.9859968050001,0
                69.03454062,43.9226668810001,0
                69.1261731340001,43.8734525020001,0
                69.2318835610001,43.8348200780001,0
                69.2953263750001,43.796142499,0
                69.390458611,43.7680656900001,0
                69.474975025,43.7857675070001,0
                69.5242458480001,43.824565502,0
                69.5699793190001,43.877448938,0
                69.636899278,43.881042736,0
                69.724971859,43.867047606,0
                69.837741942,43.8143335030001,0
                69.92939327,43.747507619,0
                70.0245631350001,43.684207798,0
                70.102098916,43.642022969,0
                70.2042945700001,43.5963421800001,0
                70.2642677640001,43.508348621,0
                70.3312328790001,43.4696748050001,0
                70.412287199,43.4310160410001,0
                70.4546112580001,43.378226678,0
                70.5427148840001,43.3351725630001,0
                70.5604195240001,43.2480144250001,0
                70.588676956,43.174076203,0
                70.655657122,43.1213131820001,0
                70.733162801,43.1073067630001,0
                70.807142415,43.096818882,0
                70.951560526,43.093450863,0
                71.0959861630001,43.083038242,0
                71.1946670410001,43.0303090880001,0
                71.2370023890001,42.9669528220001,0
                71.2934307040001,42.900089307,0
                71.3814919970001,42.896661081,0
                71.4554226920001,42.931963115,0
                71.4905930210001,42.9813129620001,0
                71.4905252880001,43.044714383,0
                71.5115650210001,43.13279449,0
                71.624225977,43.182227122,0
                71.747480178,43.207014934,0
                71.8531341610001,43.2212170280001,0
                71.9764147020001,43.2213487330001,0
                72.0786141180001,43.1721456430001,0
                72.2230435180001,43.1582107200001,0
                72.3463353480001,43.147775521,0
                72.5189318690001,43.1444376050001,0
                72.6633462180001,43.144591888,0
                72.79018669,43.109504343,0
                72.934642431,43.0709133120001,0
                73.0614753770001,43.0428703700001,0
                73.195322822,43.0430133630001,0
                73.3362637880001,42.997373967,0
                73.4736636380001,42.969342313,0
                73.6321747170001,42.962467046,0
                73.7448883540001,42.9625874610001,0
                73.87166862,42.9838567350001,0
                73.987889506,42.998070118,0
                74.149892783,43.0193770230001,0
                74.287262529,43.0195237780001,0
                74.4140917130001,42.9950031380001,0
                74.579666208,42.970523889,0
                74.706487866,42.9530478510001,0
                74.812194531,42.917937728,0
                74.9425422530001,42.8969431510001,0
                75.083479455,42.854826056,0
                75.150403178,42.8548975530001,0
                75.249020085,42.862047519,0
                75.3405622860001,42.8973683680001,0
                75.365146898,42.964318432,0
                75.308722345,43.027659645,0
                75.259387551,43.048740771,0
                75.192460065,43.0521915740001,0
                75.1219989890001,43.06620552,0
                75.0409634850001,43.087252778,0
                74.970472305,43.129445133,0
                74.910544267,43.1751710780001,0
                74.8646527510001,43.270224291,0
                74.83642166,43.319506404,0
                74.7834893040001,43.41102979,0
                74.6883194390001,43.474329611,0
                74.600212991,43.520025452,0
                74.519181249,43.5375504080001,0
                74.4099786240001,43.5480006600001,0
                74.3324691830001,43.56552938,0
                74.2760747340001,43.600692184,0
                74.2372579240001,43.6675745140001,0
                74.258323997,43.730998513,0
                74.268819405,43.797933524,0
                74.2757925110001,43.864864772,0
                74.310977892,43.900125415,0
                74.374352973,43.9248492560001,0
                74.4307097920001,43.9249094640001,0
                74.5152788870001,43.8932990650001,0
                74.5716695720001,43.8616585620001,0
                74.6597609680001,43.8300519260001,0
                74.7866052040001,43.7914420800001,0
                74.8641447480001,43.745734951,0
                74.9381996220001,43.664801046,0
                75.015803137,43.559214796,0
                75.0898542470001,43.4818031930001,0
                75.2026168040001,43.4361336920001,0
                75.3012901560001,43.39044914,0
                75.421059685,43.3800101790001,0
                75.530235969,43.3942160350001,0
                75.6358824270001,43.415462732,0
                75.7591554430001,43.4226390380001,0
                75.8472280240001,43.408643908,0
                75.94588256,43.3805708620001,0
                76.065683134,43.341072915,0
                76.17135217,43.3411858050001,0
                76.2840874450001,43.3210529880001,0
                76.4108940500001,43.3176661540001,0
                76.5376714930001,43.341577155,0
                76.6151122590001,43.388330431,0
                76.6643755570001,43.434173028,0
                76.703056899,43.4940935400001,0
                76.801591021,43.5787341320001,0
                76.879081646,43.578816918,0
                76.9424830680001,43.5788846520001,0
                77.002332084,43.6071270310001,0
                77.07982271,43.6072098170001,0
                77.1537872710001,43.6108111410001,0
                77.238314974,43.6179460540001,0
                77.326357451,43.6321293340001,0
                77.439063563,43.639294352,0
                77.5130469410001,43.62528417,0
                77.583515542,43.6042256220001,0
                77.6927068780001,43.604342274,0
                77.7736934640001,43.6290849310001,0
                77.8230395480001,43.597436902,0
                77.914626905,43.5904901370001,0
                77.9956398320001,43.5905766860001,0
                78.073122932,43.597704073,0
                78.1435388520001,43.6259577430001,0
                78.1716758680001,43.66473316,0
                78.168112174,43.7034747100001,0
                78.143410911,43.745715983,0
                78.104627968,43.780897602,0
                78.0764156910001,43.8125682090001,0
                78.069303355,43.8759621040001,0
                78.0656907420001,43.9604935690001,0
                78.0585859320001,44.016842862,0
                78.0022178240001,44.027349558,0
                77.938816403,44.0272818240001,0
                77.8648443160001,44.0307251030001,0
                77.808483734,44.0341871960001,0
                77.7345041200001,44.0446750770001,0
                77.6781171970001,44.07279328,0
                77.6798049700001,44.1414800330001,0
                77.7114492360001,44.1943484180001,0
                77.7774387600001,44.244611766,0
                77.8355115740001,44.2869414690001,0
                77.9067789060001,44.3424939130001,0
                77.9489985420001,44.3874484090001,0
                77.9647980980001,44.4350164080001,0
                77.9647275410001,44.501059555,0
                77.9593848230001,44.5565301550001,0
                77.9514032000001,44.609356206,0
                77.92494643,44.6463121450001,0
                77.893197742,44.6911876190001,0
                77.8667437940001,44.7255018330001,0
                77.8508482830001,44.7677525130001,0
                77.8428356160001,44.8496375490001,0
                77.877115964,44.907792208,0
                77.9246331620001,44.939543719,0
                77.985373102,44.958100712,0
                78.101589285,44.976716971,0
                78.2019353580001,45.0138083780001,0
                78.2679361720001,45.053504823,0
                78.2995550370001,45.13014874,0
                78.3179878510001,45.1856447390001,0
                78.3073193480001,45.280735582,0
                78.283493014,45.328261248,0
                78.2411435550001,45.404826143,0
                78.219967415,45.4444294530001,0
                78.219925081,45.484055341,0
                78.2489276220001,45.5369209040001,0
                78.2990950130001,45.560750059,0
                78.3572101600001,45.5634538740001,0
                78.4232561300001,45.5608827040001,0
                78.49459684,45.5477502750001,0
                78.6451752150001,45.5479111430001,0
                78.7534746870001,45.558593758,0
                78.8538151160001,45.600968616,0
                78.9330612470001,45.6063367350001,0
                79.0519389120001,45.6064637360001,0
                79.1972338360001,45.6066189590001,0
                79.3636456340001,45.6226471150001,0
                79.466641898,45.651816167,0
                79.6251115840001,45.6836862110001,0
                79.767702693,45.7419565820001,0
                79.912907305,45.826647033,0
                80.00264414,45.9033530400001,0
                80.055467369,45.913976387,0
                80.1848978260001,45.9273233070001,0
                80.3274974020001,45.9776684990001,0
                80.4331071700001,46.0332576320001,0
                80.5123194350001,46.070326461,0
                80.6469543220001,46.15764735,0
                80.7288083130001,46.1947190010001,0
                80.8133124970001,46.2238682980001,0
                80.9004753400001,46.237170061,0
                80.966515665,46.239882342,0
                81.0510113820001,46.2769568160001,0
                81.177015494,46.2004812920001,0
                81.2475292510001,46.1371551300001,0
                81.3532885980001,46.052732791,0
                81.4378915600001,45.9894216820001,0
                81.5295692280001,45.8979396880001,0
                81.6634467760001,45.869904272,0
                81.7832878020001,45.7925415880001,0
                81.874942892,45.7221934020001,0
                81.9877694200001,45.616644782,0
                82.1569000840001,45.5604685860001,0
                82.3048593120001,45.539492824,0
                82.4387669640001,45.4832789980001,0
                82.5867713470001,45.4200356220001,0
                82.7206488960001,45.392000206,0
              </coordinates>
            </LinearRing>
          </outerBoundaryIs>
        </Polygon>
      </Placemark>
    </Document>
  </Document>
</kml>
