<?xml version="1.0" encoding="UTF-8"?>
<kml xmlns="http://www.opengis.net/kml/2.2">
  <Document id="root_doc">
    <Schema id="Bioregions_PA32.schema">
      <SimpleField name="OBJECTID" type="float"/>
      <SimpleField name="Shape_Leng" type="float"/>
      <SimpleField name="Shape_Area" type="float"/>
      <SimpleField name="Bioregions" type="string"/>
    </Schema>
    <Document id="Bioregions_PA32">
      <name>Bioregions_PA32</name>
      <Placemark id="Bioregions_PA32.1">
        <ExtendedData>
          <SchemaData schemaUrl="#Bioregions_PA32.schema">
            <SimpleData name="OBJECTID">153</SimpleData>
            <SimpleData name="Shape_Leng">130.06994121800</SimpleData>
            <SimpleData name="Shape_Area">234.87294919700</SimpleData>
            <SimpleData name="Bioregions">PA32</SimpleData>
          </SchemaData>
        </ExtendedData>
        <Polygon>
          <outerBoundaryIs>
            <LinearRing>
              <coordinates>
                64.2318287040001,50.562364761,0
                64.2688975340001,50.4831524950001,0
                64.448534894,50.4833444070001,0
                64.5806776320001,50.430651002,0
                64.7602754810001,50.467827076,0
                64.9610297150001,50.4838919210001,0
                65.1407178750001,50.4365327670001,0
                65.3362507470001,50.3944739980001,0
                65.5052873370001,50.4263553310001,0
                65.674329571,50.452953214,0
                65.7853667250001,50.373819971,0
                65.9650605300001,50.321177365,0
                66.1182636980001,50.3371914100001,0
                66.229182318,50.3690106550001,0
                66.392980612,50.3586187290001,0
                66.519879411,50.268935517,0
                66.6626398540001,50.1687023330001,0
                66.752594001,50.041995447,0
                66.826675214,49.9364054340001,0
                66.9640788280001,49.9048514790001,0
                67.0909042480001,49.88385314,0
                67.2282231930001,49.9315509620001,0
                67.318120896,49.857678594,0
                67.4237560650001,49.8894921930001,0
                67.5293573660001,49.953006504,0
                67.6350094690001,49.9689697490001,0
                67.8146468290001,49.969161661,0
                67.90976025,49.9586963570001,0
                68.0206506470001,50.016932861,0
                68.110407239,50.0751467860001,0
                68.1737804370001,50.1016317780001,0
                68.2689277250001,50.059465765,0
                68.353491176,50.0331388180001,0
                68.4855944030001,50.0174295740001,0
                68.591263439,50.017542464,0
                68.7074485780001,50.065217708,0
                68.7760882950001,50.1075587,0
                68.9187866490001,50.065443486,0
                69.0932026460001,50.007511784,0
                69.2200562880001,49.960096186,0
                69.367947783,50.002521845,0
                69.478860759,50.0396245410001,0
                69.589785023,50.0661603340001,0
                69.7060209620001,50.066284513,0
                69.8274443970001,50.156233016,0
                69.922540885,50.1616180670001,0
                70.0229603340001,50.130024602,0
                70.091696008,50.082546914,0
                70.2290883320001,50.0615598630001,0
                70.3400408190001,50.061678396,0
                70.414048655,50.024773257,0
                70.5145245510001,49.940345273,0
                70.6677502960001,49.9352255110001,0
                70.7840313900001,49.8930820750001,0
                70.900346352,49.8192379290001,0
                71.016610514,49.792944849,0
                71.169858838,49.766691279,0
                71.2333110580001,49.719207947,0
                71.2598129850001,49.6399843930001,0
                71.3338377540001,49.587228897,0
                71.4659296930001,49.5820865580001,0
                71.5505044330001,49.5451927060001,0
                71.550662478,49.397256057,0
                71.661643187,49.370957332,0
                71.7567509630001,49.3657754810001,0
                71.8360140290001,49.3552932440001,0
                71.899426739,49.344794074,0
                71.968156767,49.302599838,0
                72.0844378620001,49.260456403,0
                72.2112519930001,49.2500249660001,0
                72.2641260220001,49.213097249,0
                72.332884274,49.1444857540001,0
                72.422702954,49.1445817100001,0
                72.512538567,49.1288273100001,0
                72.6710759870001,49.097295934,0
                72.7503334090001,49.092097149,0
                72.7504688750001,48.965294306,0
                72.7981102530001,48.880809878,0
                72.856256445,48.854454709,0
                72.9249469630001,48.849244635,0
                72.9250542080001,48.7488590520001,0
                72.8352919720001,48.6959285770001,0
                72.7190899,48.6641036890001,0
                72.6451272190001,48.658741214,0
                72.5606597240001,48.595249482,0
                72.4762091640001,48.5159073940001,0
                72.4076146020001,48.4312987870001,0
                72.30731933,48.346656314,0
                72.1858620290001,48.2884085220001,0
                72.1172336000001,48.235500626,0
                72.106723141,48.182654819,0
                72.1596253920001,48.1193098430001,0
                72.2283497760001,48.0823990580001,0
                72.2917794200001,48.0560495330001,0
                72.3604925160001,48.0297056530001,0
                72.360565894,47.9610207790001,0
                72.281398784,47.881684336,0
                72.2603948,47.7601423670001,0
                72.2657403410001,47.702030042,0
                72.3239768440001,47.5911396440001,0
                72.4139027690001,47.4908500170001,0
                72.5301499970001,47.4804072910001,0
                72.619968677,47.4805032470001,0
                72.7150708090001,47.480604848,0
                72.8101785860001,47.4754229970001,0
                72.9263637240001,47.5230982410001,0
                72.963268864,47.597106076,0
                73.0213811890001,47.602451618,0
                73.1481614530001,47.6237208920001,0
                73.2855312,47.623867649,0
                73.359516458,47.6080963150001,0
                73.4334678490001,47.6240256940001,0
                73.433388827,47.697994018,0
                73.3840295730001,47.741970101,0
                73.376924762,47.7983193950001,0
                73.4015394780001,47.837091048,0
                73.433210085,47.8653033240001,0
                73.4873692290001,47.8618388780001,0
                73.526995314,47.8618812120001,0
                73.5507706490001,47.861906613,0
                73.635308701,47.8593551980001,0
                73.6669967110001,47.871276832,0
                73.6881022960001,47.897716668,0
                73.673520592,47.9465730740001,0
                73.6417789590001,47.984844233,0
                73.5915593560001,48.009887007,0
                73.5387135490001,48.020397465,0
                73.4792648390001,48.0295800060001,0
                73.4303717430001,48.0493407390001,0
                73.3854271260001,48.082314334,0
                73.368198051,48.13645137,0
                73.3681091510001,48.2196657360001,0
                73.3605363020001,48.3019915300001,0
                73.3270198770001,48.3530291480001,0
                73.2811772800001,48.402292446,0
                73.256464726,48.4551006230001,0
                73.266963897,48.518513333,0
                73.2950952690001,48.5625722010001,0
                73.305566216,48.6524021710001,0
                73.3090038510001,48.731657711,0
                73.3301094350001,48.758097547,0
                73.374108097,48.786322994,0
                73.4445127270001,48.8251435670001,0
                73.5360586910001,48.856942115,0
                73.6329031590001,48.8746571020001,0
                73.699821237,48.8800120510001,0
                73.7720246480001,48.883611493,0
                73.86712678,48.883713093,0
                73.955199361,48.869717963,0
                74.011574995,48.852166664,0
                74.055626337,48.8310798950001,0
                74.110235177,48.818810167,0
                74.1560232100001,48.8206202370001,0
                74.212378147,48.822441595,0
                74.2757419390001,48.85773234,0
                74.374328742,48.893060715,0
                74.4341815210001,48.9177807940001,0
                74.53629627,48.9478294800001,0
                74.6260998980001,48.962014642,0
                74.7071203520001,48.9550565870001,0
                74.7687888450001,48.9287051800001,0
                74.8374812440001,48.9217339570001,0
                74.9202609650001,48.9165389350001,0
                74.9871903320001,48.9113269800001,0
                75.0435640850001,48.8955368310001,0
                75.1105009770001,48.8832802740001,0
                75.147509599,48.860424827,0
                75.1545937130001,48.8234481920001,0
                75.1405383750001,48.791732429,0
                75.1264943260001,48.749449763,0
                75.119506169,48.696607719,0
                75.107240204,48.638476579,0
                75.11964728,48.5645214250001,0
                75.1302687470001,48.513459347,0
                75.154975656,48.4659346220001,0
                75.239544751,48.434324223,0
                75.310020878,48.4062210720001,0
                75.3769747040001,48.3781141590001,0
                75.4580553650001,48.314799287,0
                75.5074315530001,48.2549728490001,0
                75.54273735,48.177519853,0
                75.5745358980001,48.0859738880001,0
                75.613360233,48.0120469570001,0
                75.6732581680001,47.9944994210001,0
                75.7366633520001,47.9910448540001,0
                75.7965349460001,47.998153427,0
                75.8387686940001,48.0298992940001,0
                75.8739239720001,48.0933383440001,0
                75.8879303910001,48.170844022,0
                75.8878212640001,48.2729907560001,0
                75.8877422420001,48.3469590820001,0
                75.8876566340001,48.427091433,0
                75.9157898880001,48.469389151,0
                75.9685792500001,48.51171321,0
                76.018760753,48.5223337360001,0
                76.0768759000001,48.525037551,0
                76.1376327730001,48.527744188,0
                76.2036759200001,48.5278147440001,0
                76.267046297,48.5569414620001,0
                76.333049933,48.5939961810001,0
                76.399070502,48.6152005440001,0
                76.467744086,48.6258408260001,0
                76.5522793150001,48.6259311370001,0
                76.6262561060001,48.618084982,0
                76.7002498310001,48.594388472,0
                76.766329667,48.5601165910001,0
                76.8271458070001,48.507346985,0
                76.8668196730001,48.462479978,0
                76.8985598950001,48.425529682,0
                76.9435087470001,48.388593498,0
                77.004333354,48.3278987140001,0
                77.0809518710001,48.320055381,0
                77.1602008250001,48.3227817740001,0
                77.2315133120001,48.3360666040001,0
                77.2816496600001,48.388954744,0
                77.3053433480001,48.4655901950001,0
                77.358115776,48.5237646090001,0
                77.4399641240001,48.566119712,0
                77.5271185,48.5873466530001,0
                77.6142333650001,48.6455577560001,0
                77.651149794,48.7089986890001,0
                77.6510481930001,48.8041008210001,0
                77.69325654,48.8596222200001,0
                77.7777663690001,48.8834880650001,0
                77.8438095160001,48.88355862,0
                77.9177863070001,48.875712465,0
                77.997055017,48.8599467770001,0
                78.0472788540001,48.830941415,0
                78.0975111560001,48.794010875,0
                78.1609690220001,48.7412440910001,0
                78.245524006,48.722842321,0
                78.2877916210001,48.722887477,0
                78.369656901,48.7493922240001,0
                78.438338951,48.7521073290001,0
                78.5017431950001,48.7495333360001,0
                78.57045629,48.7231894560001,0
                78.6127521270001,48.696817353,0
                78.6867345630001,48.683687746,0
                78.758075273,48.670555317,0
                78.8241409980001,48.6494920660001,0
                78.8954986410001,48.6205092810001,0
                78.9430751080001,48.5967845490001,0
                78.9906374620001,48.586268445,0
                79.0804815430001,48.562588868,0
                79.130725135,48.515091425,0
                79.165124016,48.4622935960001,0
                79.2047894150001,48.4253517670001,0
                79.2735025110001,48.399007886,0
                79.3237150580001,48.3805694270001,0
                79.363352235,48.370044857,0
                79.405642427,48.348956206,0
                79.458516456,48.3120284890001,0
                79.5272323740001,48.2830428820001,0
                79.5800668910001,48.2830993270001,0
                79.6593186680001,48.2831839930001,0
                79.7464786890001,48.2991274830001,0
                79.7992849840001,48.3256011870001,0
                79.7992341840001,48.3731522530001,0
                79.746331932,48.4364972280001,0
                79.7145973550001,48.468164073,0
                79.7039768290001,48.5183455760001,0
                79.6959867400001,48.5790968040001,0
                79.653651392,48.6424530690001,0
                79.59021046,48.679369498,0
                79.5240854680001,48.755908994,0
                79.4527306470001,48.7822500520001,0
                79.3734591150001,48.8006574660001,0
                79.315293167,48.845504717,0
                79.243904479,48.903546486,0
                79.198952805,48.943124396,0
                79.164539813,49.009130854,0
                79.1090071250001,49.061906105,0
                79.035004933,49.0935277930001,0
                78.910821239,49.114528955,0
                78.8288910470001,49.148783902,0
                78.754852166,49.214748027,0
                78.6755044340001,49.30448204,0
                78.606746183,49.3730935350001,0
                78.5300853320001,49.420562756,0
                78.4190510000001,49.4970542730001,0
                78.310740239,49.496938561,0
                78.1786511220001,49.4994391760001,0
                78.0385916720001,49.544198937,0
                77.964581014,49.5837458030001,0
                78.0358060120001,49.678924135,0
                78.0753415890001,49.763501697,0
                78.080557307,49.8269087630001,0
                78.0646420410001,49.887651524,0
                78.0170204190001,49.9536438710001,0
                77.977323975,50.0196446850001,0
                77.9745806490001,50.114743994,0
                78.027358722,50.1676349570001,0
                78.0933821130001,50.1861975940001,0
                78.22543454,50.2180394160001,0
                78.309964124,50.2234131800001,0
                78.3944908860001,50.231428668,0
                78.4789894260001,50.2658614170001,0
                78.5581650010001,50.337272682,0
                78.6082759490001,50.4139363560001,0
                78.645150044,50.517003177,0
                78.629231954,50.580387665,0
                78.5974719770001,50.6358300410001,0
                78.5974127100001,50.6913062850001,0
                78.6343573620001,50.7283299590001,0
                78.7083285080001,50.7257672550001,0
                78.8139947220001,50.7285218700001,0
                78.8879856240001,50.7074670860001,0
                78.9593291570001,50.691692931,0
                79.0755594510001,50.6971005610001,0
                79.1917812780001,50.710433369,0
                79.323864751,50.713216206,0
                79.4137060090001,50.6921783560001,0
                79.5220478150001,50.663235082,0
                79.6198424730001,50.615788439,0
                79.7017754870001,50.578891766,0
                79.8470788770001,50.5711218110001,0
                79.968615201,50.5554012790001,0
                80.1033657990001,50.5344114050001,0
                80.1905794420001,50.500162103,0
                80.3649982620001,50.439588675,0
                80.4706814080001,50.4264929350001,0
                80.6714779760001,50.402931892,0
                80.7612966560001,50.403027847,0
                80.8907327570001,50.4110913150001,0
                80.996376393,50.434979737,0
                81.072952576,50.466762293,0
                81.131084657,50.4536157520001,0
                81.199800575,50.424630146,0
                81.2236974640001,50.3110613320001,0
                81.2554771970001,50.2371268740001,0
                81.2705571980001,50.1730762390001,0
                81.245037294,50.1182379210001,0
                81.2054988950001,50.036302085,0
                81.163282081,49.9887058630001,0
                81.1897981180001,49.896273679,0
                81.171376593,49.830210777,0
                81.1106422970001,49.8063703330001,0
                81.1107269650001,49.7271185560001,0
                81.1504121200001,49.671684645,0
                81.195383549,49.613614655,0
                81.229782431,49.5608168250001,0
                81.2457118080001,49.486865434,0
                81.2325765570001,49.4181664500001,0
                81.1850904020001,49.3573559550001,0
                81.1587521660001,49.2833594080001,0
                81.090120916,49.233093237,0
                81.0214642650001,49.2066026000001,0
                80.963360407,49.1933318820001,0
                80.918487756,49.158941467,0
                80.905324282,49.1166597420001,0
                80.844604098,49.079610669,0
                80.797067143,49.066351239,0
                80.7416275880001,49.0319495360001,0
                80.7258308560001,48.9817398100001,0
                80.7628658190001,48.9342282550001,0
                80.7840504260001,48.886699767,0
                80.7524174480001,48.823264479,0
                80.704905894,48.786229517,0
                80.6653110500001,48.757128198,0
                80.6046021550001,48.7095122210001,0
                80.5967644670001,48.6276102520001,0
                80.617934963,48.5932903930001,0
                80.6153412150001,48.5483782310001,0
                80.6418149180001,48.495571935,0
                80.665652541,48.437479366,0
                80.686848437,48.3793839740001,0
                80.6657654300001,48.331810331,0
                80.6314653270001,48.292147754,0
                80.5602036400001,48.231311858,0
                80.5021167150001,48.202190784,0
                80.4572468860001,48.165158643,0
                80.4493809750001,48.1096739340001,0
                80.4600156120001,48.0462838010001,0
                80.4600664120001,47.998732735,0
                80.378268866,47.9088265660001,0
                80.2964289860001,47.858546285,0
                80.2119586690001,47.797696278,0
                80.1538802110001,47.7606500260001,0
                80.032422909,47.702402234,0
                79.966413629,47.6706309680001,0
                79.9426804300001,47.6309796790001,0
                79.974426296,47.5887459320001,0
                80.000863311,47.570282073,0
                80.0642901320001,47.546574273,0
                80.125063938,47.533430556,0
                80.2017191450001,47.491244787,0
                80.2334819450001,47.433160684,0
                80.249377456,47.3909100020001,0
                80.2811205,47.3513179820001,0
                80.2943658180001,47.316989656,0
                80.3049807,47.2720916050001,0
                80.3182768180001,47.1902122130001,0
                80.2417232130001,47.1372958520001,0
                80.1942173020001,47.0949774370001,0
                80.18637397,47.018358919,0
                80.1864501700001,46.9470323210001,0
                80.1838733550001,46.8862698030001,0
                80.2129859620001,46.8361080550001,0
                80.2368292290001,46.772732035,0
                80.2712365770001,46.7120090280001,0
                80.3320357840001,46.675089777,0
                80.3901876200001,46.643451156,0
                80.450975537,46.617098809,0
                80.5196801660001,46.598680105,0
                80.5356095440001,46.524728714,0
                80.5805583960001,46.48779253,0
                80.6466325870001,46.4588041010001,0
                80.7549772150001,46.427219101,0
                80.844812829,46.411464702,0
                80.916156361,46.3956905480001,0
                80.9584352640001,46.3851688,0
                80.9954448270001,46.3614327780001,0
                81.0298408850001,46.311276675,0
                81.0510113820001,46.2769568160001,0
                80.966515665,46.239882342,0
                80.9004753400001,46.237170061,0
                80.8133124970001,46.2238682980001,0
                80.7288083130001,46.1947190010001,0
                80.6469543220001,46.15764735,0
                80.5123194350001,46.070326461,0
                80.4331071700001,46.0332576320001,0
                80.3274974020001,45.9776684990001,0
                80.1848978260001,45.9273233070001,0
                80.055467369,45.913976387,0
                80.00264414,45.9033530400001,0
                79.912907305,45.826647033,0
                79.767702693,45.7419565820001,0
                79.6251115840001,45.6836862110001,0
                79.466641898,45.651816167,0
                79.3636456340001,45.6226471150001,0
                79.1972338360001,45.6066189590001,0
                79.0519389120001,45.6064637360001,0
                78.9330612470001,45.6063367350001,0
                78.8538151160001,45.600968616,0
                78.7534746870001,45.558593758,0
                78.6451752150001,45.5479111430001,0
                78.49459684,45.5477502750001,0
                78.4232561300001,45.5608827040001,0
                78.3572101600001,45.5634538740001,0
                78.2990950130001,45.560750059,0
                78.2489276220001,45.5369209040001,0
                78.219925081,45.484055341,0
                78.219967415,45.4444294530001,0
                78.2411435550001,45.404826143,0
                78.283493014,45.328261248,0
                78.3073193480001,45.280735582,0
                78.3179878510001,45.1856447390001,0
                78.2995550370001,45.13014874,0
                78.2679361720001,45.053504823,0
                78.2019353580001,45.0138083780001,0
                78.101589285,44.976716971,0
                77.985373102,44.958100712,0
                77.9246331620001,44.939543719,0
                77.877115964,44.907792208,0
                77.8428356160001,44.8496375490001,0
                77.8508482830001,44.7677525130001,0
                77.8667437940001,44.7255018330001,0
                77.893197742,44.6911876190001,0
                77.92494643,44.6463121450001,0
                77.9514032000001,44.609356206,0
                77.9593848230001,44.5565301550001,0
                77.9647275410001,44.501059555,0
                77.9647980980001,44.4350164080001,0
                77.9489985420001,44.3874484090001,0
                77.9067789060001,44.3424939130001,0
                77.8355115740001,44.2869414690001,0
                77.7774387600001,44.244611766,0
                77.7114492360001,44.1943484180001,0
                77.6798049700001,44.1414800330001,0
                77.6781171970001,44.07279328,0
                77.7345041200001,44.0446750770001,0
                77.808483734,44.0341871960001,0
                77.8648443160001,44.0307251030001,0
                77.938816403,44.0272818240001,0
                78.0022178240001,44.027349558,0
                78.0585859320001,44.016842862,0
                78.0656907420001,43.9604935690001,0
                78.069303355,43.8759621040001,0
                78.0764156910001,43.8125682090001,0
                78.104627968,43.780897602,0
                78.143410911,43.745715983,0
                78.168112174,43.7034747100001,0
                78.1716758680001,43.66473316,0
                78.1435388520001,43.6259577430001,0
                78.073122932,43.597704073,0
                77.9956398320001,43.5905766860001,0
                77.914626905,43.5904901370001,0
                77.8230395480001,43.597436902,0
                77.7736934640001,43.6290849310001,0
                77.6927068780001,43.604342274,0
                77.583515542,43.6042256220001,0
                77.5130469410001,43.62528417,0
                77.439063563,43.639294352,0
                77.326357451,43.6321293340001,0
                77.238314974,43.6179460540001,0
                77.1537872710001,43.6108111410001,0
                77.07982271,43.6072098170001,0
                77.002332084,43.6071270310001,0
                76.9424830680001,43.5788846520001,0
                76.879081646,43.578816918,0
                76.801591021,43.5787341320001,0
                76.703056899,43.4940935400001,0
                76.6643755570001,43.434173028,0
                76.6151122590001,43.388330431,0
                76.5376714930001,43.341577155,0
                76.4108940500001,43.3176661540001,0
                76.2840874450001,43.3210529880001,0
                76.17135217,43.3411858050001,0
                76.065683134,43.341072915,0
                75.94588256,43.3805708620001,0
                75.8472280240001,43.408643908,0
                75.7591554430001,43.4226390380001,0
                75.6358824270001,43.415462732,0
                75.530235969,43.3942160350001,0
                75.421059685,43.3800101790001,0
                75.3012901560001,43.39044914,0
                75.2026168040001,43.4361336920001,0
                75.0898542470001,43.4818031930001,0
                75.015803137,43.559214796,0
                74.9381996220001,43.664801046,0
                74.8641447480001,43.745734951,0
                74.7866052040001,43.7914420800001,0
                74.6597609680001,43.8300519260001,0
                74.5716695720001,43.8616585620001,0
                74.5152788870001,43.8932990650001,0
                74.4307097920001,43.9249094640001,0
                74.374352973,43.9248492560001,0
                74.310977892,43.900125415,0
                74.2757925110001,43.864864772,0
                74.268819405,43.797933524,0
                74.258323997,43.730998513,0
                74.2372579240001,43.6675745140001,0
                74.2760747340001,43.600692184,0
                74.3324691830001,43.56552938,0
                74.4099786240001,43.5480006600001,0
                74.519181249,43.5375504080001,0
                74.600212991,43.520025452,0
                74.6883194390001,43.474329611,0
                74.7834893040001,43.41102979,0
                74.83642166,43.319506404,0
                74.8646527510001,43.270224291,0
                74.910544267,43.1751710780001,0
                74.970472305,43.129445133,0
                75.0409634850001,43.087252778,0
                75.1219989890001,43.06620552,0
                75.192460065,43.0521915740001,0
                75.259387551,43.048740771,0
                75.308722345,43.027659645,0
                75.365146898,42.964318432,0
                75.3405622860001,42.8973683680001,0
                75.249020085,42.862047519,0
                75.150403178,42.8548975530001,0
                75.083479455,42.854826056,0
                74.9425422530001,42.8969431510001,0
                74.812194531,42.917937728,0
                74.706487866,42.9530478510001,0
                74.579666208,42.970523889,0
                74.4140917130001,42.9950031380001,0
                74.287262529,43.0195237780001,0
                74.149892783,43.0193770230001,0
                73.987889506,42.998070118,0
                73.87166862,42.9838567350001,0
                73.7448883540001,42.9625874610001,0
                73.6321747170001,42.962467046,0
                73.4736636380001,42.969342313,0
                73.3362637880001,42.997373967,0
                73.195322822,43.0430133630001,0
                73.0614753770001,43.0428703700001,0
                72.934642431,43.0709133120001,0
                72.79018669,43.109504343,0
                72.6633462180001,43.144591888,0
                72.5189318690001,43.1444376050001,0
                72.3463353480001,43.147775521,0
                72.2230435180001,43.1582107200001,0
                72.0786141180001,43.1721456430001,0
                71.9764147020001,43.2213487330001,0
                71.8531341610001,43.2212170280001,0
                71.747480178,43.207014934,0
                71.624225977,43.182227122,0
                71.5115650210001,43.13279449,0
                71.4905252880001,43.044714383,0
                71.4905930210001,42.9813129620001,0
                71.4554226920001,42.931963115,0
                71.3814919970001,42.896661081,0
                71.2934307040001,42.900089307,0
                71.2370023890001,42.9669528220001,0
                71.1946670410001,43.0303090880001,0
                71.0959861630001,43.083038242,0
                70.951560526,43.093450863,0
                70.807142415,43.096818882,0
                70.733162801,43.1073067630001,0
                70.655657122,43.1213131820001,0
                70.588676956,43.174076203,0
                70.5604195240001,43.2480144250001,0
                70.5427148840001,43.3351725630001,0
                70.4546112580001,43.378226678,0
                70.412287199,43.4310160410001,0
                70.3312328790001,43.4696748050001,0
                70.2642677640001,43.508348621,0
                70.2042945700001,43.5963421800001,0
                70.102098916,43.642022969,0
                70.0245631350001,43.684207798,0
                69.92939327,43.747507619,0
                69.837741942,43.8143335030001,0
                69.724971859,43.867047606,0
                69.636899278,43.881042736,0
                69.5699793190001,43.877448938,0
                69.5242458480001,43.824565502,0
                69.474975025,43.7857675070001,0
                69.390458611,43.7680656900001,0
                69.2953263750001,43.796142499,0
                69.2318835610001,43.8348200780001,0
                69.1261731340001,43.8734525020001,0
                69.03454062,43.9226668810001,0
                68.967549164,43.9859968050001,0
                68.8899908060001,44.049315441,0
                68.805410421,44.091492744,0
                68.646850424,44.144157928,0
                68.5517482920001,44.144056327,0
                68.4671829600001,44.1721444250001,0
                68.3720093310001,44.2389665470001,0
                68.2874477610001,44.2635323430001,0
                68.1606411560001,44.266919177,0
                68.072583627,44.266825103,0
                68.01269698,44.2738057350001,0
                67.9245905330001,44.3195015760001,0
                67.882289051,44.35115713,0
                67.8047344550001,44.410953465,0
                67.7025124610001,44.481290362,0
                67.61793584,44.5199453640001,0
                67.4910539750001,44.593778221,0
                67.3958803460001,44.6606003430001,0
                67.3218442880001,44.7239227420001,0
                67.2513643980001,44.755548193,0
                67.166817881,44.7660247850001,0
                67.1034315110001,44.751867847,0
                67.085883976,44.691969912,0
                67.107089279,44.6250687680001,0
                67.149379471,44.6039801160001,0
                67.237478394,44.5653288770001,0
                67.293880368,44.5231214710001,0
                67.364390363,44.46331761,0
                67.3961362300001,44.421083863,0
                67.4736757740001,44.375376734,0
                67.589964394,44.326188695,0
                67.6252325620001,44.283958711,0
                67.6288113080001,44.2311279560001,0
                67.6006705280001,44.19587484,0
                67.5232438730001,44.1359129350001,0
                67.463436249,44.068925242,0
                67.4176651490001,44.0512648170001,0
                67.3543201730001,43.998362566,0
                67.3367726370001,43.9384646300001,0
                67.3685222660001,43.8927085820001,0
                67.407286395,43.875138469,0
                67.4425545620001,43.8329084850001,0
                67.4848786210001,43.7801191230001,0
                67.5237255340001,43.6850583840001,0
                67.5801500860001,43.6217171700001,0
                67.6506939480001,43.530212599,0
                67.745848761,43.4810019830001,0
                67.795191082,43.452876255,0
                67.8692459550001,43.371942351,0
                67.8869364830001,43.2979928410001,0
                67.9433535100001,43.2416962290001,0
                67.9997441960001,43.2100557260001,0
                68.0561649860001,43.150236814,0
                68.1090484220001,43.1045033440001,0
                68.172551443,43.009468945,0
                68.207819611,42.9672389610001,0
                68.2360920950001,42.879211535,0
                68.23614854,42.8263770180001,0
                68.236253903,42.7277525850001,0
                68.2363253990001,42.6608288620001,0
                68.2575608070001,42.5657493080001,0
                68.2611847090001,42.4706509390001,0
                68.257771534,42.368500442,0
                68.2226275450001,42.2944944870001,0
                68.198061748,42.209932918,0
                68.201651783,42.1465352600001,0
                68.18057442,42.093678164,0
                68.138408407,41.9985308770001,0
                68.0997910350001,41.8787312440001,0
                68.08931068,41.797707028,0
                68.0964869860001,41.6744340120001,0
                68.107136676,41.5969546760001,0
                68.1072458020001,41.494807941,0
                68.100280222,41.42083209,0
                68.068639719,41.364441404,0
                68.0475661200001,41.308062008,0
                67.991280798,41.241078078,0
                67.9067493320001,41.2374654660001,0
                67.8292210760001,41.2726056910001,0
                67.82914958,41.339529414,0
                67.8467084040001,41.388860445,0
                67.892400482,41.4804891950001,0
                67.902850733,41.58969182,0
                67.8957158200001,41.674219523,0
                67.8779989500001,41.7728251410001,0
                67.8849494780001,41.8608901970001,0
                67.9201009930001,41.927851549,0
                67.937614662,42.0194501940001,0
                67.9727962810001,42.0582331370001,0
                67.9551095150001,42.1286603450001,0
                67.856451215,42.1602556930001,0
                67.754338348,42.1284458550001,0
                67.6980078700001,42.1037295400001,0
                67.627607002,42.061386666,0
                67.5501916360001,41.990857857,0
                67.462160447,41.9661076740001,0
                67.349488202,41.927241946,0
                67.2227117,41.9024503700001,0
                67.0959314360001,41.881181096,0
                66.986822884,41.8035738180001,0
                66.9234478050001,41.7788499750001,0
                66.8248911050001,41.715343191,0
                66.750941595,41.697652663,0
                66.6241989600001,41.6411603760001,0
                66.553779277,41.6164290090001,0
                66.5327207300001,41.5459604070001,0
                66.515173195,41.4860624720001,0
                66.476491852,41.4261419590001,0
                66.360316121,41.3696609630001,0
                66.2934563690001,41.309710346,0
                66.201914168,41.274389496,0
                66.1244423580001,41.256695205,0
                66.039993677,41.1755919670001,0
                65.9414294520001,41.1191297840001,0
                65.9485417880001,41.0557358890001,0
                65.8500001410001,40.978139899,0
                65.765543935,40.9040812630001,0
                65.649371967,40.8440779650001,0
                65.497965698,40.7946039400001,0
                65.4064159710001,40.7663276930001,0
                65.304318155,40.7204286510001,0
                65.2303912240001,40.6816043160001,0
                65.1705685480001,40.628705827,0
                65.1460102770001,40.5370996560001,0
                65.036856571,40.501759991,0
                65.005212305,40.4488916070001,0
                65.01936548,40.389027539,0
                65.0511339240001,40.3256599850001,0
                65.107532135,40.2869748790001,0
                65.185041577,40.269446159,0
                65.297766503,40.258999671,0
                65.3471163500001,40.2238293410001,0
                65.4176451590001,40.146413974,0
                65.4669912420001,40.114765945,0
                65.526953147,40.03733929,0
                65.5974480900001,39.9916246350001,0
                65.6855470130001,39.9529733960001,0
                65.78065667,39.946030394,0
                65.9250973590001,39.921528568,0
                66.0026632450001,39.851165329,0
                66.0662001330001,39.724430221,0
                66.0592684210001,39.61875366,0
                66.0347176750001,39.5201028860001,0
                66.0418413,39.4461420870001,0
                65.999645183,39.3791732080001,0
                65.953911712,39.3262897720001,0
                65.8800111210001,39.262809329,0
                65.8202072610001,39.192299335,0
                65.7850595090001,39.121815681,0
                65.7957091980001,39.0443363430001,0
                65.8274926940001,38.9668795850001,0
                65.8627759130001,38.9105603960001,0
                65.8980591320001,38.854241206,0
                65.9122047820001,38.8014217410001,0
                65.919320881,38.7345055440001,0
                65.7925782460001,38.6780132580001,0
                65.67991729,38.6285806270001,0
                65.5989645700001,38.572137259,0
                65.5532724930001,38.4805085090001,0
                65.560433748,38.3713246990001,0
                65.571090962,38.2868007590001,0
                65.539488089,38.1951870620001,0
                65.493773434,38.124692119,0
                65.4656627580001,38.061260594,0
                65.4551936920001,37.969669475,0
                65.4553065810001,37.86400044,0
                65.413125515,37.782942357,0
                65.3216209440001,37.712398496,0
                65.237119582,37.6806074740001,0
                65.166692374,37.6629207080001,0
                65.0927353380001,37.6522747820001,0
                65.0257965640001,37.66629249,0
                65.0116321,37.736723462,0
                65.0115681290001,37.796602582,0
                64.948125315,37.8352801610001,0
                64.8423734940001,37.912657897,0
                64.7014024250001,37.9864757030001,0
                64.637963373,38.021630981,0
                64.56398376,38.0321188620001,0
                64.4688552870001,38.0566733700001,0
                64.370298587,37.993166586,0
                64.2647499670001,37.8803400580001,0
                64.1908493760001,37.8168596150001,0
                64.109896657,37.7604162480001,0
                63.9867026640001,37.6792716150001,0
                63.835307684,37.6192306880001,0
                63.676807894,37.615539052,0
                63.52534518,37.6188995460001,0
                63.3985197590001,37.639897885,0
                63.2752053520001,37.6714668910001,0
                63.092023112,37.692405024,0
                62.9159193420001,37.6816499720001,0
                62.74337174,37.639197971,0
                62.6201890360001,37.547486436,0
                62.5076071030001,37.424085479,0
                62.380905861,37.3288478810001,0
                62.2612379330001,37.2441847110001,0
                62.162643603,37.2159009380001,0
                62.0464076640001,37.2157767590001,0
                61.8949901060001,37.1768696390001,0
                61.7189879370001,37.071012454,0
                61.680325409,36.993480436,0
                61.662823029,36.891314886,0
                61.6558875540001,36.7891606260001,0
                61.6419112390001,36.683476539,0
                61.6349644730001,36.591889182,0
                61.6245104600001,36.4862088580001,0
                61.554192377,36.366375358,0
                61.4767920620001,36.281757344,0
                61.385069238,36.415506952,0
                61.2721674520001,36.5915015950001,0
                61.1240501790001,36.7604140070001,0
                60.926680897,36.872916918,0
                60.7715566520001,37.006598792,0
                60.6375586880001,37.1473478460001,0
                60.4190405480001,37.273917383,0
                60.249849677,37.3864503980001,0
                60.052570706,37.4144180800001,0
                59.939751705,37.512922098,0
                59.7282631150001,37.6535883660001,0
                59.5167670000001,37.8012992370001,0
                59.3475987050001,37.8926984460001,0
                59.24192967,37.892585555,0
                59.1714384900001,37.93477791,0
                59.037560942,37.9628133260001,0
                58.9106753140001,38.040168485,0
                58.8190954830001,38.040070648,0
                58.664076601,38.075128088,0
                58.558407566,38.0750151990001,0
                58.43153699,38.138281153,0
                58.283547658,38.187435325,0
                58.128491147,38.257715777,0
                57.9804491340001,38.3561821650001,0
                57.80428892,38.398261732,0
                57.719670905,38.4756619450001,0
                57.620911005,38.602359424,0
                57.515159184,38.6797371600001,0
                57.296723829,38.728816072,0
                57.183949984,38.785052475,0
                57.02184887,38.8553254020001,0
                56.92308897,38.982022881,0
                56.7258250520001,38.9959013590001,0
                56.5918195620001,39.143695015,0
                56.471888225,39.3055929290001,0
                56.2675270220001,39.3687760970001,0
                56.12658982,39.4108931920001,0
                55.908126634,39.488150504,0
                55.6826999130001,39.487909675,0
                55.393868206,39.487601107,0
                55.140266581,39.487330177,0
                55.0133963980001,39.5435516690001,0
                54.816183849,39.515162322,0
                54.7316876040001,39.4798490860001,0
                54.6683654010001,39.4022906280001,0
                54.668538498,39.240264886,0
                54.612284892,39.1415802000001,0
                54.4996664240001,39.056924483,0
                54.478686419,38.9089653290001,0
                54.3800981410001,38.8736370390001,0
                54.3027156460001,38.77492978,0
                54.380316394,38.6693435010001,0
                54.331131381,38.549532588,0
                54.2044509850001,38.436683476,0
                54.028382374,38.394227818,0
                53.99305609,38.49281438,0
                53.971744943,38.6548178260001,0
                54.0068605000001,38.75347993,0
                54.1334748,38.936774901,0
                54.232016285,39.007326393,0
                54.2037510700001,39.091831599,0
                54.0064616240001,39.1268437950001,0
                53.9148064730001,39.1971920940001,0
                53.7878250380001,39.366126955,0
                53.6185390360001,39.570239873,0
                53.6818687640001,39.64075346,0
                53.7170144250001,39.7112369380001,0
                53.7098705700001,39.8028093020001,0
                53.7026966120001,39.9225600070001,0
                53.878848008,39.887525515,0
                54.1394580200001,39.9230266120001,0
                54.2733365880001,39.9020361450001,0
                54.365082052,39.7471525390001,0
                54.4849497370001,39.6416114150001,0
                54.654017486,39.641792036,0
                54.84417813,39.684262748,0
                55.013163094,39.7619340900001,0
                55.0130727820001,39.8464696830001,0
                54.9496242760001,39.895713764,0
                54.808671222,39.9519204960001,0
                54.6958930740001,40.0081567570001,0
                54.590230311,40.0080438740001,0
                54.3646982280001,40.1064272340001,0
                54.230797081,40.1485517420001,0
                54.1042852990001,40.057979049,0
                53.8575384980001,40.056572982,0
                53.5756775470001,40.126718365,0
                53.350326087,40.0560311130001,0
                53.1882951910001,40.0558580100001,0
                53.033274319,40.0979605270001,0
                53.0331087480001,40.2529413980001,0
                53.018918877,40.3445062340001,0
                52.983585067,40.450137668,0
                52.9834721780001,40.55580673,0
                53.138244694,40.7461763760001,0
                53.2509250050001,40.781520008,0
                53.441108226,40.8028572520001,0
                53.589047088,40.8030153,0
                53.7370896780001,40.697504275,0
                53.8568235320001,40.725810563,0
                53.962486294,40.725923445,0
                54.1244795590001,40.7613197590001,0
                54.3146853590001,40.7615229620001,0
                54.589387404,40.797039113,0
                54.6879288900001,40.867590319,0
                54.8286110080001,41.0649897910001,0
                54.821423635,41.2058745470001,0
                54.7508371640001,41.3326018120001,0
                54.6239836710001,41.381778728,0
                54.412496827,41.515400345,0
                54.29268935,41.564584788,0
                54.3489504830001,41.65622489,0
                54.313646777,41.7336779840001,0
                54.1797246890001,41.8039808410001,0
                54.102114778,41.9095671100001,0
                54.0034060840001,41.986952466,0
                53.9327760940001,42.162992123,0
                53.7917703590001,42.2685106650001,0
                53.6579160040001,42.2754125430001,0
                53.5099771420001,42.2752544960001,0
                53.3831462260001,42.303297371,0
                53.2704960190001,42.2397753990001,0
                53.1507412230001,42.2396474620001,0
                52.967656699,42.1690059370001,0
                52.84805995,42.020940855,0
                52.735530157,41.8447055240001,0
                52.7920622250001,41.6827399920001,0
                52.693616939,41.5135640140001,0
                52.609000279,41.590964426,0
                52.5173300770001,41.6754016080001,0
                52.5242707290001,41.774033898,0
                52.3903335890001,41.8584259260001,0
                52.4113232460001,41.988774037,0
                52.3900701800001,42.10498726,0
                52.3758426810001,42.231774735,0
                52.4180343570001,42.3022663130001,0
                52.5165473770001,42.4080407390001,0
                52.600893103,42.5842459610001,0
                52.6711785350001,42.739302669,0
                52.6781250780001,42.823845207,0
                52.558340179,42.8518956090001,0
                52.466685028,42.9222436220001,0
                52.3610055770001,42.9291756010001,0
                52.248372057,42.85860934,0
                52.184899337,42.921942582,0
                52.0862357990001,42.957060428,0
                51.980580563,42.949902674,0
                51.8467788890001,42.907492172,0
                51.748002462,43.0482790790001,0
                51.663348172,43.1609021300001,0
                51.5998604000001,43.2383251140001,0
                51.5293884540001,43.266428198,0
                51.430770072,43.2592785350001,0
                51.3251056730001,43.25212077,0
                51.226472238,43.259060278,0
                51.254513312,43.392937788,0
                51.2613695420001,43.562015919,0
                51.1767002010001,43.688728139,0
                51.0991822390001,43.7168236970001,0
                50.9863213040001,43.850550678,0
                50.922797539,43.9702411820001,0
                50.901576703,44.0477093210001,0
                50.824013585,44.118072388,0
                50.795688162,44.258934561,0
                50.7322154410001,44.3222683750001,0
                50.640620498,44.3362597080001,0
                50.4856280930001,44.3431384310001,0
                50.2108131580001,44.413291342,0
                50.1964969840001,44.631658718,0
                50.29499495,44.751522315,0
                50.5627187110001,44.72362996,0
                50.795191448,44.7238783180001,0
                50.936152028,44.6606272860001,0
                51.0912105300001,44.583302702,0
                51.189798808,44.6186312790001,0
                51.3377000410001,44.6540113930001,0
                51.443441825,44.58015599,0
                51.5632810430001,44.5098386590001,0
                51.7464596400001,44.4924227290001,0
                51.9261068860001,44.4785248920001,0
                52.109270431,44.475198705,0
                52.278415077,44.4119777830001,0
                52.4193192120001,44.4015615690001,0
                52.528569772,44.3453209670001,0
                52.7118010500001,44.278593227,0
                52.877403056,44.2294577070001,0
                53.0358950720001,44.2401937760001,0
                53.0569185960001,44.3388411110001,0
                53.173064654,44.4235003100001,0
                53.2821722190001,44.5011082550001,0
                53.2996961310001,44.582139081,0
                53.348960167,44.627981709,0
                53.465132564,44.6879855760001,0
                53.475561541,44.8147999650001,0
                53.545925997,44.8958872420001,0
                53.6902507200001,44.977054679,0
                53.824052393,45.0194657540001,0
                53.9543807950001,45.019604987,0
                54.0423632370001,45.0936673520001,0
                54.1831942380001,45.1431296700001,0
                54.309947768,45.1960999630001,0
                54.4543327000001,45.220910718,0
                54.5494761740001,45.178744232,0
                54.641052303,45.182363933,0
                54.764240613,45.270553668,0
                54.799333593,45.3903495260001,0
                54.8591298420001,45.474948526,0
                54.781523695,45.577012359,0
                54.6299271760001,45.707175518,0
                54.464280016,45.7985785480001,0
                54.376227713,45.7984844790001,0
                54.231792227,45.812419934,0
                54.0943065550001,45.9249865420001,0
                53.963876553,46.0199490630001,0
                53.7912661620001,46.033854417,0
                53.7313172680001,46.1007138630001,0
                53.4636236100001,46.1004278770001,0
                53.4212738860001,46.177874016,0
                53.51275594,46.2695517450001,0
                53.5972070290001,46.347132204,0
                53.5900029680001,46.4950612490001,0
                53.6391428250001,46.6571402450001,0
                53.7447093870001,46.755876755,0
                53.89262567,46.777169417,0
                53.9982206990001,46.8406838500001,0
                53.8781648660001,47.1223393130001,0
                53.8992201300001,47.1998531890001,0
                53.976662832,47.2422029090001,0
                54.0751608,47.3620665060001,0
                53.9975057340001,47.5099202850001,0
                53.997302532,47.700124939,0
                53.8774273220001,47.8127103620001,0
                53.7012307690001,47.890013509,0
                53.5320125010001,48.030724589,0
                53.4825339750001,48.1856533490001,0
                53.4823383,48.3688131320001,0
                53.3907508840001,48.37575902,0
                53.2709568220001,48.4038094140001,0
                53.101768656,48.516343299,0
                53.1015729810001,48.699503081,0
                52.981690244,48.8191333760001,0
                52.911096248,48.9529049390001,0
                52.7983498390001,48.9880077400001,0
                52.657456993,48.9878572210001,0
                52.537715613,48.9665958040001,0
                52.425006834,48.966475394,0
                52.305182669,49.0227041270001,0
                52.185330035,49.114156081,0
                52.041720866,49.1862095440001,0
                52.0205410550001,49.2284546280001,0
                51.986122418,49.299744538,0
                51.93057844,49.3630866920001,0
                51.877695945,49.407939588,0
                51.7983877240001,49.460689438,0
                51.7719111980001,49.516137459,0
                51.7401653320001,49.5583712070001,0
                51.6793745910001,49.58736528,0
                51.610613519,49.658618501,0
                51.5788450740001,49.7219860550001,0
                51.530790853,49.756856149,0
                51.5254590050001,49.7607251540001,0
                51.462518823,49.8063971060001,0
                51.4518982980001,49.8565786090001,0
                51.4491775490001,49.9305441110001,0
                51.3911787850001,49.97298133,0
                51.330206751,50.017594064,0
                51.325015641,50.0954839620001,0
                51.32460645,50.101623665,0
                51.3194676910001,50.1787280550001,0
                51.3907745340001,50.1972963360001,0
                51.4515201180001,50.2105698760001,0
                51.562376649,50.300507091,0
                51.6838226620001,50.369321787,0
                51.7577909870001,50.3694008090001,0
                51.8740269260001,50.3695249880001,0
                51.942621488,50.4541335930001,0
                52.02711156,50.4964915200001,0
                52.0957625660001,50.528265608,0
                52.185519157,50.586479534,0
                52.2964716440001,50.5865980680001,0
                52.4232744870001,50.5867335350001,0
                52.5606442330001,50.5868802910001,0
                52.6610298160001,50.586987535,0
                52.735071519,50.5183816860001,0
                52.8724525540001,50.5079615380001,0
                52.956953915,50.5397525610001,0
                53.0362847150001,50.4658689030001,0
                53.147242847,50.4607039850001,0
                53.226551068,50.4079541340001,0
                53.326931007,50.41334483,0
                53.4272432130001,50.4821369490001,0
                53.5170562480001,50.4875163560001,0
                53.617498276,50.434789084,0
                53.6756670460001,50.387300107,0
                53.733869682,50.3081104190001,0
                53.813194837,50.2395102140001,0
                53.839724985,50.133869401,0
                53.882088556,50.044095876,0
                53.993097488,49.9913798920001,0
                54.1093616480001,49.965086812,0
                54.188658581,49.9229038650001,0
                54.2944009940001,49.8543318810001,0
                54.43187234,49.759376505,0
                54.5428643390001,49.722510877,0
                54.6432442780001,49.7279015730001,0
                54.7330460250001,49.743847884,0
                54.8440323790001,49.712265707,0
                54.902178571,49.685910538,0
                55.0395539610001,49.6807738420001,0
                55.1558294110001,49.6439138590001,0
                55.261526669,49.6176094890001,0
                55.367229572,49.5860216670001,0
                55.4624671710001,49.459320425,0
                55.631548917,49.4489341450001,0
                55.8270376360001,49.449142991,0
                55.9644289560001,49.4281559400001,0
                56.107104732,49.407174533,0
                56.244513989,49.370337127,0
                56.329105661,49.317592921,0
                56.482342696,49.3019062550001,0
                56.64084625,49.302075589,0
                56.783516381,49.2863776350001,0
                56.9420312230001,49.2759800650001,0
                57.074179606,49.218003208,0
                57.243266996,49.202333475,0
                57.370086772,49.1866185870001,0
                57.4811634370001,49.070501182,0
                57.6819628270001,49.044298413,0
                57.7929604700001,49.002149332,0
                57.9726147630001,48.986490889,0
                58.094201888,48.9232192910001,0
                58.25276753,48.8652706550001,0
                58.390165498,48.839000152,0
                58.390244522,48.7650318280001,0
                58.3269559890001,48.659295059,0
                58.2689113980001,48.5905480970001,0
                58.247980791,48.4003212550001,0
                58.1952591630001,48.2945957750001,0
                58.190105535,48.1730707400001,0
                58.0845889,48.030304652,0
                58.126958115,47.9352476760001,0
                58.237921891,47.9247993070001,0
                58.3118450590001,47.967145943,0
                58.427979398,48.062372253,0
                58.470173634,48.131102282,0
                58.4700325220001,48.2631885770001,0
                58.5650612760001,48.33197505,0
                58.6652775250001,48.4905858490001,0
                58.749750664,48.548794129,0
                58.9134868690001,48.596520173,0
                58.9926596240001,48.6705731650001,0
                59.135233799,48.7446938910001,0
                59.2248944340001,48.8927264970001,0
                59.235382315,48.9667061100001,0
                59.293472062,48.993185458,0
                59.393806845,49.040843769,0
                59.472940088,49.1518809230001,0
                59.483388458,49.262844699,0
                59.4832247680001,49.4160648000001,0
                59.4830780120001,49.5534345470001,0
                59.551616128,49.6908776710001,0
                59.6466053710001,49.7966483060001,0
                59.7310446430001,49.8865572980001,0
                59.8260733970001,49.955343772,0
                59.9846277500001,49.90796204,0
                60.1325644,49.9081200850001,0
                60.227581865,49.987473462,0
                60.343767004,50.035148706,0
                60.4335631060001,50.056378469,0
                60.5338922450001,50.1093202320001,0
                60.628937932,50.1622563500001,0
                60.7293009380001,50.1834974020001,0
                60.877231943,50.188938899,0
                60.9459619720001,50.146744663,0
                61.0463814220001,50.115151197,0
                61.141489199,50.1099693450001,0
                61.2894258480001,50.110127391,0
                61.4161835350001,50.1525304730001,0
                61.461967805,50.157862842,0
                61.622125264,50.258419642,0
                61.722448759,50.316644856,0
                61.859756415,50.374909582,0
                61.9601081320001,50.4067175370001,0
                62.0763327820001,50.4174086190001,0
                62.197823951,50.443955701,0
                62.3298650890001,50.4863644270001,0
                62.451361902,50.507628057,0
                62.5728812930001,50.5077578790001,0
                62.710273617,50.4867708290001,0
                62.815942652,50.4868837180001,0
                62.9427059830001,50.5240033480001,0
                63.0165952850001,50.598050695,0
                63.111584528,50.703821331,0
                63.2172253410001,50.730351479,0
                63.3228943760001,50.7304643680001,0
                63.4443686110001,50.772861805,0
                63.592305261,50.77301985,0
                63.7243915550001,50.7731609620001,0
                63.8670447530001,50.7733133630001,0
                63.97799724,50.773431896,0
                64.052016365,50.7259598530001,0
                64.157696689,50.71550584,0
                64.1578208670001,50.5992699000001,0
                64.2318287040001,50.562364761,0
              </coordinates>
            </LinearRing>
          </outerBoundaryIs>
        </Polygon>
      </Placemark>
    </Document>
  </Document>
</kml>
