<?xml version="1.0" encoding="UTF-8"?>
<kml xmlns="http://www.opengis.net/kml/2.2">
  <Document id="root_doc">
    <Schema id="Bioregions_PA33.schema">
      <SimpleField name="OBJECTID" type="float"/>
      <SimpleField name="Shape_Leng" type="float"/>
      <SimpleField name="Shape_Area" type="float"/>
      <SimpleField name="Bioregions" type="string"/>
    </Schema>
    <Document id="Bioregions_PA33">
      <name>Bioregions_PA33</name>
      <Placemark id="Bioregions_PA33.1">
        <ExtendedData>
          <SchemaData schemaUrl="#Bioregions_PA33.schema">
            <SimpleData name="OBJECTID">148</SimpleData>
            <SimpleData name="Shape_Leng">85.26847250850</SimpleData>
            <SimpleData name="Shape_Area">82.81009550920</SimpleData>
            <SimpleData name="Bioregions">PA33</SimpleData>
          </SchemaData>
        </ExtendedData>
        <Polygon>
          <outerBoundaryIs>
            <LinearRing>
              <coordinates>
                47.353468666,49.3675312180001,0
                47.389445896,49.3608773610001,0
                47.424834413,49.338965859,0
                47.4661105390001,49.3134078040001,0
                47.5582471960001,49.2802471190001,0
                47.5612483570001,49.2791669710001,0
                47.5615490210001,49.279092145,0
                47.688083417,49.247601279,0
                47.7198109180001,49.223860313,0
                47.7726505420001,49.2186331440001,0
                47.8413379730001,49.218706753,0
                47.8700307120001,49.2270702710001,0
                47.923203345,49.2425693050001,0
                47.9786381270001,49.2822544630001,0
                48.0684208700001,49.3166925900001,0
                48.134450239,49.3299719830001,0
                48.156947529,49.3245435040001,0
                48.2216467390001,49.3089316240001,0
                48.236633107,49.3054226830001,0
                48.266570218,49.2984126490001,0
                48.3273602840001,49.269418548,0
                48.337962589,49.265353674,0
                48.3960716870001,49.2430742500001,0
                48.480070794,49.2407644850001,0
                48.48853582,49.240531692,0
                48.5444348560001,49.249909417,0
                48.5836234440001,49.2564835320001,0
                48.781737439,49.272545366,0
                48.832899323,49.2808987710001,0
                48.879460604,49.288500545,0
                49.014179761,49.2965694810001,0
                49.177959076,49.304669749,0
                49.2142149860001,49.308217391,0
                49.2598447550001,49.312682029,0
                49.313851463,49.3194918400001,0
                49.3866299000001,49.328668287,0
                49.524023393,49.307681035,0
                49.623218991,49.263340982,0
                49.67731575,49.2391596460001,0
                49.8279331160001,49.2023367950001,0
                49.9626966370001,49.1681382740001,0
                50.071035609,49.141836186,0
                50.163522142,49.118160032,0
                50.208896827,49.114649908,0
                50.298264358,49.1077365360001,0
                50.348470606,49.094581916,0
                50.3971803950001,49.0874716750001,0
                50.4382998740001,49.08146908,0
                50.498486696,49.0789905990001,0
                50.5341292310001,49.077522774,0
                50.6258737210001,49.0737445280001,0
                50.713046789,49.0764792320001,0
                50.7632169450001,49.097666577,0
                50.778982856,49.1769352570001,0
                50.783019499,49.2218635340001,0
                50.7842054220001,49.235058775,0
                50.8045109720001,49.241851812,0
                50.855504554,49.2589104630001,0
                50.9506173670001,49.2510867410001,0
                51.053676017,49.2194964760001,0
                51.08989389,49.2098803310001,0
                51.1329527070001,49.198447446,0
                51.176928569,49.1882357470001,0
                51.2122217190001,49.1800399680001,0
                51.2890858380001,49.1310935750001,0
                51.336468159,49.100920929,0
                51.368156485,49.0923930960001,0
                51.4342417560001,49.074608132,0
                51.5066506360001,49.076815094,0
                51.524059429,49.077345635,0
                51.5401374370001,49.078367918,0
                51.5663229470001,49.0800328550001,0
                51.5824307400001,49.096944255,0
                51.6217353800001,49.1382096770001,0
                51.626932181,49.220108925,0
                51.629513913,49.275587912,0
                51.6294574680001,49.328422505,0
                51.638400969,49.343790374,0
                51.647919223,49.3601425620001,0
                51.6676799150001,49.357586633,0
                51.708684959,49.352282754,0
                51.7324882300001,49.3257896900001,0
                51.7774504010001,49.2757457750001,0
                51.788128348,49.1700884370001,0
                51.7961752160001,49.056502767,0
                51.796279639,48.9587587940001,0
                51.8122266190001,48.868957268,0
                51.850572755,48.8460060940001,0
                51.8518797410001,48.84522381,0
                51.879031839,48.853174575,0
                51.915263919,48.8637839510001,0
                51.9389416770001,48.956269078,0
                51.9499862860001,49.002892155,0
                51.9520874090001,49.0117598360001,0
                51.970508431,49.077822616,0
                52.011539446,49.14027329,0
                52.019470158,49.152344058,0
                52.041720866,49.1862095440001,0
                52.185330035,49.114156081,0
                52.305182669,49.0227041270001,0
                52.425006834,48.966475394,0
                52.537715613,48.9665958040001,0
                52.657456993,48.9878572210001,0
                52.7983498390001,48.9880077400001,0
                52.911096248,48.9529049390001,0
                52.981690244,48.8191333760001,0
                53.1015729810001,48.699503081,0
                53.101768656,48.516343299,0
                53.2709568220001,48.4038094140001,0
                53.3907508840001,48.37575902,0
                53.4823383,48.3688131320001,0
                53.4825339750001,48.1856533490001,0
                53.5320125010001,48.030724589,0
                53.7012307690001,47.890013509,0
                53.8774273220001,47.8127103620001,0
                53.997302532,47.700124939,0
                53.9975057340001,47.5099202850001,0
                54.0751608,47.3620665060001,0
                53.976662832,47.2422029090001,0
                53.8992201300001,47.1998531890001,0
                53.8781648660001,47.1223393130001,0
                53.9982206990001,46.8406838500001,0
                53.89262567,46.777169417,0
                53.7447093870001,46.755876755,0
                53.6391428250001,46.6571402450001,0
                53.5900029680001,46.4950612490001,0
                53.5972070290001,46.347132204,0
                53.51275594,46.2695517450001,0
                53.4212738860001,46.177874016,0
                53.4636236100001,46.1004278770001,0
                53.7313172680001,46.1007138630001,0
                53.7912661620001,46.033854417,0
                53.963876553,46.0199490630001,0
                54.0943065550001,45.9249865420001,0
                54.231792227,45.812419934,0
                54.376227713,45.7984844790001,0
                54.464280016,45.7985785480001,0
                54.6299271760001,45.707175518,0
                54.781523695,45.577012359,0
                54.8591298420001,45.474948526,0
                54.799333593,45.3903495260001,0
                54.764240613,45.270553668,0
                54.641052303,45.182363933,0
                54.5494761740001,45.178744232,0
                54.4543327000001,45.220910718,0
                54.309947768,45.1960999630001,0
                54.1831942380001,45.1431296700001,0
                54.0423632370001,45.0936673520001,0
                53.9543807950001,45.019604987,0
                53.824052393,45.0194657540001,0
                53.6902507200001,44.977054679,0
                53.545925997,44.8958872420001,0
                53.475561541,44.8147999650001,0
                53.465132564,44.6879855760001,0
                53.348960167,44.627981709,0
                53.2996961310001,44.582139081,0
                53.2821722190001,44.5011082550001,0
                53.173064654,44.4235003100001,0
                53.0569185960001,44.3388411110001,0
                53.0358950720001,44.2401937760001,0
                52.877403056,44.2294577070001,0
                52.7118010500001,44.278593227,0
                52.528569772,44.3453209670001,0
                52.4193192120001,44.4015615690001,0
                52.278415077,44.4119777830001,0
                52.109270431,44.475198705,0
                51.9261068860001,44.4785248920001,0
                51.7464596400001,44.4924227290001,0
                51.5632810430001,44.5098386590001,0
                51.443441825,44.58015599,0
                51.3377000410001,44.6540113930001,0
                51.189798808,44.6186312790001,0
                51.0912105300001,44.583302702,0
                50.936152028,44.6606272860001,0
                50.795191448,44.7238783180001,0
                50.5627187110001,44.72362996,0
                50.29499495,44.751522315,0
                50.1964969840001,44.631658718,0
                50.2108131580001,44.413291342,0
                50.4856280930001,44.3431384310001,0
                50.640620498,44.3362597080001,0
                50.7322154410001,44.3222683750001,0
                50.795688162,44.258934561,0
                50.824013585,44.118072388,0
                50.901576703,44.0477093210001,0
                50.922797539,43.9702411820001,0
                50.9863213040001,43.850550678,0
                51.0991822390001,43.7168236970001,0
                51.1767002010001,43.688728139,0
                51.2613695420001,43.562015919,0
                51.254513312,43.392937788,0
                51.226472238,43.259060278,0
                51.3251056730001,43.25212077,0
                51.430770072,43.2592785350001,0
                51.5293884540001,43.266428198,0
                51.5998604000001,43.2383251140001,0
                51.663348172,43.1609021300001,0
                51.748002462,43.0482790790001,0
                51.8467788890001,42.907492172,0
                51.980580563,42.949902674,0
                52.0862357990001,42.957060428,0
                52.184899337,42.921942582,0
                52.248372057,42.85860934,0
                52.3610055770001,42.9291756010001,0
                52.466685028,42.9222436220001,0
                52.558340179,42.8518956090001,0
                52.6781250780001,42.823845207,0
                52.6711785350001,42.739302669,0
                52.600893103,42.5842459610001,0
                52.5165473770001,42.4080407390001,0
                52.4180343570001,42.3022663130001,0
                52.3758426810001,42.231774735,0
                52.3900701800001,42.10498726,0
                52.4113232460001,41.988774037,0
                52.3903335890001,41.8584259260001,0
                52.5242707290001,41.774033898,0
                52.5173300770001,41.6754016080001,0
                52.609000279,41.590964426,0
                52.693616939,41.5135640140001,0
                52.7920622250001,41.6827399920001,0
                52.735530157,41.8447055240001,0
                52.84805995,42.020940855,0
                52.967656699,42.1690059370001,0
                53.1507412230001,42.2396474620001,0
                53.2704960190001,42.2397753990001,0
                53.3831462260001,42.303297371,0
                53.5099771420001,42.2752544960001,0
                53.6579160040001,42.2754125430001,0
                53.7917703590001,42.2685106650001,0
                53.9327760940001,42.162992123,0
                54.0034060840001,41.986952466,0
                54.102114778,41.9095671100001,0
                54.1797246890001,41.8039808410001,0
                54.313646777,41.7336779840001,0
                54.3489504830001,41.65622489,0
                54.29268935,41.564584788,0
                54.412496827,41.515400345,0
                54.6239836710001,41.381778728,0
                54.7508371640001,41.3326018120001,0
                54.821423635,41.2058745470001,0
                54.8286110080001,41.0649897910001,0
                54.6879288900001,40.867590319,0
                54.589387404,40.797039113,0
                54.3146853590001,40.7615229620001,0
                54.1244795590001,40.7613197590001,0
                53.962486294,40.725923445,0
                53.8568235320001,40.725810563,0
                53.7370896780001,40.697504275,0
                53.589047088,40.8030153,0
                53.441108226,40.8028572520001,0
                53.2509250050001,40.781520008,0
                53.138244694,40.7461763760001,0
                52.9834721780001,40.55580673,0
                52.983585067,40.450137668,0
                53.018918877,40.3445062340001,0
                53.0331087480001,40.2529413980001,0
                53.033274319,40.0979605270001,0
                53.1882951910001,40.0558580100001,0
                53.350326087,40.0560311130001,0
                53.5756775470001,40.126718365,0
                53.8575384980001,40.056572982,0
                54.1042852990001,40.057979049,0
                54.230797081,40.1485517420001,0
                54.3646982280001,40.1064272340001,0
                54.590230311,40.0080438740001,0
                54.6958930740001,40.0081567570001,0
                54.808671222,39.9519204960001,0
                54.9496242760001,39.895713764,0
                55.0130727820001,39.8464696830001,0
                55.013163094,39.7619340900001,0
                54.84417813,39.684262748,0
                54.654017486,39.641792036,0
                54.4849497370001,39.6416114150001,0
                54.365082052,39.7471525390001,0
                54.2733365880001,39.9020361450001,0
                54.1394580200001,39.9230266120001,0
                53.878848008,39.887525515,0
                53.7026966120001,39.9225600070001,0
                53.7098705700001,39.8028093020001,0
                53.7170144250001,39.7112369380001,0
                53.6818687640001,39.64075346,0
                53.6185390360001,39.570239873,0
                53.7878250380001,39.366126955,0
                53.9148064730001,39.1971920940001,0
                54.0064616240001,39.1268437950001,0
                54.2037510700001,39.091831599,0
                54.232016285,39.007326393,0
                54.1334748,38.936774901,0
                54.0068605000001,38.75347993,0
                53.971744943,38.6548178260001,0
                53.99305609,38.49281438,0
                54.028382374,38.394227818,0
                54.2044509850001,38.436683476,0
                54.331131381,38.549532588,0
                54.380316394,38.6693435010001,0
                54.3027156460001,38.77492978,0
                54.3800981410001,38.8736370390001,0
                54.478686419,38.9089653290001,0
                54.4996664240001,39.056924483,0
                54.612284892,39.1415802000001,0
                54.668538498,39.240264886,0
                54.6683654010001,39.4022906280001,0
                54.7316876040001,39.4798490860001,0
                54.816183849,39.515162322,0
                55.0133963980001,39.5435516690001,0
                55.140266581,39.487330177,0
                55.393868206,39.487601107,0
                55.6826999130001,39.487909675,0
                55.908126634,39.488150504,0
                56.12658982,39.4108931920001,0
                56.2675270220001,39.3687760970001,0
                56.471888225,39.3055929290001,0
                56.5918195620001,39.143695015,0
                56.7258250520001,38.9959013590001,0
                56.92308897,38.982022881,0
                57.02184887,38.8553254020001,0
                57.183949984,38.785052475,0
                57.296723829,38.728816072,0
                57.515159184,38.6797371600001,0
                57.620911005,38.602359424,0
                57.719670905,38.4756619450001,0
                57.80428892,38.398261732,0
                57.9804491340001,38.3561821650001,0
                58.128491147,38.257715777,0
                58.283547658,38.187435325,0
                58.43153699,38.138281153,0
                58.558407566,38.0750151990001,0
                58.664076601,38.075128088,0
                58.8190954830001,38.040070648,0
                58.9106753140001,38.040168485,0
                59.037560942,37.9628133260001,0
                59.1714384900001,37.93477791,0
                59.24192967,37.892585555,0
                59.3475987050001,37.8926984460001,0
                59.5167670000001,37.8012992370001,0
                59.7282631150001,37.6535883660001,0
                59.939751705,37.512922098,0
                60.052570706,37.4144180800001,0
                60.249849677,37.3864503980001,0
                60.4190405480001,37.273917383,0
                60.6375586880001,37.1473478460001,0
                60.7715566520001,37.006598792,0
                60.926680897,36.872916918,0
                61.1240501790001,36.7604140070001,0
                61.2721674520001,36.5915015950001,0
                61.385069238,36.415506952,0
                61.4767920620001,36.281757344,0
                61.357184342,36.140737356,0
                61.2022632970001,36.084214966,0
                61.06137125,36.0840644470001,0
                60.8713852390001,35.8795677780001,0
                60.779632312,36.0414957940001,0
                60.6385746930001,36.1963265270001,0
                60.511651435,36.3089046970001,0
                60.356557294,36.414408162,0
                60.180366975,36.4846660370001,0
                60.1027032520001,36.646609105,0
                59.975742365,36.7944102880001,0
                59.8207084310001,36.8435569320001,0
                59.595303734,36.8221822950001,0
                59.4191585710001,36.8501725560001,0
                59.228863995,36.934504583,0
                59.031472137,37.068141301,0
                58.7989325250001,37.131294365,0
                58.5381919260001,37.2155511330001,0
                58.4041939620001,37.356300187,0
                58.178650034,37.465250693,0
                58.0023957450001,37.5953876880001,0
                57.7909974660001,37.651518728,0
                57.530309549,37.6864632800001,0
                57.2132196570001,37.7636152370001,0
                57.0018439570001,37.7986124700001,0
                56.9102566000001,37.805559235,0
                56.7129249490001,37.8828391340001,0
                56.473363313,37.924850866,0
                56.3746711460001,37.988146923,0
                56.276054238,37.980996958,0
                56.0154792110001,37.9102724740001,0
                55.769023492,37.8113846320001,0
                55.4733985490001,37.578596664,0
                55.2271159270001,37.317682968,0
                54.9807204160001,37.162438308,0
                54.6849374280001,37.07758699,0
                54.3680131080001,36.999757695,0
                54.1496906420001,36.943167572,0
                53.9876271580001,36.9782174860001,0
                53.9451713940001,37.15428739,0
                53.8673973910001,37.419458365,0
                53.39641211,37.418955198,0
                52.7263181920001,37.9009030870001,0
                52.573841859,37.860374887,0
                51.946318583,38.0265310400001,0
                51.5186667410001,38.3508596880001,0
                51.368485579,38.6978056240001,0
                50.8714854410001,38.7998781360001,0
                49.6900626720001,38.349129557,0
                49.43330009,38.507776215,0
                48.8490928740001,38.539871734,0
                48.8419540310001,38.733018074,0
                48.802598308,39.014368979,0
                48.6878133440001,39.100027878,0
                48.441079164,39.2617903240001,0
                48.131011297,39.3600836150001,0
                48.060640533,39.2895623310001,0
                47.969098332,39.2542414820001,0
                47.771849466,39.254030755,0
                47.6170112070001,39.12001774,0
                47.455030509,39.0775770280001,0
                47.2930197060001,39.063314727,0
                47.124016983,38.9997326820001,0
                46.9761254900001,38.9573070230001,0
                46.8141673690001,38.8937325050001,0
                46.5974555350001,38.97803631,0
                46.5463144340001,39.041383168,0
                46.637781375,39.14715004,0
                46.729225738,39.27405072,0
                46.658674352,39.3725998940001,0
                46.588107913,39.4852382720001,0
                46.595062204,39.569781027,0
                46.665455546,39.619168503,0
                46.7288569670001,39.6192362360001,0
                46.792303544,39.5770363560001,0
                46.919076282,39.605350232,0
                47.0247302660001,39.6195523260001,0
                46.9611181180001,39.816733459,0
                46.9750116480001,39.9999081720001,0
                46.904430157,40.1266357550001,0
                46.8409308980001,40.2181478520001,0
                46.7351263950001,40.344837806,0
                46.664522327,40.4926991950001,0
                46.597560974,40.527850711,0
                46.4989139630001,40.5488791540001,0
                46.4284378360001,40.5769823040001,0
                46.301593601,40.6155921500001,0
                46.1571491490001,40.643616276,0
                46.090214137,40.654111684,0
                46.0619303650001,40.7527060130001,0
                45.9984311060001,40.84421811,0
                45.882078515,40.953285269,0
                45.7516743480001,41.0271143630001,0
                45.642422804,41.0833545290001,0
                45.4838477540001,41.1501089170001,0
                45.36760429,41.157029342,0
                45.2724457130001,41.2097622590001,0
                45.1878352250001,41.280117971,0
                45.068009251,41.3433914510001,0
                44.9728694890001,41.378512863,0
                44.8918302220001,41.4030824220001,0
                44.7931681580001,41.438200071,0
                44.7050541840001,41.490940514,0
                44.634510323,41.5824450850001,0
                44.620311992,41.6845767680001,0
                44.6483925640001,41.7761867020001,0
                44.715248553,41.839659619,0
                44.803272216,41.8714544050001,0
                44.901855256,41.910305081,0
                45.032172874,41.9174889130001,0
                45.183631824,41.9176507220001,0
                45.299890342,41.896641093,0
                45.4302343000001,41.879168817,0
                45.5782198680001,41.833536947,0
                45.687426257,41.819564395,0
                45.8037035880001,41.7809432600001,0
                45.8953436260001,41.724684279,0
                46.0292813830001,41.640292044,0
                46.134988048,41.6051819210001,0
                46.247746842,41.5630347220001,0
                46.409787748,41.5491186150001,0
                46.5225013850001,41.5492390300001,0
                46.62114087,41.5352551890001,0
                46.7198179850001,41.4860483360001,0
                46.874904601,41.387589474,0
                47.0229315620001,41.3032122910001,0
                47.1498171900001,41.225857132,0
                47.26961306,41.190762061,0
                47.4105051070001,41.1909125810001,0
                47.5514197320001,41.1699292930001,0
                47.699431641,41.0996413140001,0
                47.7681861290001,41.0345521200001,0
                47.7946880550001,40.955328566,0
                47.6626525610001,40.9076363880001,0
                47.6838428130001,40.854824448,0
                47.7737122930001,40.8073693380001,0
                47.9058324540001,40.7758097400001,0
                48.032624007,40.78651211,0
                48.117147947,40.7971693260001,0
                48.191065472,40.8447994140001,0
                48.2332484190001,40.9240963460001,0
                48.312494551,40.9294644650001,0
                48.397018491,40.9401216800001,0
                48.4604142680001,40.945472866,0
                48.5343205030001,41.0036698580001,0
                48.5818602800001,41.014287562,0
                48.650522574,41.035494746,0
                48.6927243370001,41.097180173,0
                48.680324786,41.1640907250001,0
                48.6520955770001,41.2116116870001,0
                48.611506327,41.2890590390001,0
                48.766449949,41.324447621,0
                48.759354547,41.371991162,0
                48.7187652980001,41.4494385140001,0
                48.70283592,41.523389905,0
                48.700944946,41.644907414,0
                48.7025386450001,41.8016516980001,0
                48.612635298,41.880807519,0
                48.5438902170001,41.937090959,0
                48.4469704890001,41.9898219950001,0
                48.362373172,42.0478496530001,0
                48.3059674340001,42.093579361,0
                48.2706966580001,42.1375705240001,0
                48.1948131820001,42.2819039120001,0
                48.1101936250001,42.361065346,0
                48.0908932880001,42.375879108,0
                48.041453774,42.413826595,0
                47.914505698,42.551060944,0
                47.8463545600001,42.6190636260001,0
                47.7875636840001,42.677728159,0
                47.687059682,42.788573387,0
                47.6661927150001,42.839428212,0
                47.6393878900001,42.9047587430001,0
                47.5916937060001,43.036793937,0
                47.581055269,43.105467558,0
                47.5512830420001,43.1411137270001,0
                47.5281497890001,43.168812632,0
                47.4963526770001,43.2585975150001,0
                47.5121411650001,43.316732329,0
                47.545859541,43.3713293370001,0
                47.5807109570001,43.4277581110001,0
                47.548907308,43.5228265210001,0
                47.538246294,43.6126336950001,0
                47.546136448,43.660307366,0
                47.55399092,43.7077529250001,0
                47.5837878090001,43.7632299910001,0
                47.5909034810001,43.7764773220001,0
                47.607890518,43.8276227210001,0
                47.6172351880001,43.8557572890001,0
                47.627742923,43.9156742870001,0
                47.632989964,43.9455930510001,0
                47.6324811650001,43.951121664,0
                47.6276434310001,44.003705208,0
                47.577175325,44.006455004,0
                47.5325368700001,44.008887176,0
                47.490331252,43.9507240040001,0
                47.4630189330001,43.9203120870001,0
                47.442835658,43.897838924,0
                47.4269245510001,43.9097459160001,0
                47.379387324,43.9453221200001,0
                47.321161949,44.0456456970001,0
                47.2470516820001,44.17765267,0
                47.2209327090001,44.232347201,0
                47.1940956010001,44.28854876,0
                47.181108706,44.3101425500001,0
                47.1623424910001,44.3413495460001,0
                47.088345114,44.367687893,0
                47.0142856470001,44.4521439420001,0
                46.929678057,44.520738539,0
                46.8725748320001,44.5301925380001,0
                46.866262684,44.5312376140001,0
                46.818699661,44.5417536750001,0
                46.713022816,44.5522074630001,0
                46.648111929,44.5737667560001,0
                46.6178835690001,44.5838069170001,0
                46.6269058980001,44.6405823790001,0
                46.638878558,44.7159160370001,0
                46.6651986860001,44.805762719,0
                46.580613671,44.853223762,0
                46.496067059,44.863699997,0
                46.374574253,44.8371528000001,0
                46.3164731630001,44.821240419,0
                46.2266539840001,44.8211444630001,0
                46.105137175,44.8210146540001,0
                46.060167172,44.829612565,0
                45.967736802,44.8472850370001,0
                45.8356275990001,44.868277934,0
                45.7950062580001,44.8905635310001,0
                45.7298996800001,44.926283299,0
                45.7139817070001,44.9699054640001,0
                45.7087010860001,44.984378227,0
                45.7350445750001,45.0530913330001,0
                45.7666949310001,45.100676363,0
                45.76659333,45.1957784000001,0
                45.734807507,45.274996279,0
                45.681942727,45.303998843,0
                45.5603320820001,45.3884044850001,0
                45.4788738990001,45.4509267080001,0
                45.457221041,45.4675463520001,0
                45.3620737900001,45.5123539850001,0
                45.2906905630001,45.5624704000001,0
                45.227237453,45.6099538290001,0
                45.184953868,45.64097572,0
                45.1373518020001,45.6759008500001,0
                45.047396156,45.8026079300001,0
                45.0192158400001,45.838223069,0
                44.968035226,45.9029086510001,0
                44.909807136,46.005873889,0
                44.856888735,46.0850691910001,0
                44.838276271,46.1173164480001,0
                44.8066030090001,46.1721925840001,0
                44.7218994620001,46.330605641,0
                44.6963159000001,46.3805727220001,0
                44.658363685,46.4546990970001,0
                44.618638462,46.547117229,0
                44.576280705,46.6316072500001,0
                44.55541577,46.6773822760001,0
                44.5365651440001,46.7187418520001,0
                44.5206012290001,46.824394403,0
                44.520477052,46.9406298050001,0
                44.5203641620001,47.046299289,0
                44.531008657,47.083712803,0
                44.5414164360001,47.120290041,0
                44.575676747,47.1969366160001,0
                44.5914454800001,47.273563724,0
                44.591374925,47.33960675,0
                44.575465079,47.3950662680001,0
                44.5648197680001,47.4690232940001,0
                44.568277548,47.5241202400001,0
                44.5726124120001,47.5931928100001,0
                44.6174587670001,47.65135881,0
                44.6817181710001,47.694296869,0
                44.688735497,47.6989856690001,0
                44.7114670780001,47.7157730010001,0
                44.7388887920001,47.7360238100001,0
                44.8075282630001,47.778364692,0
                44.9343066060001,47.804917625,0
                45.0135463890001,47.8129269410001,0
                45.0690249720001,47.8129862110001,0
                45.1504766900001,47.805062395,0
                45.23018482,47.7973082,0
                45.282113983,47.7910060610001,0
                45.359648647,47.781596419,0
                45.502290546,47.792315504,0
                45.5724667150001,47.8030716800001,0
                45.623787405,47.810937573,0
                45.686787936,47.825659656,0
                45.7373546370001,47.8374759110001,0
                45.853554209,47.871942544,0
                45.941815838,47.907777896,0
                45.964457365,47.9169705400001,0
                46.0991059670001,47.9910827890001,0
                46.1730209450001,48.0413548320001,0
                46.207329235,48.0730921040001,0
                46.2340457390001,48.0985263850001,0
                46.260113011,48.1233411210001,0
                46.262584141,48.171308288,0
                46.262699018,48.17353674,0
                46.286416204,48.2290388270001,0
                46.3004685270001,48.251411401,0
                46.331247858,48.300413125,0
                46.3813813250001,48.3559431990001,0
                46.4247276720001,48.365624048,0
                46.4606163130001,48.373638854,0
                46.542509201,48.3737263040001,0
                46.556411084,48.3448420440001,0
                46.5636881340001,48.329720396,0
                46.613931553,48.2822235240001,0
                46.6232577700001,48.275655741,0
                46.658877042,48.25057035,0
                46.7090763140001,48.245340544,0
                46.7724749380001,48.2454082770001,0
                46.8411586880001,48.2454816520001,0
                46.9045169120001,48.287817117,0
                46.9056570550001,48.2993410080001,0
                46.909746082,48.3406568890001,0
                46.9017528360001,48.40404994,0
                46.885851012,48.45158436,0
                46.859384128,48.4991074930001,0
                46.8547373710001,48.542782523,0
                46.8540447760001,48.5492943130001,0
                46.856950613,48.556215986,0
                46.8751279080001,48.599509664,0
                46.8652950210001,48.6205154260001,0
                46.8565898200001,48.6391157410001,0
                46.8222081530001,48.6760633540001,0
                46.8137501100001,48.691882374,0
                46.8010345750001,48.7156669020001,0
                46.7914093960001,48.7520765090001,0
                46.787770041,48.765845271,0
                46.7976469280001,48.7763251900001,0
                46.8326322010001,48.813443884,0
                46.8748654400001,48.845190228,0
                46.9118070850001,48.882213558,0
                46.9121540450001,48.8866076360001,0
                46.9170224790001,48.948262744,0
                46.9592500750001,48.9852916180001,0
                47.0034226290001,49.000069142,0
                47.0305490040001,49.0091436050001,0
                47.104510921,49.014505903,0
                47.1890507790001,49.0093128250001,0
                47.263045333,48.9856161710001,0
                47.3238284120001,48.961905404,0
                47.368739114,48.96459551,0
                47.379904169,48.9837840110001,0
                47.387196316,48.9963158670001,0
                47.388627307,49.005682398,0
                47.392445095,49.0306636930001,0
                47.3844744260001,49.0729231920001,0
                47.358018832,49.109879549,0
                47.3426938010001,49.120462805,0
                47.3236472470001,49.133617901,0
                47.2977160410001,49.1508662570001,0
                47.283996055,49.1599931440001,0
                47.236417583,49.183718018,0
                47.2020421220001,49.215381661,0
                47.157039513,49.3051521460001,0
                47.1992417070001,49.3659575550001,0
                47.2758327760001,49.381889399,0
                47.353468666,49.3675312180001,0
              </coordinates>
            </LinearRing>
          </outerBoundaryIs>
        </Polygon>
      </Placemark>
    </Document>
  </Document>
</kml>
