<?xml version="1.0" encoding="UTF-8"?>
<kml xmlns="http://www.opengis.net/kml/2.2">
  <Document id="root_doc">
    <Schema id="Bioregions_PA34.schema">
      <SimpleField name="OBJECTID" type="float"/>
      <SimpleField name="Shape_Leng" type="float"/>
      <SimpleField name="Shape_Area" type="float"/>
      <SimpleField name="Bioregions" type="string"/>
    </Schema>
    <Document id="Bioregions_PA34">
      <name>Bioregions_PA34</name>
      <Placemark id="Bioregions_PA34.1">
        <ExtendedData>
          <SchemaData schemaUrl="#Bioregions_PA34.schema">
            <SimpleData name="OBJECTID">163</SimpleData>
            <SimpleData name="Shape_Leng">105.39579808200</SimpleData>
            <SimpleData name="Shape_Area">172.34894576800</SimpleData>
            <SimpleData name="Bioregions">PA34</SimpleData>
          </SchemaData>
        </ExtendedData>
        <Polygon>
          <outerBoundaryIs>
            <LinearRing>
              <coordinates>
                68.35170399,56.6515483790001,0
                68.5877132200001,56.637711294,0
                68.8237487920001,56.5992181010001,0
                69.1126489860001,56.532602943,0
                69.4156647250001,56.441346728,0
                69.6482269140001,56.3570598570001,0
                69.9019229100001,56.272795563,0
                70.116866068,56.1955344790001,0
                70.345879616,56.135899952,0
                70.5995041150001,56.1185593810001,0
                70.7862274710001,56.0800135060001,0
                70.9800217690001,56.016819049,0
                71.135066991,55.9571054990001,0
                71.3182304160001,55.953778873,0
                71.501405129,55.9398853440001,0
                71.758566982,55.90845933,0
                72.036794908,55.940457316,0
                72.272740169,55.9864993510001,0
                72.526270595,56.0572163090001,0
                72.7410794470001,56.105670203,0
                72.9735162960001,56.1387071340001,0
                73.2411848450001,56.16364923,0
                73.49831283,56.163923927,0
                73.7941447360001,56.20298533,0
                74.009008872,56.1996925710001,0
                74.2238654810001,56.203444414,0
                74.385906387,56.1895283060001,0
                74.5621091570001,56.107615664,0
                74.6290328790001,56.1076871600001,0
                74.9495622860001,56.108029591,0
                75.13976655,56.1082327920001,0
                75.421550644,56.1085338300001,0
                75.6399058150001,56.134511108,0
                75.837143391,56.145288738,0
                76.051981186,56.166652087,0
                76.1470870810001,56.1632313860001,0
                76.3020645700001,56.1669192580001,0
                76.5275068970001,56.153070885,0
                76.7600250930001,56.1099637630001,0
                76.992559779,56.0514208640001,0
                77.2532778,55.988297903,0
                77.510432128,55.9639164920001,0
                77.7464413580001,55.950079406,0
                78.045844484,55.943354657,0
                78.3452363220001,55.9471968120001,0
                78.567145059,55.943911579,0
                78.774938251,55.9652674020001,0
                78.9862537430001,55.9866269870001,0
                79.2186955180001,56.0150537530001,0
                79.458185658,56.039965744,0
                79.6448713820001,56.036642881,0
                79.8879139270001,56.033380225,0
                80.0675964430001,55.9913045230001,0
                80.286050613,55.924614105,0
                80.483303242,55.921302531,0
                80.7404538060001,55.900443421,0
                80.9659138370001,55.870023432,0
                81.173729607,55.870245448,0
                81.4801031870001,55.9329343580001,0
                81.775923805,55.9825626640001,0
                82.029506912,56.0039674060001,0
                82.233770276,56.032364069,0
                82.4380374030001,56.05723843,0
                82.5824479890001,56.0609150130001,0
                82.709277173,56.036394371,0
                82.807950524,55.9907098200001,0
                82.8291746420001,55.90619717,0
                82.6672579150001,55.8038773380001,0
                82.4982439030001,55.7508621970001,0
                82.2833948200001,55.7400657520001,0
                82.072094378,55.7046169610001,0
                81.853786965,55.6339376330001,0
                81.71651882,55.5386887450001,0
                81.716661813,55.404841301,0
                81.783683373,55.3133329670001,0
                81.9140611980001,55.26415998,0
                82.1395035250001,55.250311605,0
                82.3860758970001,55.2400081110001,0
                82.586847064,55.240222601,0
                82.8298933710001,55.233437644,0
                82.9743453500001,55.1983689140001,0
                83.0941675610001,55.1386177360001,0
                83.2034228680001,55.0788552670001,0
                83.302156428,54.9768138970001,0
                83.4185504110001,54.829001426,0
                83.5102468950001,54.7199079270001,0
                83.5843205830001,54.621362516,0
                83.6618977570001,54.540432374,0
                83.7711831680001,54.452491497,0
                83.964973704,54.3928193410001,0
                84.1763456410001,54.3613444090001,0
                84.3489797920001,54.3227834830001,0
                84.4617461110001,54.273591681,0
                84.539304471,54.2102730450001,0
                84.560581271,54.0764481780001,0
                84.560765658,53.9038554210001,0
                84.5925679690001,53.8087871560001,0
                84.6630742,53.752505596,0
                84.768784628,53.7138731730001,0
                84.9062333970001,53.6400516040001,0
                85.085942253,53.573319794,0
                85.2198649570001,53.5030167630001,0
                85.367903207,53.4080726770001,0
                85.508900618,53.3095987620001,0
                85.5865116590001,53.1969679100001,0
                85.6394854070001,53.0666992120001,0
                85.6819261190001,52.904718513,0
                85.6643936360001,52.830731374,0
                85.6433764800001,52.721517459,0
                85.682234683,52.615889817,0
                85.7527522030001,52.5490413540001,0
                85.8620037470001,52.4928011870001,0
                85.9888705610001,52.4330575340001,0
                86.115748662,52.3627469780001,0
                86.2038475840001,52.3240957400001,0
                86.2778685910001,52.2748625460001,0
                86.344867573,52.2044880180001,0
                86.1794172560001,52.1127313270001,0
                86.063241524,52.0562503310001,0
                85.894276431,51.9574452750001,0
                86.0353566270001,51.7814807340001,0
                86.1376501170001,51.6442201150001,0
                86.2187383040001,51.573860639,0
                86.3457180070001,51.4084479520001,0
                86.5711302300001,51.4227779870001,0
                86.7683715700001,51.430033316,0
                86.958575834,51.430236517,0
                87.0395962870001,51.4232784640001,0
                87.1770450560001,51.3494568950001,0
                87.321515849,51.296776659,0
                87.490661565,51.2265112590001,0
                87.4907405880001,51.1525429340001,0
                87.554281239,51.022285524,0
                87.5966429270001,50.9342731500001,0
                87.649586572,50.83218286,0
                87.7272201910001,50.698418201,0
                87.6215549190001,50.694783011,0
                87.4841814100001,50.6981585560001,0
                87.364404355,50.71564212,0
                87.297480632,50.7155706240001,0
                87.220038925,50.6696979230001,0
                87.1215349070001,50.5568789210001,0
                87.0687944640001,50.4687649470001,0
                87.0865150960001,50.3666370280001,0
                87.1429735150001,50.271595104,0
                87.0726065140001,50.19755152,0
                86.9563517600001,50.2150388470001,0
                86.8259965140001,50.2430780270001,0
                86.663902926,50.3063063500001,0
                86.533464892,50.411836156,0
                86.431205269,50.5173960650001,0
                86.3008123910001,50.5806582550001,0
                86.1562287090001,50.7390075270001,0
                85.9481909240001,50.94660128,0
                85.8494310240001,51.0732987590001,0
                85.7823718330001,51.2000301050001,0
                85.6623614740001,51.4358963430001,0
                85.5072297030001,51.5766228190001,0
                85.394399413,51.6856937410001,0
                85.2710473750001,51.7524857590001,0
                85.098390646,51.812180492,0
                84.9398569890001,51.840189568,0
                84.7954464040001,51.8365129850001,0
                84.6299509300001,51.787023908,0
                84.5490283140001,51.702402132,0
                84.5068510120001,51.617821748,0
                84.4717258380001,51.526204287,0
                84.411903162,51.4733057980001,0
                84.3168574750001,51.4203696800001,0
                84.165421102,51.399074065,0
                83.9857875050001,51.3953598520001,0
                83.820254402,51.3810937870001,0
                83.7251485070001,51.384514488,0
                83.6018491500001,51.4019942900001,0
                83.4855417150001,51.4687938340001,0
                83.3762901710001,51.5250340000001,0
                83.2741095700001,51.5566255850001,0
                83.150821502,51.5635384830001,0
                83.0204925960001,51.566921553,0
                82.9078052990001,51.542145029,0
                82.943114859,51.461169732,0
                83.0347548970001,51.404910752,0
                83.1263723580001,51.3697855770001,0
                83.1898226980001,51.3240633950001,0
                83.2216099570001,51.243084335,0
                83.225211281,51.169119773,0
                83.1618399640001,51.14087363,0
                83.0808797180001,51.0914748650001,0
                82.9893111760001,51.080810124,0
                82.8695416480001,51.0912490860001,0
                82.7815669030001,51.013664385,0
                82.6724583530001,50.9360571070001,0
                82.732424021,50.8551081510001,0
                82.792408504,50.7565476880001,0
                82.86997439,50.686184451,0
                82.926406468,50.615798635,0
                82.8947622030001,50.5629302500001,0
                82.7926606240001,50.5205535100001,0
                82.7398825510001,50.467662547,0
                82.842108308,50.3938033480001,0
                82.898529098,50.333984436,0
                82.8739783520001,50.2353336620001,0
                82.9233921690001,50.140284212,0
                82.8283577710001,50.0767811910001,0
                82.6945028000001,50.0836828000001,0
                82.532476946,50.0835097030001,0
                82.37396963,50.0868626700001,0
                82.2753376700001,50.093801908,0
                82.2118798050001,50.1465686930001,0
                82.1765551930001,50.2416331950001,0
                82.1059398350001,50.4000614890001,0
                81.9368881930001,50.3822693600001,0
                81.8277156710001,50.3645412010001,0
                81.7149982710001,50.3679430870001,0
                81.5952325050001,50.3748597480001,0
                81.450803105,50.38879467,0
                81.3521560930001,50.4098231140001,0
                81.199800575,50.424630146,0
                81.131084657,50.4536157520001,0
                81.072952576,50.466762293,0
                80.996376393,50.434979737,0
                80.8907327570001,50.4110913150001,0
                80.7612966560001,50.403027847,0
                80.6714779760001,50.402931892,0
                80.4706814080001,50.4264929350001,0
                80.3649982620001,50.439588675,0
                80.1905794420001,50.500162103,0
                80.1033657990001,50.5344114050001,0
                79.968615201,50.5554012790001,0
                79.8470788770001,50.5711218110001,0
                79.7017754870001,50.578891766,0
                79.6198424730001,50.615788439,0
                79.5220478150001,50.663235082,0
                79.4137060090001,50.6921783560001,0
                79.323864751,50.713216206,0
                79.1917812780001,50.710433369,0
                79.0755594510001,50.6971005610001,0
                78.9593291570001,50.691692931,0
                78.8879856240001,50.7074670860001,0
                78.8139947220001,50.7285218700001,0
                78.7083285080001,50.7257672550001,0
                78.6343573620001,50.7283299590001,0
                78.5974127100001,50.6913062850001,0
                78.5974719770001,50.6358300410001,0
                78.629231954,50.580387665,0
                78.645150044,50.517003177,0
                78.6082759490001,50.4139363560001,0
                78.5581650010001,50.337272682,0
                78.4789894260001,50.2658614170001,0
                78.3944908860001,50.231428668,0
                78.309964124,50.2234131800001,0
                78.22543454,50.2180394160001,0
                78.0933821130001,50.1861975940001,0
                78.027358722,50.1676349570001,0
                77.9745806490001,50.114743994,0
                77.977323975,50.0196446850001,0
                78.0170204190001,49.9536438710001,0
                78.0646420410001,49.887651524,0
                78.080557307,49.8269087630001,0
                78.0753415890001,49.763501697,0
                78.0358060120001,49.678924135,0
                77.964581014,49.5837458030001,0
                78.0385916720001,49.544198937,0
                78.1786511220001,49.4994391760001,0
                78.310740239,49.496938561,0
                78.4190510000001,49.4970542730001,0
                78.5300853320001,49.420562756,0
                78.606746183,49.3730935350001,0
                78.6755044340001,49.30448204,0
                78.754852166,49.214748027,0
                78.8288910470001,49.148783902,0
                78.910821239,49.114528955,0
                79.035004933,49.0935277930001,0
                79.1090071250001,49.061906105,0
                79.164539813,49.009130854,0
                79.198952805,48.943124396,0
                79.243904479,48.903546486,0
                79.315293167,48.845504717,0
                79.3734591150001,48.8006574660001,0
                79.4527306470001,48.7822500520001,0
                79.5240854680001,48.755908994,0
                79.59021046,48.679369498,0
                79.653651392,48.6424530690001,0
                79.6959867400001,48.5790968040001,0
                79.7039768290001,48.5183455760001,0
                79.7145973550001,48.468164073,0
                79.746331932,48.4364972280001,0
                79.7992341840001,48.3731522530001,0
                79.7992849840001,48.3256011870001,0
                79.7464786890001,48.2991274830001,0
                79.6593186680001,48.2831839930001,0
                79.5800668910001,48.2830993270001,0
                79.5272323740001,48.2830428820001,0
                79.458516456,48.3120284890001,0
                79.405642427,48.348956206,0
                79.363352235,48.370044857,0
                79.3237150580001,48.3805694270001,0
                79.2735025110001,48.399007886,0
                79.2047894150001,48.4253517670001,0
                79.165124016,48.4622935960001,0
                79.130725135,48.515091425,0
                79.0804815430001,48.562588868,0
                78.9906374620001,48.586268445,0
                78.9430751080001,48.5967845490001,0
                78.8954986410001,48.6205092810001,0
                78.8241409980001,48.6494920660001,0
                78.758075273,48.670555317,0
                78.6867345630001,48.683687746,0
                78.6127521270001,48.696817353,0
                78.57045629,48.7231894560001,0
                78.5017431950001,48.7495333360001,0
                78.438338951,48.7521073290001,0
                78.369656901,48.7493922240001,0
                78.2877916210001,48.722887477,0
                78.245524006,48.722842321,0
                78.1609690220001,48.7412440910001,0
                78.0975111560001,48.794010875,0
                78.0472788540001,48.830941415,0
                77.997055017,48.8599467770001,0
                77.9177863070001,48.875712465,0
                77.8438095160001,48.88355862,0
                77.7777663690001,48.8834880650001,0
                77.69325654,48.8596222200001,0
                77.6510481930001,48.8041008210001,0
                77.651149794,48.7089986890001,0
                77.6142333650001,48.6455577560001,0
                77.5271185,48.5873466530001,0
                77.4399641240001,48.566119712,0
                77.358115776,48.5237646090001,0
                77.3053433480001,48.4655901950001,0
                77.2816496600001,48.388954744,0
                77.2315133120001,48.3360666040001,0
                77.1602008250001,48.3227817740001,0
                77.0809518710001,48.320055381,0
                77.004333354,48.3278987140001,0
                76.9435087470001,48.388593498,0
                76.8985598950001,48.425529682,0
                76.8668196730001,48.462479978,0
                76.8271458070001,48.507346985,0
                76.766329667,48.5601165910001,0
                76.7002498310001,48.594388472,0
                76.6262561060001,48.618084982,0
                76.5522793150001,48.6259311370001,0
                76.467744086,48.6258408260001,0
                76.399070502,48.6152005440001,0
                76.333049933,48.5939961810001,0
                76.267046297,48.5569414620001,0
                76.2036759200001,48.5278147440001,0
                76.1376327730001,48.527744188,0
                76.0768759000001,48.525037551,0
                76.018760753,48.5223337360001,0
                75.9685792500001,48.51171321,0
                75.9157898880001,48.469389151,0
                75.8876566340001,48.427091433,0
                75.8877422420001,48.3469590820001,0
                75.8878212640001,48.2729907560001,0
                75.8879303910001,48.170844022,0
                75.8739239720001,48.0933383440001,0
                75.8387686940001,48.0298992940001,0
                75.7965349460001,47.998153427,0
                75.7366633520001,47.9910448540001,0
                75.6732581680001,47.9944994210001,0
                75.613360233,48.0120469570001,0
                75.5745358980001,48.0859738880001,0
                75.54273735,48.177519853,0
                75.5074315530001,48.2549728490001,0
                75.4580553650001,48.314799287,0
                75.3769747040001,48.3781141590001,0
                75.310020878,48.4062210720001,0
                75.239544751,48.434324223,0
                75.154975656,48.4659346220001,0
                75.1302687470001,48.513459347,0
                75.11964728,48.5645214250001,0
                75.107240204,48.638476579,0
                75.119506169,48.696607719,0
                75.1264943260001,48.749449763,0
                75.1405383750001,48.791732429,0
                75.1545937130001,48.8234481920001,0
                75.147509599,48.860424827,0
                75.1105009770001,48.8832802740001,0
                75.0435640850001,48.8955368310001,0
                74.9871903320001,48.9113269800001,0
                74.9202609650001,48.9165389350001,0
                74.8374812440001,48.9217339570001,0
                74.7687888450001,48.9287051800001,0
                74.7071203520001,48.9550565870001,0
                74.6260998980001,48.962014642,0
                74.53629627,48.9478294800001,0
                74.4341815210001,48.9177807940001,0
                74.374328742,48.893060715,0
                74.2757419390001,48.85773234,0
                74.212378147,48.822441595,0
                74.1560232100001,48.8206202370001,0
                74.110235177,48.818810167,0
                74.055626337,48.8310798950001,0
                74.011574995,48.852166664,0
                73.955199361,48.869717963,0
                73.86712678,48.883713093,0
                73.7720246480001,48.883611493,0
                73.699821237,48.8800120510001,0
                73.6329031590001,48.8746571020001,0
                73.5360586910001,48.856942115,0
                73.4445127270001,48.8251435670001,0
                73.374108097,48.786322994,0
                73.3301094350001,48.758097547,0
                73.3090038510001,48.731657711,0
                73.305566216,48.6524021710001,0
                73.2950952690001,48.5625722010001,0
                73.266963897,48.518513333,0
                73.256464726,48.4551006230001,0
                73.2811772800001,48.402292446,0
                73.3270198770001,48.3530291480001,0
                73.3605363020001,48.3019915300001,0
                73.3681091510001,48.2196657360001,0
                73.368198051,48.13645137,0
                73.3854271260001,48.082314334,0
                73.4303717430001,48.0493407390001,0
                73.4792648390001,48.0295800060001,0
                73.5387135490001,48.020397465,0
                73.5915593560001,48.009887007,0
                73.6417789590001,47.984844233,0
                73.673520592,47.9465730740001,0
                73.6881022960001,47.897716668,0
                73.6669967110001,47.871276832,0
                73.635308701,47.8593551980001,0
                73.5507706490001,47.861906613,0
                73.526995314,47.8618812120001,0
                73.4873692290001,47.8618388780001,0
                73.433210085,47.8653033240001,0
                73.4015394780001,47.837091048,0
                73.376924762,47.7983193950001,0
                73.3840295730001,47.741970101,0
                73.433388827,47.697994018,0
                73.4334678490001,47.6240256940001,0
                73.359516458,47.6080963150001,0
                73.2855312,47.623867649,0
                73.1481614530001,47.6237208920001,0
                73.0213811890001,47.602451618,0
                72.963268864,47.597106076,0
                72.9263637240001,47.5230982410001,0
                72.8101785860001,47.4754229970001,0
                72.7150708090001,47.480604848,0
                72.619968677,47.4805032470001,0
                72.5301499970001,47.4804072910001,0
                72.4139027690001,47.4908500170001,0
                72.3239768440001,47.5911396440001,0
                72.2657403410001,47.702030042,0
                72.2603948,47.7601423670001,0
                72.281398784,47.881684336,0
                72.360565894,47.9610207790001,0
                72.3604925160001,48.0297056530001,0
                72.2917794200001,48.0560495330001,0
                72.2283497760001,48.0823990580001,0
                72.1596253920001,48.1193098430001,0
                72.106723141,48.182654819,0
                72.1172336000001,48.235500626,0
                72.1858620290001,48.2884085220001,0
                72.30731933,48.346656314,0
                72.4076146020001,48.4312987870001,0
                72.4762091640001,48.5159073940001,0
                72.5606597240001,48.595249482,0
                72.6451272190001,48.658741214,0
                72.7190899,48.6641036890001,0
                72.8352919720001,48.6959285770001,0
                72.9250542080001,48.7488590520001,0
                72.9249469630001,48.849244635,0
                72.856256445,48.854454709,0
                72.7981102530001,48.880809878,0
                72.7504688750001,48.965294306,0
                72.7503334090001,49.092097149,0
                72.6710759870001,49.097295934,0
                72.512538567,49.1288273100001,0
                72.422702954,49.1445817100001,0
                72.332884274,49.1444857540001,0
                72.2641260220001,49.213097249,0
                72.2112519930001,49.2500249660001,0
                72.0844378620001,49.260456403,0
                71.968156767,49.302599838,0
                71.899426739,49.344794074,0
                71.8360140290001,49.3552932440001,0
                71.7567509630001,49.3657754810001,0
                71.661643187,49.370957332,0
                71.550662478,49.397256057,0
                71.5505044330001,49.5451927060001,0
                71.4659296930001,49.5820865580001,0
                71.3338377540001,49.587228897,0
                71.2598129850001,49.6399843930001,0
                71.2333110580001,49.719207947,0
                71.169858838,49.766691279,0
                71.016610514,49.792944849,0
                70.900346352,49.8192379290001,0
                70.7840313900001,49.8930820750001,0
                70.6677502960001,49.9352255110001,0
                70.5145245510001,49.940345273,0
                70.414048655,50.024773257,0
                70.3400408190001,50.061678396,0
                70.2290883320001,50.0615598630001,0
                70.091696008,50.082546914,0
                70.0229603340001,50.130024602,0
                69.922540885,50.1616180670001,0
                69.8274443970001,50.156233016,0
                69.7060209620001,50.066284513,0
                69.589785023,50.0661603340001,0
                69.478860759,50.0396245410001,0
                69.367947783,50.002521845,0
                69.2200562880001,49.960096186,0
                69.0932026460001,50.007511784,0
                68.9187866490001,50.065443486,0
                68.7760882950001,50.1075587,0
                68.7074485780001,50.065217708,0
                68.591263439,50.017542464,0
                68.4855944030001,50.0174295740001,0
                68.353491176,50.0331388180001,0
                68.2689277250001,50.059465765,0
                68.1737804370001,50.1016317780001,0
                68.110407239,50.0751467860001,0
                68.0206506470001,50.016932861,0
                67.90976025,49.9586963570001,0
                67.8146468290001,49.969161661,0
                67.6350094690001,49.9689697490001,0
                67.5293573660001,49.953006504,0
                67.4237560650001,49.8894921930001,0
                67.318120896,49.857678594,0
                67.2282231930001,49.9315509620001,0
                67.0909042480001,49.88385314,0
                66.9640788280001,49.9048514790001,0
                66.826675214,49.9364054340001,0
                66.752594001,50.041995447,0
                66.6626398540001,50.1687023330001,0
                66.519879411,50.268935517,0
                66.392980612,50.3586187290001,0
                66.229182318,50.3690106550001,0
                66.1182636980001,50.3371914100001,0
                65.9650605300001,50.321177365,0
                65.7853667250001,50.373819971,0
                65.674329571,50.452953214,0
                65.5052873370001,50.4263553310001,0
                65.3362507470001,50.3944739980001,0
                65.1407178750001,50.4365327670001,0
                64.9610297150001,50.4838919210001,0
                64.7602754810001,50.467827076,0
                64.5806776320001,50.430651002,0
                64.448534894,50.4833444070001,0
                64.2688975340001,50.4831524950001,0
                64.2318287040001,50.562364761,0
                64.1578208670001,50.5992699000001,0
                64.157696689,50.71550584,0
                64.052016365,50.7259598530001,0
                63.97799724,50.773431896,0
                63.8670447530001,50.7733133630001,0
                63.7243915550001,50.7731609620001,0
                63.592305261,50.77301985,0
                63.4443686110001,50.772861805,0
                63.3228943760001,50.7304643680001,0
                63.2172253410001,50.730351479,0
                63.111584528,50.703821331,0
                63.0165952850001,50.598050695,0
                62.9427059830001,50.5240033480001,0
                62.815942652,50.4868837180001,0
                62.710273617,50.4867708290001,0
                62.5728812930001,50.5077578790001,0
                62.451361902,50.507628057,0
                62.3298650890001,50.4863644270001,0
                62.197823951,50.443955701,0
                62.0763327820001,50.4174086190001,0
                61.9601081320001,50.4067175370001,0
                61.859756415,50.374909582,0
                61.722448759,50.316644856,0
                61.622125264,50.258419642,0
                61.461967805,50.157862842,0
                61.4161835350001,50.1525304730001,0
                61.2894258480001,50.110127391,0
                61.141489199,50.1099693450001,0
                61.0463814220001,50.115151197,0
                60.9459619720001,50.146744663,0
                60.877231943,50.188938899,0
                60.7293009380001,50.1834974020001,0
                60.628937932,50.1622563500001,0
                60.5338922450001,50.1093202320001,0
                60.4335631060001,50.056378469,0
                60.343767004,50.035148706,0
                60.227581865,49.987473462,0
                60.1325644,49.9081200850001,0
                59.9846277500001,49.90796204,0
                59.8260733970001,49.955343772,0
                59.7310446430001,49.8865572980001,0
                59.6466053710001,49.7966483060001,0
                59.551616128,49.6908776710001,0
                59.4830780120001,49.5534345470001,0
                59.4832247680001,49.4160648000001,0
                59.483388458,49.262844699,0
                59.472940088,49.1518809230001,0
                59.393806845,49.040843769,0
                59.293472062,48.993185458,0
                59.235382315,48.9667061100001,0
                59.2248944340001,48.8927264970001,0
                59.135233799,48.7446938910001,0
                58.9926596240001,48.6705731650001,0
                58.9134868690001,48.596520173,0
                58.749750664,48.548794129,0
                58.6652775250001,48.4905858490001,0
                58.5650612760001,48.33197505,0
                58.4700325220001,48.2631885770001,0
                58.470173634,48.131102282,0
                58.427979398,48.062372253,0
                58.3118450590001,47.967145943,0
                58.237921891,47.9247993070001,0
                58.126958115,47.9352476760001,0
                58.0845889,48.030304652,0
                58.190105535,48.1730707400001,0
                58.1952591630001,48.2945957750001,0
                58.247980791,48.4003212550001,0
                58.2689113980001,48.5905480970001,0
                58.3269559890001,48.659295059,0
                58.390244522,48.7650318280001,0
                58.390165498,48.839000152,0
                58.25276753,48.8652706550001,0
                58.094201888,48.9232192910001,0
                57.9726147630001,48.986490889,0
                57.7929604700001,49.002149332,0
                57.6819628270001,49.044298413,0
                57.4811634370001,49.070501182,0
                57.370086772,49.1866185870001,0
                57.243266996,49.202333475,0
                57.074179606,49.218003208,0
                56.9420312230001,49.2759800650001,0
                56.783516381,49.2863776350001,0
                56.64084625,49.302075589,0
                56.482342696,49.3019062550001,0
                56.329105661,49.317592921,0
                56.244513989,49.370337127,0
                56.107104732,49.407174533,0
                55.9644289560001,49.4281559400001,0
                55.8270376360001,49.449142991,0
                55.631548917,49.4489341450001,0
                55.4624671710001,49.459320425,0
                55.367229572,49.5860216670001,0
                55.261526669,49.6176094890001,0
                55.1558294110001,49.6439138590001,0
                55.0395539610001,49.6807738420001,0
                54.902178571,49.685910538,0
                54.8440323790001,49.712265707,0
                54.7330460250001,49.743847884,0
                54.6432442780001,49.7279015730001,0
                54.5428643390001,49.722510877,0
                54.43187234,49.759376505,0
                54.2944009940001,49.8543318810001,0
                54.188658581,49.9229038650001,0
                54.1093616480001,49.965086812,0
                53.993097488,49.9913798920001,0
                53.882088556,50.044095876,0
                53.839724985,50.133869401,0
                53.813194837,50.2395102140001,0
                53.733869682,50.3081104190001,0
                53.6756670460001,50.387300107,0
                53.617498276,50.434789084,0
                53.5170562480001,50.4875163560001,0
                53.4272432130001,50.4821369490001,0
                53.326931007,50.41334483,0
                53.226551068,50.4079541340001,0
                53.147242847,50.4607039850001,0
                53.0362847150001,50.4658689030001,0
                52.956953915,50.5397525610001,0
                52.8724525540001,50.5079615380001,0
                52.735071519,50.5183816860001,0
                52.6610298160001,50.586987535,0
                52.5606442330001,50.5868802910001,0
                52.4232744870001,50.5867335350001,0
                52.2964716440001,50.5865980680001,0
                52.185519157,50.586479534,0
                52.0957625660001,50.528265608,0
                52.02711156,50.4964915200001,0
                51.942621488,50.4541335930001,0
                51.8740269260001,50.3695249880001,0
                51.7577909870001,50.3694008090001,0
                51.6838226620001,50.369321787,0
                51.562376649,50.300507091,0
                51.4515201180001,50.2105698760001,0
                51.3907745340001,50.1972963360001,0
                51.3194676910001,50.1787280550001,0
                51.2877302910001,50.213036624,0
                51.237497988,50.2499671640001,0
                51.18461267,50.2974617850001,0
                51.1238106420001,50.3370227620001,0
                51.089383538,50.4162378500001,0
                51.1262689220001,50.5087377670001,0
                51.1393985290001,50.5827202030001,0
                51.128778003,50.632901706,0
                51.1260911210001,50.6751664970001,0
                51.1286538250001,50.7491376450001,0
                51.1867125270001,50.804675978,0
                51.1892498300001,50.902422658,0
                51.236710584,50.9870086860001,0
                51.323816983,51.053144967,0
                51.323769005,51.0980543060001,0
                51.3395488040001,51.164114388,0
                51.402885315,51.2249418170001,0
                51.468857905,51.2910555190001,0
                51.566556608,51.3334275560001,0
                51.6563301320001,51.3757911260001,0
                51.7619878780001,51.386470919,0
                51.8306642850001,51.3944694750001,0
                51.896650987,51.4473745490001,0
                51.954740734,51.473853897,0
                52.0498315770001,51.4845224000001,0
                52.1211440650001,51.49780723,0
                52.1924565520001,51.5110920600001,0
                52.263788796,51.5058848090001,0
                52.3219321660001,51.4821713650001,0
                52.3906170380001,51.4822447430001,0
                52.4619323480001,51.4928878470001,0
                52.55964234,51.5246929800001,0
                52.644132412,51.567050905,0
                52.728653529,51.580349847,0
                52.8686734680001,51.572574247,0
                52.945286341,51.5700143670001,0
                53.0509412650001,51.5833358850001,0
                53.1856721070001,51.5808380930001,0
                53.254342869,51.594120101,0
                53.3177414680001,51.5968295600001,0
                53.3891019340001,51.56520505,0
                53.4419590300001,51.5441276870001,0
                53.521222095,51.533645451,0
                53.600493627,51.5152380370001,0
                53.716723921,51.5206456670001,0
                53.83031249,51.526050475,0
                53.9544736070001,51.52618312,0
                54.1420446110001,51.518458321,0
                54.30056792,51.5001355730001,0
                54.422098599,51.489698493,0
                54.548943776,51.4502080720001,0
                54.62826893,51.3816078660001,0
                54.7180734990001,51.394912451,0
                54.8237425350001,51.3950253410001,0
                54.9347063110001,51.3845769710001,0
                54.98227431,51.3687774160001,0
                55.056284969,51.32923055,0
                55.1117809670001,51.310797736,0
                55.1831837670001,51.239547337,0
                55.257183136,51.210567375,0
                55.320570446,51.223843738,0
                55.418314304,51.2239481610001,0
                55.486996354,51.2266632650001,0
                55.582112597,51.213556236,0
                55.6878409,51.158192882,0
                55.7988216090001,51.131894156,0
                55.9626255480001,51.1162187800001,0
                56.0709504210001,51.1031258620001,0
                56.2004570780001,51.0451461820001,0
                56.2982460920001,51.0029829910001,0
                56.3907262530001,50.984589688,0
                56.4806493550001,50.8869417860001,0
                56.5467602370001,50.8236109210001,0
                56.591700621,50.7945999140001,0
                56.6709975530001,50.752416967,0
                56.7291691460001,50.7022862640001,0
                56.8084943000001,50.6336860580001,0
                56.9195173430001,50.567761445,0
                57.0120539490001,50.4965336240001,0
                57.1125270220001,50.414747366,0
                57.178592748,50.393684115,0
                57.244633073,50.396396397,0
                57.284219449,50.4334228930001,0
                57.3132530340001,50.4572294710001,0
                57.318477219,50.512711359,0
                57.344790054,50.6104834390001,0
                57.4107739350001,50.6660302380001,0
                57.4846914600001,50.7136603260001,0
                57.5612761100001,50.737517704,0
                57.6326168200001,50.724385275,0
                57.680184819,50.70858572,0
                57.7409981370001,50.65845784,0
                57.8071005510001,50.603052152,0
                57.854677017,50.57932742,0
                57.941828571,50.603196086,0
                57.989399393,50.584754805,0
                58.0581096660001,50.5610526510001,0
                58.1505700720001,50.5611514290001,0
                58.2561770180001,50.6193822870001,0
                58.3538390320001,50.696096761,0
                58.4567506290001,50.8045175890001,0
                58.4830549980001,50.9102148470001,0
                58.504123894,50.97099712,0
                58.5040335830001,51.055532348,0
                58.517151901,51.1400816880001,0
                58.4748306640001,51.190229324,0
                58.4034955990001,51.1980783010001,0
                58.337446807,51.2032911970001,0
                58.2951566150001,51.2243798480001,0
                58.2370047790001,51.2560184700001,0
                58.157755824,51.253292077,0
                58.0943544030001,51.2532243430001,0
                58.0520190550001,51.316580609,0
                57.9461298860001,51.522522339,0
                57.8852347230001,51.6492602690001,0
                57.776907028,51.664994913,0
                57.7029161250001,51.686049698,0
                57.7477210430001,51.783841534,0
                57.7978376350001,51.8552217550001,0
                57.861154389,51.9345412650001,0
                57.8874841580001,52.01646299,0
                57.8741711060001,52.1141927370001,0
                57.87405069,52.2269063740001,0
                57.923189811,52.38898491,0
                57.97935848,52.5651601770001,0
                57.9792004350001,52.713096826,0
                58.042368552,52.9315472330001,0
                58.0774335190001,53.079521513,0
                58.0772679470001,53.2345027640001,0
                58.076997013,53.488108449,0
                58.1543521720001,53.6149940770001,0
                58.154246808,53.713618511,0
                58.2949958620001,53.8476164740001,0
                58.421655711,53.981599386,0
                58.576501496,54.108567801,0
                58.6961092170001,54.249587789,0
                58.843917925,54.3695040740001,0
                58.935339711,54.517538561,0
                59.0313224170001,54.517641102,0
                59.1000072910001,54.517714481,0
                59.179220496,54.5539027350001,0
                59.2909754770001,54.6271099590001,0
                59.4388331050001,54.701236328,0
                59.611376943,54.74721063,0
                59.7909465700001,54.8108039630001,0
                59.9669976590001,54.8708712320001,0
                60.100758554,54.952027152,0
                60.2450901170001,55.029672061,0
                60.4140627370001,55.121432514,0
                60.604135296,55.2449162560001,0
                60.7625356990001,55.341638888,0
                60.8927871330001,55.410772976,0
                61.0476592580001,55.513085281,0
                61.2941902370001,55.5415270990001,0
                61.540702401,55.5875804230001,0
                61.6639490760001,55.6194128380001,0
                61.8118857250001,55.6195708830001,0
                62.0231974550001,55.644452771,0
                62.231043329,55.616496376,0
                62.5128801050001,55.567485198,0
                62.7524304520001,55.5360403700001,0
                62.9567540240001,55.5080802140001,0
                63.154029231,55.4836348320001,0
                63.3723855630001,55.508524245,0
                63.5590449480001,55.52985749,0
                63.7562825250001,55.540635121,0
                63.9570235880001,55.5690280200001,0
                64.175357342,55.6150512400001,0
                64.4640430470001,55.7492072490001,0
                64.780910922,55.8798710610001,0
                65.044940518,56.014000729,0
                65.2948921970001,56.1375484420001,0
                65.541329101,56.254047789,0
                65.7631362380001,56.3458646880001,0
                65.921587109,56.3953462380001,0
                66.0870712940001,56.4554022180001,0
                66.3089424020001,56.487339997,0
                66.5836292130001,56.5369457260001,0
                66.847767934,56.56892866,0
                67.0661054510001,56.6114295790001,0
                67.2879878480001,56.6328004530001,0
                67.4957659870001,56.668245481,0
                67.735282468,56.6685013640001,0
                68.0839902850001,56.6688738980001,0
                68.35170399,56.6515483790001,0
              </coordinates>
            </LinearRing>
          </outerBoundaryIs>
        </Polygon>
      </Placemark>
    </Document>
  </Document>
</kml>
