<?xml version="1.0" encoding="UTF-8"?>
<kml xmlns="http://www.opengis.net/kml/2.2">
  <Document id="root_doc">
    <Schema id="Bioregions_PA35.schema">
      <SimpleField name="OBJECTID" type="float"/>
      <SimpleField name="Shape_Leng" type="float"/>
      <SimpleField name="Shape_Area" type="float"/>
      <SimpleField name="Bioregions" type="string"/>
    </Schema>
    <Document id="Bioregions_PA35">
      <name>Bioregions_PA35</name>
      <Placemark id="Bioregions_PA35.1">
        <ExtendedData>
          <SchemaData schemaUrl="#Bioregions_PA35.schema">
            <SimpleData name="OBJECTID">166</SimpleData>
            <SimpleData name="Shape_Leng">89.17932605580</SimpleData>
            <SimpleData name="Shape_Area">32.52461830150</SimpleData>
            <SimpleData name="Bioregions">PA35</SimpleData>
          </SchemaData>
        </ExtendedData>
        <Polygon>
          <outerBoundaryIs>
            <LinearRing>
              <coordinates>
                85.1202999320001,57.680364362,0
                85.3951410240001,57.585555743,0
                85.7017279830001,57.4485133760001,0
                85.966160217,57.205756819,0
                86.1459104680001,57.100279695,0
                86.4736651000001,56.931559195,0
                86.790751228,56.8579295380001,0
                87.0021118780001,56.8370215100001,0
                87.3190964060001,56.8584939850001,0
                87.551477972,56.9432775700001,0
                87.8683947660001,57.028151467,0
                88.1219214290001,57.1023907260001,0
                88.4600736310001,57.092185069,0
                88.851116796,57.0292013380001,0
                89.199824613,57.0295738730001,0
                89.4640310680001,56.9981553860001,0
                89.71767062,56.9667256100001,0
                89.8764563970001,56.702722355,0
                90.1724200070001,56.6185032170001,0
                90.6057533640001,56.5344308360001,0
                90.827703494,56.492400289,0
                91.187057236,56.4188157880001,0
                91.5041433650001,56.345186131,0
                91.6732702670001,56.292532237,0
                91.8741091680001,56.229345305,0
                91.9376460560001,56.1026101960001,0
                91.832123777,55.965127561,0
                91.6313977660001,55.922645457,0
                91.43060402,55.943564774,0
                91.229810275,55.964484091,0
                91.092440529,55.964337335,0
                90.807168001,55.9323318240001,0
                90.627575796,55.8898722970001,0
                90.3739588220001,55.900168267,0
                90.1413966330001,55.984455138,0
                90.003913997,56.0899774170001,0
                89.9614206040001,56.3012703320001,0
                89.80271385,56.4913052620001,0
                89.601818505,56.607326711,0
                89.3904127000001,56.6705023540001,0
                89.1578730890001,56.7336554180001,0
                88.957113211,56.7228740240001,0
                88.7775435840001,56.659280692,0
                88.5768062830001,56.6273654920001,0
                88.3760915610001,56.5743164830001,0
                88.1966235350001,56.4156210190001,0
                88.0381764260001,56.3626171670001,0
                87.689491187,56.341110825,0
                87.3301713110001,56.382994615,0
                87.0236972420001,56.4143679470001,0
                86.674944269,56.456263026,0
                86.4213047170001,56.487692802,0
                86.1676200100001,56.561390192,0
                85.9984592420001,56.6457447980001,0
                85.8186977030001,56.7617888240001,0
                85.6389474540001,56.8672659480001,0
                85.5174675740001,56.8301519620001,0
                85.3590148220001,56.782431563,0
                85.263957846,56.740062348,0
                85.1688782910001,56.71882694,0
                84.989286087,56.6763674150001,0
                84.820226919,56.665619888,0
                84.6670519730001,56.623188584,0
                84.5614280940001,56.5808080800001,0
                84.5193128810001,56.438109727,0
                84.403133386,56.3851510310001,0
                84.2975377290001,56.3163532680001,0
                84.21837062,56.2370168250001,0
                84.1603824730001,56.115435345,0
                84.1710792000001,55.993927243,0
                84.0021667870001,55.8458099700001,0
                83.886060672,55.724166402,0
                83.8650510430001,55.607907885,0
                83.8757251910001,55.50753359,0
                83.9920965970001,55.380854927,0
                84.0819999440001,55.3016991060001,0
                84.2194543580001,55.2225940850001,0
                84.388575615,55.175223642,0
                84.5418182940001,55.1542535250001,0
                84.6475268400001,55.117382252,0
                84.7533764990001,54.9484246850001,0
                84.9119421410001,54.890476049,0
                85.1286182270001,54.8396341050001,0
                85.297741365,54.790502512,0
                85.4034781350001,54.72721398,0
                85.546244222,54.621697345,0
                85.667859568,54.532008488,0
                85.757729048,54.484553378,0
                85.910977372,54.458299808,0
                86.0536531480001,54.4373184020001,0
                86.1593391170001,54.4215809360001,0
                86.2704270710001,54.2948966270001,0
                86.365681604,54.152345031,0
                86.4714635280001,54.0467888840001,0
                86.6090082520001,53.883148636,0
                86.7412017920001,53.7829041640001,0
                86.8522220130001,53.7196212760001,0
                86.9684861740001,53.693328196,0
                87.0423754760001,53.7673755430001,0
                87.0475008830001,53.915317837,0
                86.978657964,54.063181109,0
                86.856946662,54.242688646,0
                86.7986819370001,54.379996303,0
                86.6928266340001,54.5542373220001,0
                86.6874585150001,54.633483454,0
                86.5763479830001,54.78130157,0
                86.486303524,54.992543685,0
                86.3329592440001,55.1086159340001,0
                86.2007882820001,55.187726599,0
                86.0527218110001,55.3090879440001,0
                85.8888332050001,55.4040150980001,0
                85.7831190140001,55.4461698220001,0
                85.714383341,55.4936475100001,0
                85.7882444210001,55.5941121170001,0
                85.9467366850001,55.6048483540001,0
                86.1158579410001,55.557477911,0
                86.247972458,55.5312017640001,0
                86.3748656120001,55.4468020030001,0
                86.501741833,55.378252597,0
                86.6339127940001,55.2991419320001,0
                86.7396834300001,55.2041526900001,0
                86.8402101250001,55.0721736400001,0
                86.91958608,54.956022369,0
                86.9884685090001,54.771174935,0
                86.9991765250001,54.63909993,0
                87.0680758870001,54.438402141,0
                87.168619516,54.2905727360001,0
                87.3272416030001,54.1797895820001,0
                87.4752403420001,54.1218296590001,0
                87.5968556890001,54.0321408010001,0
                87.7765494930001,53.9794981950001,0
                87.935126424,53.910982656,0
                88.0145080240001,53.7895479320001,0
                87.9459303960001,53.689088971,0
                87.782273214,53.567394602,0
                87.644959913,53.514413328,0
                87.4918244780001,53.434997862,0
                87.4390633390001,53.3662565430001,0
                87.3018685710001,53.2023227820001,0
                87.164527047,53.175758768,0
                87.0007400430001,53.175583789,0
                86.8580473330001,53.212415551,0
                86.7575714380001,53.2968435340001,0
                86.6675721350001,53.465818035,0
                86.535288285,53.6505977350001,0
                86.4242398420001,53.7402978810001,0
                86.239228718,53.8246355530001,0
                86.0912074010001,53.9037292850001,0
                85.9061567670001,54.0250511190001,0
                85.763306012,54.2098195300001,0
                85.6786522500001,54.3206817060001,0
                85.4302397060001,54.4049516440001,0
                85.160653843,54.5261831670001,0
                84.933335593,54.6474598460001,0
                84.7853537880001,54.6895694140001,0
                84.626726057,54.8056360190001,0
                84.473470208,54.8389341910001,0
                84.3043997500001,54.8387535680001,0
                84.2463457520001,54.778812359,0
                84.283454093,54.6626159310001,0
                84.4526148610001,54.5782613260001,0
                84.6535102060001,54.4622398770001,0
                84.8649611660001,54.3567966200001,0
                85.023560676,54.2671472740001,0
                85.1451590890001,54.1933087720001,0
                85.245697073,54.0507628190001,0
                85.4148973530001,53.9294240510001,0
                85.5946814690001,53.7922462180001,0
                85.8061324290001,53.6868029600001,0
                85.975253686,53.639432518,0
                86.1232354910001,53.5973229480001,0
                86.2290399940001,53.4706329960001,0
                86.3665790740001,53.3122761990001,0
                86.345693624,53.0797817430001,0
                86.346021003,52.77334154,0
                86.309256975,52.56724741,0
                86.2459910210001,52.4403768340001,0
                86.2038475840001,52.3240957400001,0
                86.115748662,52.3627469780001,0
                85.9888705610001,52.4330575340001,0
                85.8620037470001,52.4928011870001,0
                85.7527522030001,52.5490413540001,0
                85.682234683,52.615889817,0
                85.6433764800001,52.721517459,0
                85.6643936360001,52.830731374,0
                85.6819261190001,52.904718513,0
                85.6394854070001,53.0666992120001,0
                85.5865116590001,53.1969679100001,0
                85.508900618,53.3095987620001,0
                85.367903207,53.4080726770001,0
                85.2198649570001,53.5030167630001,0
                85.085942253,53.573319794,0
                84.9062333970001,53.6400516040001,0
                84.768784628,53.7138731730001,0
                84.6630742,53.752505596,0
                84.5925679690001,53.8087871560001,0
                84.560765658,53.9038554210001,0
                84.560581271,54.0764481780001,0
                84.539304471,54.2102730450001,0
                84.4617461110001,54.273591681,0
                84.3489797920001,54.3227834830001,0
                84.1763456410001,54.3613444090001,0
                83.964973704,54.3928193410001,0
                83.7711831680001,54.452491497,0
                83.6618977570001,54.540432374,0
                83.5843205830001,54.621362516,0
                83.5102468950001,54.7199079270001,0
                83.4185504110001,54.829001426,0
                83.302156428,54.9768138970001,0
                83.2034228680001,55.0788552670001,0
                83.0941675610001,55.1386177360001,0
                82.9743453500001,55.1983689140001,0
                82.8298933710001,55.233437644,0
                82.586847064,55.240222601,0
                82.3860758970001,55.2400081110001,0
                82.1395035250001,55.250311605,0
                81.9140611980001,55.26415998,0
                81.783683373,55.3133329670001,0
                81.716661813,55.404841301,0
                81.71651882,55.5386887450001,0
                81.853786965,55.6339376330001,0
                82.072094378,55.7046169610001,0
                82.2833948200001,55.7400657520001,0
                82.4982439030001,55.7508621970001,0
                82.6672579150001,55.8038773380001,0
                82.8291746420001,55.90619717,0
                82.807950524,55.9907098200001,0
                82.709277173,56.036394371,0
                82.5824479890001,56.0609150130001,0
                82.4380374030001,56.05723843,0
                82.233770276,56.032364069,0
                82.029506912,56.0039674060001,0
                81.775923805,55.9825626640001,0
                81.4801031870001,55.9329343580001,0
                81.173729607,55.870245448,0
                80.9659138370001,55.870023432,0
                80.7404538060001,55.900443421,0
                80.483303242,55.921302531,0
                80.286050613,55.924614105,0
                80.0675964430001,55.9913045230001,0
                79.8879139270001,56.033380225,0
                79.6448713820001,56.036642881,0
                79.458185658,56.039965744,0
                79.2186955180001,56.0150537530001,0
                78.9862537430001,55.9866269870001,0
                78.774938251,55.9652674020001,0
                78.567145059,55.943911579,0
                78.3452363220001,55.9471968120001,0
                78.045844484,55.943354657,0
                77.7464413580001,55.950079406,0
                77.510432128,55.9639164920001,0
                77.2532778,55.988297903,0
                76.992559779,56.0514208640001,0
                76.7600250930001,56.1099637630001,0
                76.5275068970001,56.153070885,0
                76.3020645700001,56.1669192580001,0
                76.1470870810001,56.1632313860001,0
                76.051981186,56.166652087,0
                75.837143391,56.145288738,0
                75.6399058150001,56.134511108,0
                75.421550644,56.1085338300001,0
                75.13976655,56.1082327920001,0
                74.9495622860001,56.108029591,0
                74.6290328790001,56.1076871600001,0
                74.5621091570001,56.107615664,0
                74.385906387,56.1895283060001,0
                74.2238654810001,56.203444414,0
                74.009008872,56.1996925710001,0
                73.7941447360001,56.20298533,0
                73.49831283,56.163923927,0
                73.2411848450001,56.16364923,0
                72.9735162960001,56.1387071340001,0
                72.7410794470001,56.105670203,0
                72.526270595,56.0572163090001,0
                72.272740169,55.9864993510001,0
                72.036794908,55.940457316,0
                71.758566982,55.90845933,0
                71.501405129,55.9398853440001,0
                71.3182304160001,55.953778873,0
                71.135066991,55.9571054990001,0
                70.9800217690001,56.016819049,0
                70.7862274710001,56.0800135060001,0
                70.5995041150001,56.1185593810001,0
                70.345879616,56.135899952,0
                70.116866068,56.1955344790001,0
                69.9019229100001,56.272795563,0
                69.6482269140001,56.3570598570001,0
                69.4156647250001,56.441346728,0
                69.1126489860001,56.532602943,0
                68.8237487920001,56.5992181010001,0
                68.5877132200001,56.637711294,0
                68.35170399,56.6515483790001,0
                68.0839902850001,56.6688738980001,0
                67.735282468,56.6685013640001,0
                67.4957659870001,56.668245481,0
                67.2879878480001,56.6328004530001,0
                67.0661054510001,56.6114295790001,0
                66.847767934,56.56892866,0
                66.5836292130001,56.5369457260001,0
                66.3089424020001,56.487339997,0
                66.0870712940001,56.4554022180001,0
                65.921587109,56.3953462380001,0
                65.7631362380001,56.3458646880001,0
                65.541329101,56.254047789,0
                65.2948921970001,56.1375484420001,0
                65.044940518,56.014000729,0
                64.780910922,55.8798710610001,0
                64.4640430470001,55.7492072490001,0
                64.175357342,55.6150512400001,0
                63.9570235880001,55.5690280200001,0
                63.7562825250001,55.540635121,0
                63.5590449480001,55.52985749,0
                63.3723855630001,55.508524245,0
                63.154029231,55.4836348320001,0
                62.9567540240001,55.5080802140001,0
                62.7524304520001,55.5360403700001,0
                62.5128801050001,55.567485198,0
                62.231043329,55.616496376,0
                62.0231974550001,55.644452771,0
                61.8118857250001,55.6195708830001,0
                61.6639490760001,55.6194128380001,0
                61.540702401,55.5875804230001,0
                61.2941902370001,55.5415270990001,0
                61.0476592580001,55.513085281,0
                61.304395895,55.8796793010001,0
                61.5260299350001,56.1335220540001,0
                61.842687083,56.461434732,0
                62.1278805900001,56.5674085680001,0
                62.465919903,56.6628719460001,0
                62.7828141200001,56.76887965,0
                63.0786874190001,56.76919574,0
                63.5435634410001,56.833093875,0
                64.008416885,56.918125817,0
                64.4310140040001,56.9925456990001,0
                64.8113322200001,57.0774873290001,0
                65.0860039780001,57.1411822630001,0
                65.3606305810001,57.2471448110001,0
                65.6245661020001,57.469332008,0
                66.0471632210001,57.5437518900001,0
                66.5966422050001,57.5443389150001,0
                67.1461776340001,57.492091422,0
                67.5054410650001,57.5030421500001,0
                67.9493187470001,57.4401148640001,0
                68.3614392740001,57.4299882290001,0
                68.826383031,57.4304849420001,0
                69.2491269050001,57.3675350780001,0
                69.7141496840001,57.2940634670001,0
                70.1475169070001,57.1782903750001,0
                70.602006648,57.073106764,0
                71.109251885,57.0419479220001,0
                71.58481899,56.9896214070001,0
                71.9546267470001,57.021717229,0
                72.430137406,57.022225232,0
                72.8633240070001,57.075522596,0
                73.2331430520001,57.0970515160001,0
                73.6346628090001,57.1186143030001,0
                74.0255817950001,57.1718665110001,0
                74.353189672,57.140515758,0
                74.638597668,57.0457184270001,0
                74.9028605680001,56.9614654220001,0
                75.1988354680001,56.8666793800001,0
                75.5687448250001,56.803673072,0
                76.0126563740001,56.7090450750001,0
                76.466954204,56.783498825,0
                77.0903676460001,56.8158655830001,0
                77.5975677270001,56.8269743550001,0
                77.9991439280001,56.795702625,0
                78.1788038660001,56.774760729,0
                78.4112305880001,56.8172767,0
                78.6965482730001,56.8070145980001,0
                79.0876027260001,56.7334639640001,0
                79.3833970030001,56.807748379,0
                79.6687259760001,56.786919373,0
                80.1126036590001,56.723992088,0
                80.3979213430001,56.713729985,0
                80.6938397980001,56.671778461,0
                81.0953595550001,56.6933412480001,0
                81.708081915,56.841932656,0
                82.141212071,56.948064538,0
                82.584852685,57.107042226,0
                82.9861466630001,57.339943084,0
                83.3769753380001,57.4777305200001,0
                83.7572935540001,57.5626721500001,0
                84.0953328670001,57.6581355280001,0
                84.4651067570001,57.7219320630001,0
                84.771546959,57.7222594420001,0
                85.1202999320001,57.680364362,0
              </coordinates>
            </LinearRing>
          </outerBoundaryIs>
        </Polygon>
      </Placemark>
    </Document>
  </Document>
</kml>
