<?xml version="1.0" encoding="UTF-8"?>
<kml xmlns="http://www.opengis.net/kml/2.2">
  <Document id="root_doc">
    <Schema id="Bioregions_PA36.schema">
      <SimpleField name="OBJECTID" type="float"/>
      <SimpleField name="Shape_Leng" type="float"/>
      <SimpleField name="Shape_Area" type="float"/>
      <SimpleField name="Bioregions" type="string"/>
    </Schema>
    <Document id="Bioregions_PA36">
      <name>Bioregions_PA36</name>
      <Placemark id="Bioregions_PA36.1">
        <ExtendedData>
          <SchemaData schemaUrl="#Bioregions_PA36.schema">
            <SimpleData name="OBJECTID">164</SimpleData>
            <SimpleData name="Shape_Leng">108.23872458100</SimpleData>
            <SimpleData name="Shape_Area">85.09212279110</SimpleData>
            <SimpleData name="Bioregions">PA36</SimpleData>
          </SchemaData>
        </ExtendedData>
        <Polygon>
          <outerBoundaryIs>
            <LinearRing>
              <coordinates>
                94.921757724,57.0779544470001,0
                95.00636633,57.009359885,0
                95.0539794860001,56.9512927170001,0
                95.085742285,56.8932086140001,0
                95.1544892470001,56.8351640230001,0
                95.2285196610001,56.7771250750001,0
                95.3447838230001,56.7508319950001,0
                95.4451468280001,56.772073047,0
                95.5084918050001,56.824975298,0
                95.508418427,56.8936601710001,0
                95.5452784110001,57.0099356210001,0
                95.6139181280001,57.0522766130001,0
                95.7459762000001,57.0788349840001,0
                95.8463617840001,57.0789422290001,0
                95.9573481370001,57.047360052,0
                96.015528196,56.9893041720001,0
                96.0684981810001,56.862557774,0
                96.0685828490001,56.7833059980001,0
                96.1161903590001,56.7305222800001,0
                96.285277749,56.7148525480001,0
                96.380402459,56.693820341,0
                96.449132488,56.651626105,0
                96.4492453770001,56.5459570690001,0
                96.3331279720001,56.4348804040001,0
                96.2011376340001,56.3449206130001,0
                96.1483990710001,56.2550454880001,0
                96.1802013830001,56.1599772230001,0
                96.238398374,56.086070987,0
                96.2174056800001,55.9539621150001,0
                96.1171386300001,55.8429023830001,0
                96.1384248370001,55.700271763,0
                96.122687371,55.5945857940001,0
                96.1122051350001,55.515322729,0
                95.9907817010001,55.425374226,0
                95.9221024720001,55.420017396,0
                95.7794323400001,55.4357153500001,0
                95.599710314,55.514775215,0
                95.430589056,55.5621456580001,0
                95.2932193110001,55.561998902,0
                95.0766090770001,55.5512005750001,0
                94.8388593910001,55.5456631230001,0
                94.638054357,55.577149343,0
                94.4266937090001,55.598057371,0
                94.1888706460001,55.661204791,0
                93.956314101,55.740208211,0
                93.7818981030001,55.7981399130001,0
                93.6550162380001,55.8719727710001,0
                93.4541096040001,55.998561124,0
                93.2796540950001,56.0934769880001,0
                93.152817385,56.1250422320001,0
                92.978457833,56.130139415,0
                92.8093930200001,56.1246753410001,0
                92.6509289780001,56.087521844,0
                92.5136156770001,56.034540571,0
                92.3182239180001,55.9445130450001,0
                92.3289150000001,55.8282883950001,0
                92.265643401,55.706701271,0
                92.197009328,55.659076826,0
                92.149559863,55.563923894,0
                92.0597919830001,55.516276873,0
                91.9964187840001,55.48979188,0
                91.9489298070001,55.43162311,0
                91.8591845050001,55.362842281,0
                91.8117011730001,55.2993900600001,0
                91.8593369060001,55.220189083,0
                91.970328904,55.183323455,0
                92.1499888420001,55.16238156,0
                92.308571418,55.088582569,0
                92.3879925290001,54.930163683,0
                92.499001461,54.8774476990001,0
                92.5783153260001,54.8194143970001,0
                92.6893524800001,54.740281155,0
                92.7686889240001,54.661114045,0
                92.8480592340001,54.550246224,0
                92.8746345390001,54.4023377980001,0
                92.9381601380001,54.2861695920001,0
                93.012235708,54.1858630310001,0
                93.007132879,54.0167869300001,0
                92.996681687,53.9084648800001,0
                93.028458598,53.837172148,0
                93.0602665540001,53.7368204310001,0
                93.0286561550001,53.6522513360001,0
                92.9441886600001,53.588759603,0
                92.8650384840001,53.4935728040001,0
                92.9179746020001,53.3985271170001,0
                92.976177238,53.319337429,0
                92.9604567060001,53.1978011050001,0
                93.045048379,53.1450568990001,0
                93.2088297390001,53.1505153300001,0
                93.3619990400001,53.198230085,0
                93.520372771,53.3199188090001,0
                93.6523687530001,53.40459515,0
                93.8267113730001,53.4153483210001,0
                93.974608511,53.452490529,0
                94.1066496490001,53.4948992540001,0
                94.206944922,53.579541727,0
                94.349423141,53.743481133,0
                94.566005153,53.7806967180001,0
                94.7139022900001,53.8178389270001,0
                94.9040444650001,53.876160096,0
                95.0730528330001,53.9344586890001,0
                95.1732916600001,54.0719356800001,0
                95.252407969,54.1988231890001,0
                95.2258044430001,54.373148875,0
                95.1727328570001,54.5949974050001,0
                95.315374766,54.605716709,0
                95.4157659940001,54.6005405020001,0
                95.521457608,54.5795195850001,0
                95.685227679,54.595544918,0
                95.880670239,54.6380213780001,0
                96.0602116430001,54.7280319700001,0
                96.150007745,54.7492617330001,0
                96.3137721720001,54.770570519,0
                96.5092316660001,54.797196623,0
                96.6835799290001,54.8026663430001,0
                96.8948728440001,54.845159736,0
                97.0691872410001,54.882330166,0
                97.1589494770001,54.935260639,0
                97.285605564,55.072765852,0
                97.4017060350001,55.1996928730001,0
                97.5337584630001,55.231534696,0
                97.6869954970001,55.2158480300001,0
                97.8824888570001,55.210773423,0
                98.04634924,55.142263529,0
                98.2049148820001,55.0843148930001,0
                98.3423862290001,54.9893595170001,0
                98.4164448650001,54.904903312,0
                98.4851918270001,54.8468587200001,0
                98.569823011,54.757130352,0
                98.6457105320001,54.609274606,0
                98.7022705510001,54.4191305510001,0
                98.7869939300001,54.243105803,0
                98.8998355080001,54.1234679780001,0
                99.054869442,54.0743213330001,0
                99.2662300910001,54.0534133040001,0
                99.4775756870001,54.0465944810001,0
                99.61855052,53.9692543740001,0
                99.8017675670001,53.9157349560001,0
                100.07658514,53.8429407190001,0
                100.302065098,53.793869333,0
                100.506441352,53.7165969590001,0
                100.696705823,53.6604433420001,0
                100.851792439,53.56198448,0
                100.971663568,53.456443386,0
                101.084475043,53.36498397,0
                101.211353145,53.294673414,0
                101.281949688,53.153856627,0
                101.458230318,52.9990635240001,0
                101.73312033,52.858464989,0
                102.000913057,52.767171144,0
                102.205304362,52.6758095660001,0
                102.430867106,52.5492475550001,0
                102.67057926,52.3663437760001,0
                102.882113007,52.183409893,0
                103.065235038,52.21882858,0
                103.227238314,52.2401354840001,0
                103.413999299,52.1663665980001,0
                103.705966474,52.5259536450001,0
                103.614330198,52.5786903250001,0
                103.515638031,52.6419863830001,0
                103.318291328,52.733355487,0
                103.170350915,52.736719743,0
                103.096360012,52.757774527,0
                103.071598541,52.8563726190001,0
                103.075038057,52.933867008,0
                103.071399103,53.0430545820001,0
                102.902253387,53.1133199830001,0
                102.690840056,53.183540227,0
                102.648474605,53.275074902,0
                102.732899766,53.378192524,0
                102.782081218,53.500645171,0
                102.690335817,53.6555285860001,0
                102.549368511,53.7258240900001,0
                102.295740248,53.7466869630001,0
                102.091363993,53.823959336,0
                102.063110324,53.8943752550001,0
                102.04894586,53.9648062270001,0
                102.112223102,54.081109901,0
                102.073610539,54.1901408950001,0
                102.013489543,54.1831512700001,0
                101.907812982,54.1900829840001,0
                101.738704896,54.225125372,0
                101.520194282,54.344650308,0
                101.358085642,54.4219678370001,0
                101.17463119,54.4724039060001,0
                100.948496903,54.5345736950001,0
                100.783781215,54.579858024,0
                100.554760142,54.6465371530001,0
                100.378614979,54.6745274130001,0
                100.195455318,54.6743317390001,0
                99.9981688220001,54.709344023,0
                99.885349821,54.8078480410001,0
                99.69501009,54.934447683,0
                99.5470132330001,54.990646456,0
                99.4906564140001,54.9905862480001,0
                99.342678371,55.0291735170001,0
                99.2052898100001,55.046638267,0
                99.138332221,55.0782674800001,0
                99.106548725,55.1557242390001,0
                99.1311408620001,55.2156297000001,0
                99.205067795,55.254454036,0
                99.3283219950001,55.2792418490001,0
                99.4881597410001,55.2559107230001,0
                99.655997605,55.1844896740001,0
                99.804001988,55.1212462980001,0
                99.9378494330001,55.1213892910001,0
                100.075219179,55.1215360470001,0
                100.212585163,55.125205104,0
                100.346432607,55.1253480980001,0
                100.508443409,55.139610399,0
                100.575321976,55.18194951,0
                100.698613806,55.1715143110001,0
                100.762113065,55.080002214,0
                100.748087831,55.0201080420001,0
                100.663593995,54.9812724180001,0
                100.447959872,54.947502596,0
                100.518411685,54.8216773090001,0
                100.684987448,54.738256214,0
                101.017539853,54.6447471270001,0
                101.103920748,54.6225536860001,0
                101.378879371,54.546614608,0
                101.562248259,54.544667098,0
                101.865018551,54.6831599930001,0
                102.062289995,54.6622369130001,0
                102.203317509,54.53558459,0
                102.302084936,54.4018425080001,0
                102.178894706,54.3171755760001,0
                102.239786227,54.165417124,0
                102.344608433,54.1623711840001,0
                102.443255443,54.14134274,0
                102.689786422,54.1697845580001,0
                102.767201789,54.2403133670001,0
                102.858646152,54.3672140470001,0
                102.985343631,54.4659739470001,0
                103.12618676,54.511914382,0
                103.245993918,54.4662524080001,0
                103.401163319,54.29030292,0
                103.542130626,54.2200074150001,0
                103.668903364,54.2483212920001,0
                103.83105716,54.1287361490001,0
                104.042485543,54.0444267,0
                104.197542054,53.9741462470001,0
                104.38536815,53.925034634,0
                104.410084466,53.868704156,0
                104.399604111,53.78767994,0
                104.155530322,53.7345846110001,0
                104.000609278,53.6780622210001,0
                103.894977873,53.6427263200001,0
                103.82679124,53.505988029,0
                103.930419137,53.4384704810001,0
                104.085392863,53.445680655,0
                104.261507922,53.445868804,0
                104.585544579,53.460304202,0
                104.923685492,53.460665448,0
                105.057540463,53.453763839,0
                105.092940335,53.288253313,0
                105.205710417,53.235539212,0
                105.304349902,53.22155537,0
                105.367834108,53.1441324780001,0
                105.311612757,53.017269427,0
                105.191899673,52.974873872,0
                105.008755064,52.9605889920001,0
                104.755262268,52.854649023,0
                104.515873729,52.7346349000001,0
                104.36099784,52.635844896,0
                104.107459889,52.5721725400001,0
                103.846914965,52.4732696460001,0
                103.502181007,52.0502247330001,0
                103.361371745,51.9725835880001,0
                103.234651689,51.894957495,0
                103.171333053,51.8173991350001,0
                103.150312135,51.7117075210001,0
                103.305368646,51.641427069,0
                103.502609986,51.6486823980001,0
                103.685732018,51.6841010850001,0
                103.847750346,51.691318784,0
                104.059141099,51.6422323460001,0
                104.340962824,51.6073103730001,0
                104.629761416,51.6357973470001,0
                104.911462725,51.7135890110001,0
                105.066421399,51.73488839,0
                105.327034057,51.7703898620001,0
                105.5453791,51.8058461780001,0
                105.756672015,51.8483395710001,0
                105.953823044,51.9401301280001,0
                106.108631199,52.1023215540001,0
                106.164882654,52.201006195,0
                106.221126583,52.306735438,0
                106.220953486,52.4687612920001,0
                106.368814876,52.5393653610001,0
                106.537862755,52.560679791,0
                106.636554921,52.497383733,0
                106.573424435,52.2437103140001,0
                106.468056438,51.96181333,0
                106.390641072,51.891284521,0
                106.179461046,51.7431220930001,0
                105.918931174,51.6301299950001,0
                105.623170764,51.5241448690001,0
                105.285218,51.3476685640001,0
                104.98239041,51.2628097190001,0
                104.630220499,51.206076603,0
                104.306251576,51.128239783,0
                104.003386357,51.0786039500001,0
                103.785109047,50.9797462120001,0
                103.595010147,50.8809185790001,0
                103.630353574,50.768242571,0
                103.771302066,50.7155585720001,0
                103.975595535,50.715776825,0
                104.222190483,50.6843395230001,0
                104.377171735,50.684505093,0
                104.574420602,50.6847158210001,0
                104.736446456,50.6848889180001,0
                104.898517466,50.6427944000001,0
                105.011298837,50.579513395,0
                105.102953928,50.5091652090001,0
                105.074873355,50.4175552740001,0
                104.927094751,50.2694605790001,0
                104.77224144,50.1495367680001,0
                104.624470362,49.9943974710001,0
                104.518914217,49.888615546,0
                104.385111927,49.8462049390001,0
                104.251309638,49.8037943320001,0
                104.166721728,49.8530162370001,0
                104.061105374,49.8035911310001,0
                103.948391736,49.8034707150001,0
                103.807499689,49.8033201960001,0
                103.722911779,49.852542101,0
                103.72276126,49.9934341490001,0
                103.581771375,50.0848634600001,0
                103.35623121,50.190291664,0
                103.102565318,50.246377549,0
                102.947584066,50.2462119780001,0
                102.771491585,50.2248900210001,0
                102.574333031,50.1401440670001,0
                102.503887007,50.140068807,0
                102.320719819,50.1469177340001,0
                102.102314568,50.1678182370001,0
                101.848671253,50.2027703140001,0
                101.679563167,50.237812703,0
                101.418927932,50.2234450380001,0
                101.228723668,50.223241837,0
                100.932850369,50.222925747,0
                100.679237158,50.229699414,0
                100.369259602,50.243457477,0
                100.009962304,50.2642074600001,0
                99.7281180020001,50.32026324,0
                99.5308315060001,50.3552755260001,0
                99.2842102160001,50.411368936,0
                98.8402949040001,50.509519234,0
                98.502071205,50.5866486130001,0
                98.2766288770001,50.600496988,0
                98.1286696500001,50.6214727500001,0
                97.966734107,50.5367644250001,0
                97.8682075120001,50.44507923,0
                97.6570575900001,50.268738392,0
                97.5022795390001,50.0783685580001,0
                97.3897239460001,49.930311492,0
                97.248831899,49.930160974,0
                97.1359903200001,50.049798798,0
                97.0443352290001,50.1201469850001,0
                96.7907144930001,50.1339652550001,0
                96.6286886380001,50.1337921580001,0
                96.431432246,50.140626033,0
                96.2200791240001,50.154489459,0
                96.0861488930001,50.231837092,0
                95.9802691310001,50.4289730680001,0
                95.775855247,50.541468454,0
                95.529233957,50.5975618640001,0
                95.3318947800001,50.6818863660001,0
                95.1767630080001,50.8226128420001,0
                95.0005275340001,50.93513833,0
                94.6412377620001,50.9488437110001,0
                94.3594160370001,50.983765685,0
                94.0494159040001,51.0186575540001,0
                93.697087948,51.1098610870001,0
                93.358796516,51.2503918880001,0
                93.0346996520001,51.2923133080001,0
                92.7106554690001,51.284922512,0
                92.4077300420001,51.291643498,0
                92.055567657,51.2278657790001,0
                91.766934635,51.0443975530001,0
                91.485255904,50.945472082,0
                91.182420789,50.86765784,0
                90.9288151040001,50.867386905,0
                90.696365803,50.8460047410001,0
                90.5484893620001,50.7894898770001,0
                90.2737498700001,50.7891963640001,0
                90.0764709000001,50.8171640470001,0
                89.921534804,50.7747308620001,0
                89.9709373320001,50.6902483150001,0
                89.9851319000001,50.5916389340001,0
                89.9076939560001,50.5422439330001,0
                89.7526750740001,50.5773013730001,0
                89.6188727850001,50.5348907650001,0
                89.6472017130001,50.3940288220001,0
                89.844555943,50.2956151160001,0
                89.9362035070001,50.232311533,0
                90.027888702,50.133784936,0
                90.1124916630001,50.0704738270001,0
                90.126648602,50.0070874580001,0
                90.1338663010001,49.8450691290001,0
                90.1341071320001,49.6196418530001,0
                90.0636611080001,49.619566595,0
                89.90859707,49.6968916500001,0
                89.6971987920001,49.753022689,0
                89.6407140320001,49.8727207220001,0
                89.5911910880001,50.0699169060001,0
                89.414880355,50.252888419,0
                89.266868446,50.3231763970001,0
                89.1259086640001,50.386427299,0
                88.844071888,50.435438477,0
                88.7172389420001,50.4634814190001,0
                88.5762716350001,50.5337769230001,0
                88.491668674,50.5970880340001,0
                88.2239361540001,50.6320250590001,0
                87.984412148,50.638813779,0
                87.7272201910001,50.698418201,0
                87.649586572,50.83218286,0
                87.5966429270001,50.9342731500001,0
                87.554281239,51.022285524,0
                87.4907405880001,51.1525429340001,0
                87.490661565,51.2265112590001,0
                87.321515849,51.296776659,0
                87.1770450560001,51.3494568950001,0
                87.0395962870001,51.4232784640001,0
                86.958575834,51.430236517,0
                86.7683715700001,51.430033316,0
                86.5711302300001,51.4227779870001,0
                86.3457180070001,51.4084479520001,0
                86.2187383040001,51.573860639,0
                86.1376501170001,51.6442201150001,0
                86.0353566270001,51.7814807340001,0
                85.894276431,51.9574452750001,0
                86.063241524,52.0562503310001,0
                86.1794172560001,52.1127313270001,0
                86.344867573,52.2044880180001,0
                86.2778685910001,52.2748625460001,0
                86.2038475840001,52.3240957400001,0
                86.2459910210001,52.4403768340001,0
                86.309256975,52.56724741,0
                86.346021003,52.77334154,0
                86.345693624,53.0797817430001,0
                86.3665790740001,53.3122761990001,0
                86.2290399940001,53.4706329960001,0
                86.1232354910001,53.5973229480001,0
                85.975253686,53.639432518,0
                85.8061324290001,53.6868029600001,0
                85.5946814690001,53.7922462180001,0
                85.4148973530001,53.9294240510001,0
                85.245697073,54.0507628190001,0
                85.1451590890001,54.1933087720001,0
                85.023560676,54.2671472740001,0
                84.8649611660001,54.3567966200001,0
                84.6535102060001,54.4622398770001,0
                84.4526148610001,54.5782613260001,0
                84.283454093,54.6626159310001,0
                84.2463457520001,54.778812359,0
                84.3043997500001,54.8387535680001,0
                84.473470208,54.8389341910001,0
                84.626726057,54.8056360190001,0
                84.7853537880001,54.6895694140001,0
                84.933335593,54.6474598460001,0
                85.160653843,54.5261831670001,0
                85.4302397060001,54.4049516440001,0
                85.6786522500001,54.3206817060001,0
                85.763306012,54.2098195300001,0
                85.9061567670001,54.0250511190001,0
                86.0912074010001,53.9037292850001,0
                86.239228718,53.8246355530001,0
                86.4242398420001,53.7402978810001,0
                86.535288285,53.6505977350001,0
                86.6675721350001,53.465818035,0
                86.7575714380001,53.2968435340001,0
                86.8580473330001,53.212415551,0
                87.0007400430001,53.175583789,0
                87.164527047,53.175758768,0
                87.3018685710001,53.2023227820001,0
                87.4390633390001,53.3662565430001,0
                87.4918244780001,53.434997862,0
                87.644959913,53.514413328,0
                87.782273214,53.567394602,0
                87.9459303960001,53.689088971,0
                88.0145080240001,53.7895479320001,0
                87.935126424,53.910982656,0
                87.7765494930001,53.9794981950001,0
                87.5968556890001,54.0321408010001,0
                87.4752403420001,54.1218296590001,0
                87.3272416030001,54.1797895820001,0
                87.168619516,54.2905727360001,0
                87.0680758870001,54.438402141,0
                86.9991765250001,54.63909993,0
                86.9884685090001,54.771174935,0
                86.91958608,54.956022369,0
                86.8402101250001,55.0721736400001,0
                86.7396834300001,55.2041526900001,0
                86.6339127940001,55.2991419320001,0
                86.501741833,55.378252597,0
                86.3748656120001,55.4468020030001,0
                86.247972458,55.5312017640001,0
                86.1158579410001,55.557477911,0
                85.9467366850001,55.6048483540001,0
                85.7882444210001,55.5941121170001,0
                85.714383341,55.4936475100001,0
                85.7831190140001,55.4461698220001,0
                85.8888332050001,55.4040150980001,0
                86.0527218110001,55.3090879440001,0
                86.2007882820001,55.187726599,0
                86.3329592440001,55.1086159340001,0
                86.486303524,54.992543685,0
                86.5763479830001,54.78130157,0
                86.6874585150001,54.633483454,0
                86.6928266340001,54.5542373220001,0
                86.7986819370001,54.379996303,0
                86.856946662,54.242688646,0
                86.978657964,54.063181109,0
                87.0475008830001,53.915317837,0
                87.0423754760001,53.7673755430001,0
                86.9684861740001,53.693328196,0
                86.8522220130001,53.7196212760001,0
                86.7412017920001,53.7829041640001,0
                86.6090082520001,53.883148636,0
                86.4714635280001,54.0467888840001,0
                86.365681604,54.152345031,0
                86.2704270710001,54.2948966270001,0
                86.1593391170001,54.4215809360001,0
                86.0536531480001,54.4373184020001,0
                85.910977372,54.458299808,0
                85.757729048,54.484553378,0
                85.667859568,54.532008488,0
                85.546244222,54.621697345,0
                85.4034781350001,54.72721398,0
                85.297741365,54.790502512,0
                85.1286182270001,54.8396341050001,0
                84.9119421410001,54.890476049,0
                84.7533764990001,54.9484246850001,0
                84.6475268400001,55.117382252,0
                84.5418182940001,55.1542535250001,0
                84.388575615,55.175223642,0
                84.2194543580001,55.2225940850001,0
                84.0819999440001,55.3016991060001,0
                83.9920965970001,55.380854927,0
                83.8757251910001,55.50753359,0
                83.8650510430001,55.607907885,0
                83.886060672,55.724166402,0
                84.0021667870001,55.8458099700001,0
                84.1710792000001,55.993927243,0
                84.1603824730001,56.115435345,0
                84.21837062,56.2370168250001,0
                84.2975377290001,56.3163532680001,0
                84.403133386,56.3851510310001,0
                84.5193128810001,56.438109727,0
                84.5614280940001,56.5808080800001,0
                84.6670519730001,56.623188584,0
                84.820226919,56.665619888,0
                84.989286087,56.6763674150001,0
                85.1688782910001,56.71882694,0
                85.263957846,56.740062348,0
                85.3590148220001,56.782431563,0
                85.5174675740001,56.8301519620001,0
                85.6389474540001,56.8672659480001,0
                85.8186977030001,56.7617888240001,0
                85.9984592420001,56.6457447980001,0
                86.1676200100001,56.561390192,0
                86.4213047170001,56.487692802,0
                86.674944269,56.456263026,0
                87.0236972420001,56.4143679470001,0
                87.3301713110001,56.382994615,0
                87.689491187,56.341110825,0
                88.0381764260001,56.3626171670001,0
                88.1966235350001,56.4156210190001,0
                88.3760915610001,56.5743164830001,0
                88.5768062830001,56.6273654920001,0
                88.7775435840001,56.659280692,0
                88.957113211,56.7228740240001,0
                89.1578730890001,56.7336554180001,0
                89.3904127000001,56.6705023540001,0
                89.601818505,56.607326711,0
                89.80271385,56.4913052620001,0
                89.9614206040001,56.3012703320001,0
                90.003913997,56.0899774170001,0
                90.1413966330001,55.984455138,0
                90.3739588220001,55.900168267,0
                90.627575796,55.8898722970001,0
                90.807168001,55.9323318240001,0
                91.092440529,55.964337335,0
                91.229810275,55.964484091,0
                91.43060402,55.943564774,0
                91.6313977660001,55.922645457,0
                91.832123777,55.965127561,0
                91.9376460560001,56.1026101960001,0
                91.8741091680001,56.229345305,0
                91.9691379220001,56.2981317790001,0
                92.0377437720001,56.3721734820001,0
                92.1010379480001,56.4726267980001,0
                92.2172456650001,56.4991682360001,0
                92.3598649960001,56.531021347,0
                92.4708118390001,56.5364233330001,0
                92.650404043,56.578882859,0
                92.7824451810001,56.6212915850001,0
                92.9038799050001,56.700673184,0
                92.9777409850001,56.801137791,0
                93.0779741680001,56.9438982340001,0
                93.1571243440001,57.0390850320001,0
                93.246892223,57.086732054,0
                93.36309994,57.113273491,0
                93.468768976,57.1133863800001,0
                93.6219890770001,57.11355007,0
                93.7382532390001,57.0872569900001,0
                93.817600971,56.997522976,0
                93.8388758900001,56.8654592600001,0
                93.839022646,56.728089514,0
                93.8391524690001,56.606570123,0
                93.9132280380001,56.5062635630001,0
                94.029543,56.4324194160001,0
                94.1511188360001,56.379714721,0
                94.3571790990001,56.3746514040001,0
                94.499860519,56.348386545,0
                94.6583245610001,56.3855400420001,0
                94.7216413150001,56.4648595520001,0
                94.7214832700001,56.612796202,0
                94.7212970020001,56.78715011,0
                94.684199951,56.8927796340001,0
                94.6840475500001,57.035432832,0
                94.720947046,57.1147241200001,0
                94.8107657250001,57.1148200760001,0
                94.921757724,57.0779544470001,0
              </coordinates>
            </LinearRing>
          </outerBoundaryIs>
        </Polygon>
      </Placemark>
    </Document>
  </Document>
</kml>
