<?xml version="1.0" encoding="UTF-8"?>
<kml xmlns="http://www.opengis.net/kml/2.2">
  <Document id="root_doc">
    <Schema id="Bioregions_PA37.schema">
      <SimpleField name="OBJECTID" type="float"/>
      <SimpleField name="Shape_Leng" type="float"/>
      <SimpleField name="Shape_Area" type="float"/>
      <SimpleField name="Bioregions" type="string"/>
    </Schema>
    <Document id="Bioregions_PA37">
      <name>Bioregions_PA37</name>
      <Placemark id="Bioregions_PA37.1">
        <ExtendedData>
          <SchemaData schemaUrl="#Bioregions_PA37.schema">
            <SimpleData name="OBJECTID">155</SimpleData>
            <SimpleData name="Shape_Leng">85.42465339480</SimpleData>
            <SimpleData name="Shape_Area">46.59146703250</SimpleData>
            <SimpleData name="Bioregions">PA37</SimpleData>
          </SchemaData>
        </ExtendedData>
        <Polygon>
          <outerBoundaryIs>
            <LinearRing>
              <coordinates>
                85.098390646,51.812180492,0
                85.2710473750001,51.7524857590001,0
                85.394399413,51.6856937410001,0
                85.5072297030001,51.5766228190001,0
                85.6623614740001,51.4358963430001,0
                85.7823718330001,51.2000301050001,0
                85.8494310240001,51.0732987590001,0
                85.9481909240001,50.94660128,0
                86.1562287090001,50.7390075270001,0
                86.3008123910001,50.5806582550001,0
                86.431205269,50.5173960650001,0
                86.533464892,50.411836156,0
                86.663902926,50.3063063500001,0
                86.8259965140001,50.2430780270001,0
                86.9563517600001,50.2150388470001,0
                87.0726065140001,50.19755152,0
                87.1429735150001,50.271595104,0
                87.0865150960001,50.3666370280001,0
                87.0687944640001,50.4687649470001,0
                87.1215349070001,50.5568789210001,0
                87.220038925,50.6696979230001,0
                87.297480632,50.7155706240001,0
                87.364404355,50.71564212,0
                87.4841814100001,50.6981585560001,0
                87.6215549190001,50.694783011,0
                87.7272201910001,50.698418201,0
                87.984412148,50.638813779,0
                88.2239361540001,50.6320250590001,0
                88.491668674,50.5970880340001,0
                88.5762716350001,50.5337769230001,0
                88.7172389420001,50.4634814190001,0
                88.844071888,50.435438477,0
                89.1259086640001,50.386427299,0
                89.266868446,50.3231763970001,0
                89.414880355,50.252888419,0
                89.5911910880001,50.0699169060001,0
                89.6407140320001,49.8727207220001,0
                89.6971987920001,49.753022689,0
                89.90859707,49.6968916500001,0
                90.0636611080001,49.619566595,0
                90.0822736040001,49.5068727120001,0
                90.137803471,49.456739187,0
                90.240943669,49.3511802190001,0
                90.3096934540001,49.290493902,0
                90.4233046000001,49.2747649020001,0
                90.5368959910001,49.2775279850001,0
                90.6266977380001,49.2934742960001,0
                90.740269373,49.314729458,0
                90.8459130090001,49.3386178810001,0
                90.925164785,49.3387025490001,0
                91.051990205,49.3177042080001,0
                91.1522064550001,49.476315007,0
                91.125735573,49.526479576,0
                91.099242114,49.5977779520001,0
                91.0806681880001,49.6743682480001,0
                91.088514343,49.7483450390001,0
                91.1174830160001,49.8329113120001,0
                91.096287121,49.8910067030001,0
                91.0275570920001,49.9332009390001,0
                90.9641189810001,49.9674756420001,0
                90.905953034,50.0123228940001,0
                90.8134277170001,50.072983811,0
                90.7790006130001,50.1521988980001,0
                90.75514888,50.2235000970001,0
                90.78674799,50.318636095,0
                90.855342551,50.4032447020001,0
                90.902825884,50.4666969240001,0
                90.9820212160001,50.519616108,0
                91.061233481,50.556684938,0
                91.1695273080001,50.5726510050001,0
                91.2778380700001,50.572766716,0
                91.3755988610001,50.557020783,0
                91.4944793480001,50.5545060580001,0
                91.602801399,50.5440548660001,0
                91.713821619,50.4807719780001,0
                91.7508735150001,50.417410069,0
                91.7668311150001,50.317041418,0
                91.8039112340001,50.2272622500001,0
                91.838343981,50.1427637100001,0
                91.864857197,50.0529732530001,0
                91.9072151220001,49.9684831800001,0
                91.9496182030001,49.8417254940001,0
                91.947086545,49.7386953610001,0
                91.9392742570001,49.6330178600001,0
                91.923517035,49.5458239720001,0
                91.8945257840001,49.4823915060001,0
                91.8496587770001,49.4427176400001,0
                91.7783773340001,49.400373825,0
                91.7123680540001,49.3686025590001,0
                91.670162529,49.3104394330001,0
                91.575077331,49.2944874780001,0
                91.5010751390001,49.326109166,0
                91.4349840130001,49.3709479500001,0
                91.3266704310001,49.373473964,0
                91.263271832,49.3707645050001,0
                91.1656916630001,49.217439981,0
                91.2688233950001,49.1198061900001,0
                91.3428989650001,49.01949963,0
                91.3984147200001,48.9825747340001,0
                91.4407924010001,48.8795925800001,0
                91.456738713,48.789790834,0
                91.4489094910001,48.699963686,0
                91.4304823210001,48.6391842360001,0
                91.3724264410001,48.5810041770001,0
                91.290595028,48.522798718,0
                91.1981713110001,48.4883575040001,0
                91.1400928520001,48.451311252,0
                91.119021134,48.3931707040001,0
                91.161348016,48.3377396170001,0
                91.2142418000001,48.2823198180001,0
                91.2697886000001,48.216335938,0
                91.309485044,48.150335124,0
                91.3624380950001,48.0394390820001,0
                91.462877301,47.9893535350001,0
                91.5316242640001,47.931308943,0
                91.605629277,47.8970455290001,0
                91.72986095,47.8311350270001,0
                91.8329305920001,47.7916192060001,0
                91.9307337170001,47.7362473860001,0
                91.999483502,47.675561068,0
                92.039188413,47.601635077,0
                92.0498484500001,47.5144694110001,0
                92.0393775030001,47.424639443,0
                92.065851206,47.3718331470001,0
                92.126650413,47.334913896,0
                92.213864056,47.3006645940001,0
                92.3010918100001,47.253206661,0
                92.3803548750001,47.2427244240001,0
                92.456936704,47.269223529,0
                92.5414380660001,47.30101455,0
                92.6153809900001,47.3248691060001,0
                92.7025720560001,47.31175361,0
                92.80297175,47.2986522260001,0
                92.918966256,47.249588594,0
                92.9454104590001,47.4995757940001,0
                92.842292838,47.5840009550001,0
                92.6995323950001,47.6842341380001,0
                92.580572885,47.7607171880001,0
                92.522392826,47.818773068,0
                92.456205745,47.9534305330001,0
                92.408527679,48.072257397,0
                92.3846307900001,48.1858262100001,0
                92.4083244780001,48.262461661,0
                92.4505356480001,48.315341334,0
                92.5429508970001,48.357707727,0
                92.5957854160001,48.357764172,0
                92.661870896,48.3182088390001,0
                92.690986325,48.265405366,0
                92.701620962,48.2020152330001,0
                92.7201779550001,48.1412752940001,0
                92.759848999,48.0990500130001,0
                92.8153732200001,48.05419994,0
                92.8841201830001,47.9961553480001,0
                92.966078597,47.9354831420001,0
                93.0401090110001,47.8774441950001,0
                93.106194492,47.837888863,0
                93.1537991800001,47.7877468720001,0
                93.217254224,47.737621813,0
                93.2490283120001,47.668970808,0
                93.275530238,47.589747253,0
                93.2756657050001,47.46294441,0
                93.275727794,47.4048264410001,0
                93.233482758,47.383647479,0
                93.156867063,47.3888490850001,0
                93.0855037750001,47.4231153210001,0
                93.03736868,47.1856948980001,0
                93.1095925770001,47.1299091480001,0
                93.162446849,47.111473511,0
                93.281383782,47.0561242690001,0
                93.2999351290001,47.0006677800001,0
                93.2815023150001,46.945171782,0
                93.2392431680001,46.9372014480001,0
                93.1731943760001,46.942414344,0
                93.1124149250001,46.960841514,0
                93.0621995560001,46.9819216980001,0
                92.9987755560001,47.002987772,0
                92.93797635,47.0399070220001,0
                92.8904139950001,47.0504231260001,0
                92.837554077,47.0741422140001,0
                92.803200352,47.0846724290001,0
                92.7477241080001,47.084613162,0
                92.7028599230001,47.0422975700001,0
                92.7055609170001,46.986824148,0
                92.763721219,46.947260349,0
                92.819234152,46.91297718,0
                92.8932786770001,46.841729603,0
                92.9487859650001,46.8127298860001,0
                93.0254411720001,46.770544117,0
                93.0967875270001,46.752128236,0
                93.2421642950001,46.6756734080001,0
                93.3426147900001,46.6150209580001,0
                93.4562118250001,46.612500588,0
                93.516954587,46.628415854,0
                93.5036782240001,46.6918031650001,0
                93.4322246240001,46.8106046290001,0
                93.4162924240001,46.887197746,0
                93.4347365280001,46.9321268420001,0
                93.474337016,46.9559447080001,0
                93.5483138070001,46.9480985530001,0
                93.6513890950001,46.903299281,0
                93.738616849,46.8558413480001,0
                93.831119588,46.8163142380001,0
                93.9024405430001,46.8216738900001,0
                93.9076506170001,46.890364407,0
                93.9472115940001,46.951166437,0
                94.026460548,46.953892829,0
                94.1268743530001,46.9275828150001,0
                94.2325772570001,46.895994994,0
                94.311882655,46.8458868700001,0
                94.377985069,46.7904811820001,0
                94.470482164,46.756237523,0
                94.5920297770001,46.7299500870001,0
                94.6475342430001,46.7035920960001,0
                94.6845607390001,46.6640057180001,0
                94.6740446360001,46.616443363,0
                94.6238800660001,46.5899724820001,0
                94.5736957410001,46.5819936820001,0
                94.5261672540001,46.5608090750001,0
                94.4707192320001,46.5343325490001,0
                94.404746641,46.4682188460001,0
                94.3651546190001,46.4364758020001,0
                94.3123257460001,46.4311359050001,0
                94.2753218270001,46.449588476,0
                94.2356648950001,46.478605127,0
                94.1853705020001,46.5736536360001,0
                94.153596414,46.6423046420001,0
                94.0822161930001,46.6924212340001,0
                94.013531319,46.692347855,0
                93.9713145060001,46.644751634,0
                93.95552624,46.586616731,0
                93.9424051000001,46.5047091170001,0
                93.9979942320001,46.399099349,0
                94.045638432,46.3119731950001,0
                94.1461030390001,46.238112115,0
                94.288852192,46.1484458350001,0
                94.4183560280001,46.093107882,0
                94.645612187,46.029949172,0
                94.822627577,46.0116461810001,0
                94.9731946630001,46.0223739520001,0
                95.131672816,46.0463188190001,0
                95.263744999,46.05966856,0
                95.3085922510001,46.1178345070001,0
                95.295250976,46.241981513,0
                95.2080824880001,46.2339632010001,0
                95.0971356460001,46.2285612160001,0
                94.9941055140001,46.2310928750001,0
                94.8990174940001,46.2177826450001,0
                94.8039153620001,46.2176810440001,0
                94.745797392,46.217618955,0
                94.6533313410001,46.2228036280001,0
                94.5898904090001,46.259720057,0
                94.5475748170001,46.304584242,0
                94.5527651350001,46.391766841,0
                94.6161129340001,46.442027366,0
                94.742887554,46.4685800920001,0
                94.859109382,46.4819129000001,0
                94.9198775440001,46.474052633,0
                95.1443085320001,46.5826032850001,0
                95.289575234,46.6091757660001,0
                95.426930869,46.6225311520001,0
                95.53260837,46.6147188640001,0
                95.6013101770001,46.5989418870001,0
                95.6778355610001,46.6782755080001,0
                95.648728598,46.723153804,0
                95.5958461020001,46.7680066980001,0
                95.532410815,46.799639676,0
                95.4478445410001,46.828608349,0
                95.392351364,46.844399438,0
                95.3183435280001,46.881304578,0
                95.254888485,46.931429635,0
                95.2152484850001,46.944595931,0
                95.1993727300001,46.968354531,0
                95.2019410770001,47.037042226,0
                95.244149425,47.092563625,0
                95.2943027050001,47.1296014100001,0
                95.2969105650001,47.1613049430001,0
                95.2545921500001,47.208810853,0
                95.1911145290001,47.280069719,0
                95.151435017,47.3302201770001,0
                95.1487255580001,47.393618776,0
                95.2041820460001,47.4121701240001,0
                95.2807610520001,47.441310953,0
                95.3044886070001,47.486245694,0
                95.354616487,47.547059011,0
                95.4365015230001,47.555071679,0
                95.523709522,47.526105828,0
                95.5792958330001,47.4231377850001,0
                95.611100966,47.3254277940001,0
                95.6508171660001,47.2409349000001,0
                95.7222256100001,47.1644010480001,0
                95.8147678600001,47.0878897760001,0
                95.928384652,47.0668773260001,0
                96.036729279,47.035292327,0
                96.1292376630001,46.990481765,0
                96.1768818630001,46.9033556110001,0
                96.1795997890001,46.8320318340001,0
                96.1823036040001,46.7739166870001,0
                96.216702485,46.7211188580001,0
                96.32245901,46.639338245,0
                96.4467189050001,46.5470104840001,0
                96.599950295,46.53660727,0
                96.7188731160001,46.494466657,0
                96.8245675510001,46.4708040130001,0
                96.943493194,46.426021673,0
                97.012223222,46.383827438,0
                97.078277659,46.373331089,0
                97.154887709,46.373412934,0
                97.263218226,46.355036565,0
                97.39274464,46.278564804,0
                97.482616943,46.2284679680001,0
                97.5513385040001,46.1941989090001,0
                97.5778122080001,46.141392614,0
                97.593727474,46.0806498520001,0
                97.5356264380001,46.064737408,0
                97.4695663580001,46.0805172070001,0
                97.3823555370001,46.1121247840001,0
                97.281930442,46.1490017020001,0
                97.1841611840001,46.172672811,0
                97.0520438460001,46.2015906840001,0
                96.9305159880001,46.209386039,0
                96.7798952790001,46.248851061,0
                96.6451531470001,46.2619157560001,0
                96.4998271800001,46.290819518,0
                96.454940417,46.269637732,0
                96.388933959,46.2352247410001,0
                96.3176017160001,46.240431992,0
                96.2673863460001,46.261512177,0
                96.2012811100001,46.31955959,0
                96.1166696810001,46.3907958780001,0
                96.045258415,46.469971453,0
                95.981780794,46.5412303190001,0
                95.8945135280001,46.6256724140001,0
                95.7862253440001,46.604422895,0
                95.7255587830001,46.517181029,0
                95.7890307600001,46.451205616,0
                95.8868536400001,46.3773417130001,0
                95.905407811,46.3192435,0
                95.871138752,46.2505219380001,0
                95.8156963750001,46.2187619600001,0
                95.7602201320001,46.2187026930001,0
                95.700770011,46.229206096,0
                95.6045653020001,46.2370285050001,0
                95.5382897570001,46.2422411590001,0
                95.4563934320001,46.244795395,0
                95.461809529,46.1206399230001,0
                95.525239173,46.0942903970001,0
                95.6864493640001,46.0337028590001,0
                95.76657513,46.039952493,0
                95.977905675,46.0472228740001,0
                96.1047085170001,46.0473583420001,0
                96.231541464,46.0193154,0
                96.3830944890001,45.9314196780001,0
                96.4887823390001,45.913921062,0
                96.6437334870001,45.9422650430001,0
                96.7529172980001,45.9494262970001,0
                96.8128302850001,45.917789557,0
                96.9749464500001,45.8334274260001,0
                97.1194398210001,45.759613383,0
                97.2921228910001,45.6752625410001,0
                97.394322307,45.6260594510001,0
                97.499998868,45.619127738,0
                97.584522807,45.6297849520001,0
                97.6761064010001,45.626360489,0
                97.785309026,45.615910238,0
                97.9121824250001,45.5500025580001,0
                98.028483275,45.489367041,0
                98.127156627,45.443682489,0
                98.27519864,45.3452161020001,0
                98.37036098,45.2889608830001,0
                98.4197296410001,45.2361790470001,0
                98.4021783430001,45.1798034130001,0
                98.356407242,45.1621429890001,0
                98.2613051100001,45.162041388,0
                98.1521062480001,45.1689693380001,0
                98.067540916,45.1970574360001,0
                97.9371630900001,45.2462304220001,0
                97.768032426,45.3024066180001,0
                97.6693590740001,45.34809117,0
                97.5214186620001,45.351455426,0
                97.4615621190001,45.330257648,0
                97.4158324110001,45.2738519110001,0
                97.359494408,45.256180197,0
                97.2749516530001,45.263134488,0
                97.2326501730001,45.294790043,0
                97.1621778080001,45.3193708920001,0
                97.067049335,45.3439253990001,0
                96.9578542360001,45.3473310480001,0
                96.855703739,45.350744223,0
                96.802741279,45.4704460180001,0
                96.711059848,45.565450313,0
                96.6018158310001,45.614645877,0
                96.457341274,45.670848413,0
                96.3199527130001,45.688313163,0
                96.2318349760001,45.7445759080001,0
                96.1049681630001,45.8043195600001,0
                95.974601626,45.8429256430001,0
                95.875962142,45.856909484,0
                95.682265681,45.828524111,0
                95.495583718,45.8283246730001,0
                95.3758367670001,45.8176298290001,0
                95.3300844810001,45.782357898,0
                95.256172602,45.729444357,0
                95.16816399,45.683560368,0
                95.0273095730001,45.648186837,0
                95.221457592,45.2538960690001,0
                95.284889116,45.2257853930001,0
                95.4188231100001,45.1449154590001,0
                95.542193963,45.0605119350001,0
                95.6197824260001,44.96901489,0
                95.665655127,44.891573183,0
                95.683379523,44.785922962,0
                95.6587986740001,44.715450597,0
                95.5637416970001,44.6730813830001,0
                95.4299093050001,44.6588491850001,0
                95.334773306,44.6904482950001,0
                95.2255819700001,44.690331643,0
                95.1375056250001,44.7078490740001,0
                95.0212471080001,44.7288587030001,0
                94.8767763150001,44.781538939,0
                94.7957144690001,44.827242305,0
                94.714622519,44.9011240820001,0
                94.62999698,44.9855689980001,0
                94.6193444680001,45.065690062,0
                94.6333461840001,45.147598616,0
                94.7213623210001,45.186438003,0
                94.8340213960001,45.2376317850001,0
                94.907950209,45.27469497,0
                95.030379253,45.3098162110001,0
                94.8732380590001,45.620724373,0
                94.7455405300001,45.633796594,0
                94.551817729,45.630067329,0
                94.4109068670001,45.647528316,0
                94.298204518,45.636840996,0
                94.1819648160001,45.64023912,0
                94.0621952860001,45.6506780820001,0
                93.977603614,45.7034222880001,0
                93.89658316,45.7103803420001,0
                93.8085218680001,45.713808569,0
                93.692244536,45.7524297030001,0
                93.568911314,45.801610216,0
                93.466704371,45.857857908,0
                93.332792956,45.917594034,0
                93.2482690160001,45.9069368200001,0
                93.1707821540001,45.9033317330001,0
                93.0474526940001,45.9489899440001,0
                92.9487831040001,45.9911521940001,0
                92.853635818,46.033318208,0
                92.7373622480001,46.0684170420001,0
                92.6070107640001,46.0929339200001,0
                92.5084089090001,46.0716947490001,0
                92.437974174,46.0610525870001,0
                92.3499204080001,46.057436211,0
                92.268911244,46.0538273610001,0
                92.2230724090001,46.0995683570001,0
                92.1561411610001,46.106541463,0
                92.0786505350001,46.1064586780001,0
                91.997603741,46.1380728400001,0
                91.916560711,46.1661647010001,0
                91.8390399800001,46.1942603250001,0
                91.6840135720001,46.2363623680001,0
                91.6099511730001,46.324340874,0
                91.5606013280001,46.359511205,0
                91.4619919460001,46.3453166370001,0
                91.4620747310001,46.2678260110001,0
                91.46216128,46.1868130840001,0
                91.4093568660001,46.15857823,0
                91.3389108430001,46.15850297,0
                91.2156340640001,46.1548489640001,0
                91.1346249000001,46.1512401140001,0
                91.011325544,46.168719917,0
                90.990135292,46.2215318570001,0
                90.9653813470001,46.313085346,0
                90.9159901070001,46.3870009890001,0
                90.8419653380001,46.439756484,0
                90.7468443910001,46.45726639,0
                90.6376342400001,46.474761243,0
                90.5108050570001,46.499281884,0
                90.4050419470001,46.5872265240001,0
                90.3732584510001,46.664683284,0
                90.3731493240001,46.7668300170001,0
                90.3519515460001,46.82668656,0
                90.2709310930001,46.833644614,0
                90.1899106400001,46.840602667,0
                90.0912824440001,46.8440196060001,0
                90.0242985140001,46.900304928,0
                89.964340371,46.9742092820001,0
                89.8902930240001,47.0480985840001,0
                89.798686853,47.072656855,0
                89.703580957,47.076077556,0
                89.6330672000001,47.1394037170001,0
                89.5484642390001,47.2027148270001,0
                89.4779768220001,47.2413848800001,0
                89.3863781760001,47.258898549,0
                89.3088273430001,47.3151725820001,0
                89.203090574,47.3784611140001,0
                89.0480190100001,47.462830771,0
                88.8964622220001,47.5542487930001,0
                88.829512159,47.5788334060001,0
                88.6568516680001,47.64205044,0
                88.463072421,47.691155693,0
                88.3291685310001,47.743847218,0
                88.121292554,47.7999820210001,0
                87.9521581270001,47.8596805180001,0
                87.80418761,47.8912231830001,0
                87.7477216650001,47.9933097100001,0
                87.6948156510001,48.0601769880001,0
                87.624309419,48.116458547,0
                87.483353402,48.1761871470001,0
                87.3881722470001,48.2500538720001,0
                87.29652092,48.316879757,0
                87.166071598,48.4329764650001,0
                87.035648617,48.5244170660001,0
                86.9510230770001,48.6088619830001,0
                86.845271256,48.6862397200001,0
                86.7253888380001,48.8023477180001,0
                86.591556445,48.788115519,0
                86.475331795,48.777424437,0
                86.369666522,48.7737892470001,0
                86.2815751260001,48.8053958830001,0
                86.189976481,48.8229095520001,0
                86.084299919,48.829841264,0
                85.9927577180001,48.7945204150001,0
                85.9082450670001,48.7732962970001,0
                85.8061171480001,48.755575664,0
                85.6934035100001,48.7554552490001,0
                85.5454668610001,48.755297204,0
                85.464420067,48.786911366,0
                85.376309856,48.8361295080001,0
                85.2917746270001,48.836039197,0
                85.224850905,48.8359677,0
                85.1367933760001,48.835873625,0
                85.038161416,48.8428128640001,0
                84.939540746,48.8391852,0
                84.865546081,48.8637622850001,0
                84.8443332510001,48.937708032,0
                84.8301574980001,49.0187059080001,0
                84.798392817,49.0785511610001,0
                84.745520669,49.113717728,0
                84.7067414900001,49.1453770460001,0
                84.6116177200001,49.1655286770001,0
                84.5244323000001,49.1733607210001,0
                84.4478250710001,49.1706371500001,0
                84.3632926650001,49.1679051130001,0
                84.2708379030001,49.1625228830001,0
                84.217946941,49.2153009560001,0
                84.1756736820001,49.220539252,0
                84.043584566,49.2230398660001,0
                83.937923998,49.215001799,0
                83.816458229,49.1646791850001,0
                83.6738671210001,49.1064088140001,0
                83.5814546930001,49.0614006960001,0
                83.515428479,49.0454797850001,0
                83.4150626510001,49.026880459,0
                83.3359040080001,48.9396188370001,0
                83.296351498,48.8708916310001,0
                83.233006521,48.81798938,0
                83.1591143970001,48.746583759,0
                83.1274927090001,48.6725815660001,0
                83.0694509400001,48.6011928790001,0
                82.9876082380001,48.5535543230001,0
                82.889875669,48.542882998,0
                82.8053404410001,48.542792686,0
                82.7181267970001,48.5770419880001,0
                82.6652499460001,48.6166114320001,0
                82.6124154280001,48.616554987,0
                82.530595304,48.5477826250001,0
                82.440866935,48.46315144,0
                82.3775417140001,48.391757109,0
                82.3036157230001,48.3520521980001,0
                82.211177895,48.3308196130001,0
                82.1240658520001,48.269966783,0
                82.147951452,48.166964874,0
                82.200825481,48.1300371560001,0
                82.2246659260001,48.069302861,0
                82.2722593250001,48.0297277720001,0
                82.335700258,47.9928113440001,0
                82.4123357080001,47.969117655,0
                82.5259581440001,47.942821753,0
                82.6263775950001,47.911228287,0
                82.716230141,47.879623533,0
                82.795518606,47.8453657640001,0
                82.8615871540001,47.821660787,0
                82.977823093,47.8217849640001,0
                83.0623385660001,47.840367357,0
                83.223483845,47.8405395130001,0
                83.3476393160001,47.84595561,0
                83.471769388,47.87514724,0
                83.622347764,47.8753081070001,0
                83.7095557630001,47.8463422560001,0
                83.7571096510001,47.84375133,0
                83.831063865,47.8570389830001,0
                83.9050180780001,47.870326635,0
                83.9472885150001,47.867730065,0
                84.008090543,47.828169088,0
                84.0794566540001,47.7912611260001,0
                84.203623414,47.786110319,0
                84.293447739,47.780922823,0
                84.4440486930001,47.759949883,0
                84.5391734020001,47.7389176770001,0
                84.692401971,47.731156189,0
                84.7901853390001,47.694276449,0
                84.84829202,47.7049054410001,0
                84.9803670260001,47.7156134570001,0
                85.078099594,47.726284783,0
                85.183715007,47.776590464,0
                85.249766621,47.7687358420001,0
                85.310531961,47.763517302,0
                85.3897865590001,47.7609602430001,0
                85.458488366,47.745183266,0
                85.643440222,47.7163218370001,0
                85.7703277320001,47.637205528,0
                85.8971898410001,47.5818647520001,0
                86.039905128,47.5238991840001,0
                86.1852564970001,47.4712198880001,0
                86.2909763320001,47.423781712,0
                86.454845182,47.3473466400001,0
                86.5552843880001,47.297261093,0
                86.621403736,47.22600505,0
                86.6874976830001,47.1785245400001,0
                86.777386919,47.1125773480001,0
                86.854090103,47.02548224,0
                86.8964452070001,46.943633892,0
                86.8806738740001,46.869648634,0
                86.8437433340001,46.8194163320001,0
                86.7830231500001,46.782367257,0
                86.7328557580001,46.758538102,0
                86.6430483670001,46.7478752420001,0
                86.5585131390001,46.7477849310001,0
                86.4607664590001,46.7503222340001,0
                86.3524415860001,46.7634151520001,0
                86.249402988,46.773871989,0
                86.138439212,46.7843203580001,0
                86.0142752720001,46.786829439,0
                85.911250785,46.7840776460001,0
                85.855876143,46.6889162470001,0
                85.805776484,46.601685671,0
                85.7530463890001,46.5038853680001,0
                85.67913451,46.450971828,0
                85.5867136150001,46.413888887,0
                85.478433898,46.3847141910001,0
                85.370142892,46.3661063980001,0
                85.251268049,46.3633376720001,0
                85.1297486590001,46.363207849,0
                85.0408246650001,46.349904204,0
                84.9501592770001,46.3181065970001,0
                84.8445325750001,46.278367819,0
                84.8022649600001,46.278322663,0
                84.74943891,46.2703410410001,0
                84.7019104220001,46.249156434,0
                84.6385513340001,46.209462812,0
                84.5593136690001,46.1961695150001,0
                84.5540951280001,46.1354041750001,0
                84.5990524470001,46.0905428140001,0
                84.680991104,46.048362689,0
                84.762898718,46.035241549,0
                84.858006495,46.0300596970001,0
                84.9584400560001,45.985257602,0
                85.0087005810001,45.9219098040001,0
                85.0272857960001,45.8347526050001,0
                85.064337692,45.771390695,0
                85.080261426,45.7027227560001,0
                85.080329159,45.639321334,0
                85.0301815230001,45.597000097,0
                84.9324743550001,45.5625532380001,0
                84.84267543,45.543965201,0
                84.7661105350001,45.5016157420001,0
                84.710693559,45.4460802310001,0
                84.676438611,45.36415004,0
                84.644845145,45.2637305900001,0
                84.592086829,45.1923475460001,0
                84.52608037,45.1579345540001,0
                84.3517575060001,45.1286893010001,0
                84.1906206940001,45.1205919670001,0
                84.077046237,45.1019785300001,0
                84.005753505,45.07020162,0
                83.8921762250001,45.054229908,0
                83.6913373240001,45.117416839,0
                83.5592228070001,45.1436929870001,0
                83.363763314,45.1170668820001,0
                83.2818444120001,45.1407549260001,0
                83.1391150140001,45.2119291240001,0
                83.014877697,45.2831230780001,0
                82.7206488960001,45.392000206,0
                82.5867713470001,45.4200356220001,0
                82.4387669640001,45.4832789980001,0
                82.3048593120001,45.539492824,0
                82.1569000840001,45.5604685860001,0
                81.9877694200001,45.616644782,0
                81.874942892,45.7221934020001,0
                81.7832878020001,45.7925415880001,0
                81.6634467760001,45.869904272,0
                81.5295692280001,45.8979396880001,0
                81.4378915600001,45.9894216820001,0
                81.3532885980001,46.052732791,0
                81.2475292510001,46.1371551300001,0
                81.177015494,46.2004812920001,0
                81.0510113820001,46.2769568160001,0
                81.0298408850001,46.311276675,0
                80.9954448270001,46.3614327780001,0
                80.9584352640001,46.3851688,0
                80.916156361,46.3956905480001,0
                80.844812829,46.411464702,0
                80.7549772150001,46.427219101,0
                80.6466325870001,46.4588041010001,0
                80.5805583960001,46.48779253,0
                80.5356095440001,46.524728714,0
                80.5196801660001,46.598680105,0
                80.450975537,46.617098809,0
                80.3901876200001,46.643451156,0
                80.3320357840001,46.675089777,0
                80.2712365770001,46.7120090280001,0
                80.2368292290001,46.772732035,0
                80.2129859620001,46.8361080550001,0
                80.1838733550001,46.8862698030001,0
                80.1864501700001,46.9470323210001,0
                80.18637397,47.018358919,0
                80.1942173020001,47.0949774370001,0
                80.2417232130001,47.1372958520001,0
                80.3182768180001,47.1902122130001,0
                80.3049807,47.2720916050001,0
                80.2943658180001,47.316989656,0
                80.2811205,47.3513179820001,0
                80.249377456,47.3909100020001,0
                80.2334819450001,47.433160684,0
                80.2017191450001,47.491244787,0
                80.125063938,47.533430556,0
                80.0642901320001,47.546574273,0
                80.000863311,47.570282073,0
                79.974426296,47.5887459320001,0
                79.9426804300001,47.6309796790001,0
                79.966413629,47.6706309680001,0
                80.032422909,47.702402234,0
                80.1538802110001,47.7606500260001,0
                80.2119586690001,47.797696278,0
                80.2964289860001,47.858546285,0
                80.378268866,47.9088265660001,0
                80.4600664120001,47.998732735,0
                80.4600156120001,48.0462838010001,0
                80.4493809750001,48.1096739340001,0
                80.4572468860001,48.165158643,0
                80.5021167150001,48.202190784,0
                80.5602036400001,48.231311858,0
                80.6314653270001,48.292147754,0
                80.6657654300001,48.331810331,0
                80.686848437,48.3793839740001,0
                80.665652541,48.437479366,0
                80.6418149180001,48.495571935,0
                80.6153412150001,48.5483782310001,0
                80.617934963,48.5932903930001,0
                80.5967644670001,48.6276102520001,0
                80.6046021550001,48.7095122210001,0
                80.6653110500001,48.757128198,0
                80.704905894,48.786229517,0
                80.7524174480001,48.823264479,0
                80.7840504260001,48.886699767,0
                80.7628658190001,48.9342282550001,0
                80.7258308560001,48.9817398100001,0
                80.7416275880001,49.0319495360001,0
                80.797067143,49.066351239,0
                80.844604098,49.079610669,0
                80.905324282,49.1166597420001,0
                80.918487756,49.158941467,0
                80.963360407,49.1933318820001,0
                81.0214642650001,49.2066026000001,0
                81.090120916,49.233093237,0
                81.1587521660001,49.2833594080001,0
                81.1850904020001,49.3573559550001,0
                81.2325765570001,49.4181664500001,0
                81.2457118080001,49.486865434,0
                81.229782431,49.5608168250001,0
                81.195383549,49.613614655,0
                81.1504121200001,49.671684645,0
                81.1107269650001,49.7271185560001,0
                81.1106422970001,49.8063703330001,0
                81.171376593,49.830210777,0
                81.1897981180001,49.896273679,0
                81.163282081,49.9887058630001,0
                81.2054988950001,50.036302085,0
                81.245037294,50.1182379210001,0
                81.2705571980001,50.1730762390001,0
                81.2554771970001,50.2371268740001,0
                81.2236974640001,50.3110613320001,0
                81.199800575,50.424630146,0
                81.3521560930001,50.4098231140001,0
                81.450803105,50.38879467,0
                81.5952325050001,50.3748597480001,0
                81.7149982710001,50.3679430870001,0
                81.8277156710001,50.3645412010001,0
                81.9368881930001,50.3822693600001,0
                82.1059398350001,50.4000614890001,0
                82.1765551930001,50.2416331950001,0
                82.2118798050001,50.1465686930001,0
                82.2753376700001,50.093801908,0
                82.37396963,50.0868626700001,0
                82.532476946,50.0835097030001,0
                82.6945028000001,50.0836828000001,0
                82.8283577710001,50.0767811910001,0
                82.9233921690001,50.140284212,0
                82.8739783520001,50.2353336620001,0
                82.898529098,50.333984436,0
                82.842108308,50.3938033480001,0
                82.7398825510001,50.467662547,0
                82.7926606240001,50.5205535100001,0
                82.8947622030001,50.5629302500001,0
                82.926406468,50.615798635,0
                82.86997439,50.686184451,0
                82.792408504,50.7565476880001,0
                82.732424021,50.8551081510001,0
                82.6724583530001,50.9360571070001,0
                82.7815669030001,51.013664385,0
                82.8695416480001,51.0912490860001,0
                82.9893111760001,51.080810124,0
                83.0808797180001,51.0914748650001,0
                83.1618399640001,51.14087363,0
                83.225211281,51.169119773,0
                83.2216099570001,51.243084335,0
                83.1898226980001,51.3240633950001,0
                83.1263723580001,51.3697855770001,0
                83.0347548970001,51.404910752,0
                82.943114859,51.461169732,0
                82.9078052990001,51.542145029,0
                83.0204925960001,51.566921553,0
                83.150821502,51.5635384830001,0
                83.2741095700001,51.5566255850001,0
                83.3762901710001,51.5250340000001,0
                83.4855417150001,51.4687938340001,0
                83.6018491500001,51.4019942900001,0
                83.7251485070001,51.384514488,0
                83.820254402,51.3810937870001,0
                83.9857875050001,51.3953598520001,0
                84.165421102,51.399074065,0
                84.3168574750001,51.4203696800001,0
                84.411903162,51.4733057980001,0
                84.4717258380001,51.526204287,0
                84.5068510120001,51.617821748,0
                84.5490283140001,51.702402132,0
                84.6299509300001,51.787023908,0
                84.7954464040001,51.8365129850001,0
                84.9398569890001,51.840189568,0
                85.098390646,51.812180492,0
              </coordinates>
            </LinearRing>
          </outerBoundaryIs>
        </Polygon>
      </Placemark>
    </Document>
  </Document>
</kml>
