<?xml version="1.0" encoding="UTF-8"?>
<kml xmlns="http://www.opengis.net/kml/2.2">
  <Document id="root_doc">
    <Schema id="Bioregions_PA38.schema">
      <SimpleField name="OBJECTID" type="float"/>
      <SimpleField name="Shape_Leng" type="float"/>
      <SimpleField name="Shape_Area" type="float"/>
      <SimpleField name="Bioregions" type="string"/>
    </Schema>
    <Document id="Bioregions_PA38">
      <name>Bioregions_PA38</name>
      <Placemark id="Bioregions_PA38.1">
        <ExtendedData>
          <SchemaData schemaUrl="#Bioregions_PA38.schema">
            <SimpleData name="OBJECTID">146</SimpleData>
            <SimpleData name="Shape_Leng">117.52059415100</SimpleData>
            <SimpleData name="Shape_Area">107.59756863700</SimpleData>
            <SimpleData name="Bioregions">PA38</SimpleData>
          </SchemaData>
        </ExtendedData>
        <Polygon>
          <outerBoundaryIs>
            <LinearRing>
              <coordinates>
                84.1756736820001,49.220539252,0
                84.217946941,49.2153009560001,0
                84.2708379030001,49.1625228830001,0
                84.3632926650001,49.1679051130001,0
                84.4478250710001,49.1706371500001,0
                84.5244323000001,49.1733607210001,0
                84.6116177200001,49.1655286770001,0
                84.7067414900001,49.1453770460001,0
                84.745520669,49.113717728,0
                84.798392817,49.0785511610001,0
                84.8301574980001,49.0187059080001,0
                84.8443332510001,48.937708032,0
                84.865546081,48.8637622850001,0
                84.939540746,48.8391852,0
                85.038161416,48.8428128640001,0
                85.1367933760001,48.835873625,0
                85.224850905,48.8359677,0
                85.2917746270001,48.836039197,0
                85.376309856,48.8361295080001,0
                85.464420067,48.786911366,0
                85.5454668610001,48.755297204,0
                85.6934035100001,48.7554552490001,0
                85.8061171480001,48.755575664,0
                85.9082450670001,48.7732962970001,0
                85.9927577180001,48.7945204150001,0
                86.084299919,48.829841264,0
                86.189976481,48.8229095520001,0
                86.2815751260001,48.8053958830001,0
                86.369666522,48.7737892470001,0
                86.475331795,48.777424437,0
                86.591556445,48.788115519,0
                86.7253888380001,48.8023477180001,0
                86.845271256,48.6862397200001,0
                86.9510230770001,48.6088619830001,0
                87.035648617,48.5244170660001,0
                87.166071598,48.4329764650001,0
                87.29652092,48.316879757,0
                87.3881722470001,48.2500538720001,0
                87.483353402,48.1761871470001,0
                87.624309419,48.116458547,0
                87.6948156510001,48.0601769880001,0
                87.7477216650001,47.9933097100001,0
                87.80418761,47.8912231830001,0
                87.9521581270001,47.8596805180001,0
                88.121292554,47.7999820210001,0
                88.3291685310001,47.743847218,0
                88.463072421,47.691155693,0
                88.6568516680001,47.64205044,0
                88.829512159,47.5788334060001,0
                88.8964622220001,47.5542487930001,0
                89.0480190100001,47.462830771,0
                89.203090574,47.3784611140001,0
                89.3088273430001,47.3151725820001,0
                89.3863781760001,47.258898549,0
                89.4779768220001,47.2413848800001,0
                89.5484642390001,47.2027148270001,0
                89.6330672000001,47.1394037170001,0
                89.703580957,47.076077556,0
                89.798686853,47.072656855,0
                89.8902930240001,47.0480985840001,0
                89.964340371,46.9742092820001,0
                90.0242985140001,46.900304928,0
                90.0912824440001,46.8440196060001,0
                90.1899106400001,46.840602667,0
                90.2709310930001,46.833644614,0
                90.3519515460001,46.82668656,0
                90.3731493240001,46.7668300170001,0
                90.3732584510001,46.664683284,0
                90.4050419470001,46.5872265240001,0
                90.5108050570001,46.499281884,0
                90.6376342400001,46.474761243,0
                90.7468443910001,46.45726639,0
                90.8419653380001,46.439756484,0
                90.9159901070001,46.3870009890001,0
                90.9653813470001,46.313085346,0
                90.990135292,46.2215318570001,0
                91.011325544,46.168719917,0
                91.1346249000001,46.1512401140001,0
                91.2156340640001,46.1548489640001,0
                91.3389108430001,46.15850297,0
                91.4093568660001,46.15857823,0
                91.46216128,46.1868130840001,0
                91.4620747310001,46.2678260110001,0
                91.4619919460001,46.3453166370001,0
                91.5606013280001,46.359511205,0
                91.6099511730001,46.324340874,0
                91.6840135720001,46.2363623680001,0
                91.8390399800001,46.1942603250001,0
                91.916560711,46.1661647010001,0
                91.997603741,46.1380728400001,0
                92.0786505350001,46.1064586780001,0
                92.1561411610001,46.106541463,0
                92.2230724090001,46.0995683570001,0
                92.268911244,46.0538273610001,0
                92.3499204080001,46.057436211,0
                92.437974174,46.0610525870001,0
                92.5084089090001,46.0716947490001,0
                92.6070107640001,46.0929339200001,0
                92.7373622480001,46.0684170420001,0
                92.853635818,46.033318208,0
                92.9487831040001,45.9911521940001,0
                93.0474526940001,45.9489899440001,0
                93.1707821540001,45.9033317330001,0
                93.2482690160001,45.9069368200001,0
                93.332792956,45.917594034,0
                93.466704371,45.857857908,0
                93.568911314,45.801610216,0
                93.692244536,45.7524297030001,0
                93.8085218680001,45.713808569,0
                93.89658316,45.7103803420001,0
                93.977603614,45.7034222880001,0
                94.0621952860001,45.6506780820001,0
                94.1819648160001,45.64023912,0
                94.298204518,45.636840996,0
                94.4109068670001,45.647528316,0
                94.551817729,45.630067329,0
                94.7455405300001,45.633796594,0
                94.8732380590001,45.620724373,0
                95.030379253,45.3098162110001,0
                94.907950209,45.27469497,0
                94.8340213960001,45.2376317850001,0
                94.7213623210001,45.186438003,0
                94.6333461840001,45.147598616,0
                94.6193444680001,45.065690062,0
                94.62999698,44.9855689980001,0
                94.714622519,44.9011240820001,0
                94.7957144690001,44.827242305,0
                94.8767763150001,44.781538939,0
                95.0212471080001,44.7288587030001,0
                95.1375056250001,44.7078490740001,0
                95.2255819700001,44.690331643,0
                95.334773306,44.6904482950001,0
                95.4299093050001,44.6588491850001,0
                95.5637416970001,44.6730813830001,0
                95.6587986740001,44.715450597,0
                95.683379523,44.785922962,0
                95.665655127,44.891573183,0
                95.6197824260001,44.96901489,0
                95.542193963,45.0605119350001,0
                95.4188231100001,45.1449154590001,0
                95.284889116,45.2257853930001,0
                95.221457592,45.2538960690001,0
                95.0273095730001,45.648186837,0
                95.16816399,45.683560368,0
                95.256172602,45.729444357,0
                95.3300844810001,45.782357898,0
                95.3758367670001,45.8176298290001,0
                95.495583718,45.8283246730001,0
                95.682265681,45.828524111,0
                95.875962142,45.856909484,0
                95.974601626,45.8429256430001,0
                96.1049681630001,45.8043195600001,0
                96.2318349760001,45.7445759080001,0
                96.3199527130001,45.688313163,0
                96.457341274,45.670848413,0
                96.6018158310001,45.614645877,0
                96.711059848,45.565450313,0
                96.802741279,45.4704460180001,0
                96.855703739,45.350744223,0
                96.926364252,45.150048315,0
                96.979334237,45.023301917,0
                97.2224971970001,44.9073256240001,0
                97.5396397700001,44.78086145,0
                97.7405238270001,44.6754069040001,0
                98.0364761480001,44.60175467,0
                98.2691427610001,44.4197238690001,0
                98.4806247650001,44.285221699,0
                98.7238328810001,44.1269777910001,0
                98.9879828910001,44.1483938220001,0
                99.3155456120001,44.1593106820001,0
                99.727598405,44.212585469,0
                100.023460416,44.223468462,0
                100.266499197,44.223728108,0
                100.572894244,44.2663231010001,0
                100.826454773,44.30886165,0
                101.111738591,44.3303002580001,0
                101.333632277,44.34110423,0
                101.471024601,44.3201171790001,0
                101.735208478,44.309832499,0
                101.862033898,44.288834159,0
                101.943966912,44.251937486,0
                101.988864963,44.2625523670001,0
                102.023181999,44.2863645890001,0
                102.023136843,44.328632204,0
                102.023071932,44.389391899,0
                102.004529051,44.436923209,0
                101.978044058,44.5002964080001,0
                101.97794528,44.592756814,0
                102.04130719,44.6298087100001,0
                102.181355351,44.595615852,0
                102.302911431,44.561403238,0
                102.43505417,44.5087098330001,0
                102.556627183,44.4586468630001,0
                102.664974633,44.424420067,0
                102.783886165,44.392846429,0
                102.942389718,44.3930157620001,0
                103.050703301,44.390489748,0
                103.161655788,44.3906082820001,0
                103.296378164,44.396035667,0
                103.412602814,44.406726749,0
                103.52089382,44.425334472,0
                103.613354226,44.42543325,0
                103.663592173,44.383219329,0
                103.703277329,44.3277854190001,0
                103.703356351,44.2538170940001,0
                103.61885499,44.2220260720001,0
                103.505280532,44.2034126350001,0
                103.359979964,44.2085408630001,0
                103.227890848,44.211041478,0
                103.164500715,44.2004068410001,0
                103.114350257,44.16072733,0
                103.087975332,44.121073219,0
                103.032583755,44.0417621760001,0
                103.032657134,43.973077303,0
                103.040675445,43.8859088150001,0
                103.061843119,43.854230682,0
                103.120000599,43.8173086090001,0
                103.133271318,43.759204751,0
                103.299680293,43.7778746330001,0
                103.415916232,43.777998811,0
                103.508382282,43.7728141370001,0
                103.54276423,43.7358666650001,0
                103.553438379,43.6354923700001,0
                103.545564001,43.587932837,0
                103.622238963,43.527254987,0
                103.730608991,43.4718944540001,0
                103.926220886,43.355867361,0
                104.087414142,43.3111301770001,0
                104.214242385,43.2874901110001,0
                104.359511908,43.311420867,0
                104.433480233,43.3114998900001,0
                104.494282262,43.271938913,0
                104.555140736,43.179543418,0
                104.608017587,43.139973975,0
                104.682014134,43.1136357390001,0
                104.748139126,43.0370962430001,0
                104.814247184,42.976407104,0
                104.917336583,42.918399202,0
                105.012469759,42.8894418180001,0
                105.139300824,42.8631600260001,0
                105.234425534,42.842127819,0
                105.329601044,42.773544547,0
                105.424765265,42.7155281780001,0
                105.517279294,42.665434164,0
                105.599223596,42.6179705870001,0
                105.665317544,42.570490078,0
                105.715552669,42.5309178110001,0
                105.794756468,42.5759118190001,0
                105.844878703,42.6420085890001,0
                105.815712474,42.742363127,0
                105.818286466,42.8057673710001,0
                105.844644458,42.8612718370001,0
                105.942382671,42.8666597110001,0
                106.066549433,42.8615089050001,0
                106.166935016,42.861616149,0
                106.2752486,42.859090135,0
                106.401989353,42.917343572,0
                106.510269069,42.946518268,0
                106.602701253,42.973034306,0
                106.724144443,43.044490727,0
                106.853462011,43.1635066810001,0
                106.959043558,43.245513073,0
                107.003873875,43.319529376,0
                107.024917371,43.4040871820001,0
                107.04324294,43.5599687650001,0
                107.021936977,43.7210914660001,0
                107.02447428,43.818838145,0
                107.024372679,43.9139402770001,0
                107.066518937,44.027579646,0
                107.172103305,44.1069443120001,0
                107.341049584,44.223360875,0
                107.4730625,44.292186859,0
                107.605058483,44.3768631990001,0
                107.758176984,44.4721290210001,0
                107.8822619,44.543588265,0
                108.024827608,44.625634168,0
                108.175352361,44.675987827,0
                108.34437484,44.72107779,0
                108.558332059,44.7424401980001,0
                108.769656018,44.7558746060001,0
                108.933443023,44.756049584,0
                109.070801481,44.766763245,0
                109.194965419,44.764254163,0
                109.305915084,44.7670144240001,0
                109.464401704,44.783034113,0
                109.54100611,44.7883994090001,0
                109.625535694,44.793773173,0
                109.710065278,44.7991469360001,0
                109.815720203,44.812468455,0
                109.89232743,44.815192026,0
                109.924045075,44.7993755360001,0
                109.950510311,44.754494419,0
                109.9505724,44.6963764500001,0
                109.990268845,44.6303756360001,0
                110.088049392,44.5961376220001,0
                110.169962649,44.57773303,0
                110.230747745,44.554022409,0
                110.280980048,44.5170918680001,0
                110.333904877,44.432613014,0
                110.333958499,44.3824202930001,0
                110.286432834,44.3585939600001,0
                110.209836894,44.345303486,0
                110.122617607,44.38483624,0
                110.053946845,44.371554233,0
                109.987943209,44.3344995150001,0
                109.895573115,44.249865508,0
                109.84284302,44.152065206,0
                109.811291888,44.012019867,0
                109.808729184,43.93804872,0
                109.742750948,43.8772184690001,0
                109.695264794,43.816407973,0
                109.703266172,43.745089841,0
                109.777265541,43.716109879,0
                109.824856118,43.679176516,0
                109.8275684,43.6131361910001,0
                109.758906105,43.591929007,0
                109.624158329,43.6102771540001,0
                109.478863406,43.610121931,0
                109.418098066,43.615340471,0
                109.27014166,43.6336745070001,0
                109.130130189,43.633524929,0
                109.024486554,43.6096365070001,0
                108.932051547,43.585762195,0
                108.842280846,43.5407569000001,0
                108.805350305,43.490524597,0
                108.831849409,43.413942768,0
                108.897940535,43.369103984,0
                108.998362807,43.3348687920001,0
                109.130463212,43.3218012740001,0
                109.259907781,43.321939564,0
                109.365537305,43.359036616,0
                109.481759133,43.3723694230001,0
                109.566240739,43.422652527,0
                109.656048129,43.4333153870001,0
                109.759086728,43.4228585500001,0
                109.872678119,43.4256216320001,0
                109.991555784,43.4257486320001,0
                110.102496982,43.4364340700001,0
                110.200243662,43.4338967670001,0
                110.250436454,43.4339503890001,0
                110.324413245,43.426104234,0
                110.371984067,43.4076629530001,0
                110.416966785,43.3390260580001,0
                110.430271371,43.249221489,0
                110.366957438,43.1672602530001,0
                110.290463099,43.0588676470001,0
                110.166451561,42.9187235300001,0
                110.066142177,42.8472896860001,0
                110.018712468,42.7336446730001,0
                109.968680544,42.5830126750001,0
                109.897478123,42.4667005360001,0
                109.834178302,42.37153067,0
                109.71012443,42.271012441,0
                109.586005647,42.231253908,0
                109.440761524,42.1835476190001,0
                109.274394882,42.1252518490001,0
                109.115953419,42.0669645450001,0
                108.925797133,42.021852005,0
                108.754141395,41.968834042,0
                108.579815708,41.9422305160001,0
                108.44247983,41.9103830490001,0
                108.284029899,41.860020923,0
                108.149358324,41.807042472,0
                108.062237814,41.75411482,0
                107.967214705,41.680044895,0
                107.880108306,41.613908614,0
                107.740113768,41.59790868,0
                107.592199696,41.5766168280001,0
                107.428438091,41.5526663160001,0
                107.28054942,41.5075989310001,0
                107.079843164,41.4466247450001,0
                106.87651776,41.364513931,0
                106.723359748,41.306232272,0
                106.572866039,41.226819628,0
                106.41705219,41.1817437760001,0
                106.25064886,41.1577904430001,0
                105.986539301,41.0985096750001,0
                105.768254465,41.0066965390001,0
                105.71903256,40.922108629,0
                105.76845014,40.823536878,0
                105.789711889,40.7038012150001,0
                105.669998804,40.6614056600001,0
                105.52214494,40.5837569890001,0
                105.41652106,40.5413764850001,0
                105.261607543,40.4778094930001,0
                105.163028265,40.435436516,0
                105.064403832,40.4353311520001,0
                104.979815922,40.4845530580001,0
                104.916339241,40.554931347,0
                104.810557316,40.6604874930001,0
                104.690686187,40.766028588,0
                104.592001546,40.822280043,0
                104.444064896,40.8221219970001,0
                104.267972415,40.800800042,0
                104.134079815,40.842924662,0
                103.922719167,40.863832691,0
                103.795863642,40.9130094400001,0
                103.633837788,40.912836343,0
                103.471849564,40.8774402340001,0
                103.35215153,40.8209554740001,0
                103.32408601,40.715256335,0
                103.380548193,40.61669211,0
                103.493352142,40.5322772960001,0
                103.620252822,40.440832933,0
                103.747123398,40.3775669790001,0
                103.859821984,40.391776599,0
                103.958348579,40.4834617930001,0
                104.134448587,40.4977391470001,0
                104.324660377,40.490897745,0
                104.423314913,40.4628247000001,0
                104.508000661,40.322022964,0
                104.620834714,40.2094297410001,0
                104.705415098,40.167252438,0
                104.825218494,40.125112766,0
                105.008363103,40.139397645,0
                105.198522211,40.18186846,0
                105.423844124,40.2807337240001,0
                105.613980653,40.344338346,0
                105.797042478,40.4361138520001,0
                106.015297209,40.5561053970001,0
                106.177195122,40.676036734,0
                106.367278971,40.7889535730001,0
                106.45873086,40.9088096500001,0
                106.592525623,40.95826486,0
                106.845980789,41.0994278410001,0
                107.085414484,41.17717435,0
                107.317765946,41.2901363440001,0
                107.486783721,41.339629184,0
                107.712203471,41.346914617,0
                107.909437284,41.3612145490001,0
                108.043224522,41.417714361,0
                108.310889307,41.4461787560001,0
                108.46587056,41.4463443280001,0
                108.634963594,41.4253911440001,0
                108.740670259,41.3902810210001,0
                108.860616649,41.2142939030001,0
                108.959421704,41.045328811,0
                108.853812877,40.988859102,0
                108.83985914,40.8620412080001,0
                108.778757036,40.807611261,0
                108.713176712,40.749192103,0
                108.551158384,40.741974403,0
                108.276426418,40.734636288,0
                107.931173169,40.7976689380001,0
                107.769169892,40.776362034,0
                107.635397707,40.7057730170001,0
                107.515692148,40.656332859,0
                107.396016694,40.578714292,0
                107.290422918,40.5081553790001,0
                107.107263257,40.507959703,0
                107.029862942,40.42334169,0
                106.846771014,40.3597445940001,0
                106.783459905,40.275141632,0
                106.720111166,40.2257616810001,0
                106.713247186,40.0566836990001,0
                106.713450386,39.866479435,0
                106.734794921,39.6692531470001,0
                106.577099505,39.736889052,0
                106.516276781,39.7958226850001,0
                106.413230656,39.8133241240001,0
                106.310200524,39.815855782,0
                106.225639896,39.8395410040001,0
                106.12882365,39.7954087570001,0
                105.952738695,39.7670421980001,0
                105.797810125,39.7175644110001,0
                105.755625296,39.640028629,0
                105.699373841,39.541343989,0
                105.593749961,39.498963485,0
                105.481096532,39.442486251,0
                105.410755871,39.3437865590001,0
                105.326348584,39.2239380070001,0
                105.29122341,39.1323205460001,0
                105.291396507,38.970294692,0
                105.233392367,38.8636829920001,0
                105.178034657,38.7526712380001,0
                105.138513192,38.6548850470001,0
                105.096355645,38.551812581,0
                105.104382423,38.456718917,0
                105.091286683,38.3510357700001,0
                105.067581706,38.284967222,0
                105.05709947,38.2057041570001,0
                105.038666655,38.1502081570001,0
                105.004406064,38.0735614180001,0
                104.999232679,37.970528464,0
                105.02045962,37.883374088,0
                105.039030723,37.8094255180001,0
                105.068222353,37.6852954460001,0
                105.08413762,37.624552685,0
                104.989097577,37.566333114,0
                104.904562349,37.5662428040001,0
                104.791024581,37.5132869290001,0
                104.67222876,37.4365498780001,0
                104.579768355,37.4364511000001,0
                104.479433571,37.388792789,0
                104.40548218,37.372863411,0
                104.34741501,37.3252502560001,0
                104.321076774,37.251253709,0
                104.323814456,37.1614378520001,0
                104.368811286,37.0795923270001,0
                104.432277618,37.018900365,0
                104.503632439,36.9925593070001,0
                104.556512113,36.950348137,0
                104.612039156,36.902856338,0
                104.67289763,36.810460843,0
                104.71789446,36.728615319,0
                104.773449726,36.6547062610001,0
                104.773503349,36.60451347,0
                104.744492342,36.5595730840001,0
                104.697000542,36.504046041,0
                104.652113781,36.482864256,0
                104.570237211,36.466926411,0
                104.480522953,36.369086597,0
                104.403955236,36.329378864,0
                104.311517408,36.308146279,0
                104.216415276,36.308044679,0
                104.100179338,36.3079205010001,0
                103.944230021,36.3896474910001,0
                103.788272238,36.47929966,0
                103.666665358,36.561063339,0
                103.558306619,36.6058569680001,0
                103.426158235,36.663833826,0
                103.304562644,36.7350306010001,0
                103.254299297,36.801020126,0
                103.201382934,36.877573732,0
                103.151105475,36.9567718860001,0
                103.127250919,37.0307148110001,0
                103.127171897,37.1046831360001,0
                103.156180082,37.1522652460001,0
                103.26184065,37.160303313,0
                103.333170071,37.157737787,0
                103.425647411,37.14198621,0
                103.478504506,37.1209088480001,0
                103.478687952,36.949196665,0
                103.547400131,36.9228528090001,0
                103.631840873,37.0101201100001,0
                103.674013613,37.1026256270001,0
                103.742603107,37.189875993,0
                103.795393914,37.2321999490001,0
                103.840264741,37.2692322140001,0
                103.842807606,37.359053707,0
                103.842725761,37.435663676,0
                103.805684601,37.4884586950001,0
                103.663021739,37.498873206,0
                103.533577171,37.498734916,0
                103.327516907,37.503798234,0
                103.153123487,37.5405961290001,0
                103.013078148,37.5721472610001,0
                102.849245988,37.6142398960001,0
                102.717052449,37.714484369,0
                102.619195702,37.8200489810001,0
                102.555701147,37.9071582020001,0
                102.47371451,37.994247667,0
                102.389083326,38.083976036,0
                102.315027512,38.165790515,0
                102.22512981,38.239662884,0
                102.127318219,38.302959883,0
                101.997839783,38.3345223040001,0
                101.873647622,38.363448643,0
                101.754767135,38.365963369,0
                101.664942811,38.3711508650001,0
                101.546028457,38.4053663,0
                101.387496681,38.4316142260001,0
                101.273910935,38.4235676920001,0
                101.168227788,38.4366634310001,0
                101.057230145,38.478812512,0
                100.967352198,38.534192799,0
                100.822040341,38.549887932,0
                100.674030314,38.6184147600001,0
                100.526006175,38.700150217,0
                100.341014807,38.7659958080001,0
                100.119027988,38.8423687910001,0
                99.8996546720001,38.945161855,0
                99.6512110830001,39.0584907780001,0
                99.4370817070001,39.198273649,0
                99.294352309,39.269447847,0
                99.1357697340001,39.343246838,0
                98.974556722,39.406476103,0
                98.8477002560001,39.4565334280001,0
                98.7049708590001,39.5277076250001,0
                98.562300727,39.5434055800001,0
                98.4698290320001,39.553873706,0
                98.3931879370001,39.5828508450001,0
                98.327105278,39.619764452,0
                98.2399113910001,39.635521673,0
                98.1342592890001,39.6195584290001,0
                98.002161705,39.629984221,0
                97.9043416480001,39.7012063970001,0
                97.8171449380001,39.719605345,0
                97.6559742590001,39.743208721,0
                97.4789814470001,39.7403779050001,0
                97.3072833750001,39.726985831,0
                97.1303018520001,39.713588111,0
                96.9717785440001,39.731910859,0
                96.858170219,39.744998132,0
                96.76563079,39.8188676780001,0
                96.6625470370001,39.8715921290001,0
                96.572666267,39.929614143,0
                96.4379043800001,39.961170919,0
                96.3163454780001,39.998025259,0
                96.2053817020001,40.008473628,0
                96.1102654590001,40.0215806570001,0
                96.012499023,40.042610042,0
                95.9094717140001,40.0424999740001,0
                95.8302227600001,40.0397735820001,0
                95.727263184,39.976262094,0
                95.6401370300001,39.9286178940001,0
                95.5451082760001,39.8598314210001,0
                95.3998697970001,39.8068416790001,0
                95.320665998,39.761847673,0
                95.2414509110001,39.7274205690001,0
                95.1041488990001,39.663872391,0
                95.0381847740001,39.589833512,0
                94.956347716,39.536911505,0
                94.8427591480001,39.5315066960001,0
                94.7476598380001,39.52876337,0
                94.684185115,39.5973803680001,0
                94.663842436,39.681013525,0
                94.5932496560001,39.818308012,0
                94.557940096,39.8992833090001,0
                94.4944685890001,39.964818515,0
                94.434531613,40.0189098450001,0
                94.339357985,40.0857319670001,0
                94.2441730670001,40.1631209930001,0
                94.1771966630001,40.2123617120001,0
                94.1771138780001,40.2898523380001,0
                94.1347747670001,40.3567309050001,0
                94.025575904,40.363658855,0
                93.845938544,40.363466943,0
                93.708568798,40.3633201870001,0
                93.602892237,40.3702519,0
                93.5535499170001,40.398377628,0
                93.5147030030001,40.4934383670001,0
                93.532194094,40.60617082,0
                93.6060984480001,40.6661289620001,0
                93.6940656660001,40.7507582650001,0
                93.7362203900001,40.8564724560001,0
                93.7361300790001,40.9410076840001,0
                93.640941399,41.0219190110001,0
                93.5704539820001,41.060589065,0
                93.5070111680001,41.0992666430001,0
                93.492842941,41.173219917,0
                93.5738107120001,41.2155740790001,0
                93.6653717290001,41.233283423,0
                93.7674996480001,41.2510040550001,0
                93.8766721690001,41.2687322130001,0
                94.00345996,41.282956885,0
                94.0914986750001,41.3006624650001,0
                94.1513138240001,41.3606055560001,0
                94.1617527860001,41.480375085,0
                94.1193007860001,41.6529226870001,0
                94.1156881730001,41.737454153,0
                94.1332093680001,41.8220081960001,0
                94.1471518160001,41.9593929930001,0
                94.1787546890001,42.0510066910001,0
                94.2244919230001,42.1003678270001,0
                94.316037887,42.1321663750001,0
                94.4286988430001,42.1815990060001,0
                94.5554527670001,42.2275243890001,0
                94.6575543450001,42.2699011290001,0
                94.7490702050001,42.3298780870001,0
                94.8194221540001,42.418010876,0
                95.0113442950001,42.4587224220001,0
                95.2173932690001,42.464226008,0
                95.333493741,42.5911530290001,0
                95.4609687910001,42.686391455,0
                95.557074721,42.771029453,0
                95.697758401,42.8662819890001,0
                95.7821863840001,42.966757885,0
                95.8243185310001,43.0936058830001,0
                95.9615471650001,43.2258389340001,0
                95.9614173420001,43.347358324,0
                95.8821316990001,43.3789743670001,0
                95.7765247520001,43.3207435090001,0
                95.63396751,43.2307724280001,0
                95.5072606240001,43.1408182810001,0
                95.380514227,43.0878482950001,0
                95.290746347,43.040201273,0
                95.1798615930001,42.976681318,0
                95.058398647,42.9237169780001,0
                94.921045834,42.907719867,0
                94.7520036000001,42.8811219840001,0
                94.5565102400001,42.886196591,0
                94.339860495,42.9123824270001,0
                94.1654670760001,42.9491803220001,0
                93.9593390780001,43.0176450610001,0
                93.806073821,43.0597489850001,0
                93.6844866970001,43.123020583,0
                93.4519922420001,43.1439060340001,0
                93.2882052360001,43.143731056,0
                93.1349495310001,43.1770291380001,0
                93.2122970190001,43.3109594580001,0
                93.4094781520001,43.374571605,0
                93.578563661,43.3606630240001,0
                93.7265003100001,43.3608210690001,0
                93.9238394870001,43.276496567,0
                94.1070819340001,43.199201616,0
                94.3255624450001,43.10785509,0
                94.50172266,43.0657756250001,0
                94.6637485140001,43.065948722,0
                94.811677638,43.0731513690001,0
                94.9454648750001,43.129651181,0
                95.058140882,43.1649946090001,0
                95.100288081,43.277753402,0
                94.980507264,43.298759268,0
                94.762026753,43.3901057940001,0
                94.5717773330001,43.4321702070001,0
                94.4026165650001,43.516524813,0
                94.3320877560001,43.5939401790001,0
                94.2334256930001,43.629057828,0
                94.0995105150001,43.692316255,0
                94.0993750480001,43.819119098,0
                93.9865635720001,43.9105785130001,0
                93.852640868,43.9808815440001,0
                93.6693758430001,44.0793103010001,0
                93.4649845380001,44.17067188,0
                93.3029436310001,44.184587987,0
                93.1127544190001,44.1702955820001,0
                92.9718473200001,44.1842342670001,0
                92.8310004290001,44.1418161340001,0
                92.6831917210001,44.0218998490001,0
                92.556449086,43.965407563,0
                92.352193248,43.9299662980001,0
                92.239487136,43.92280128,0
                92.119864362,43.7958704960001,0
                91.9790626270001,43.711184749,0
                91.8170593510001,43.6898778450001,0
                91.5915853450001,43.6949421080001,0
                91.394109837,43.69937751,0
                91.218253098,43.7033273430001,0
                91.084352972,43.752496566,0
                90.9857134870001,43.7664804070001,0
                90.8025011440001,43.8155969490001,0
                90.6686010170001,43.8647661730001,0
                90.5346557350001,43.9562030100001,0
                90.4008007640001,43.963104619,0
                90.2739602920001,43.998192164,0
                90.133000511,44.061443066,0
                89.984996127,44.124686442,0
                89.935616177,44.1880351820001,0
                89.7734849590001,44.2864865180001,0
                89.5198190670001,44.342572402,0
                89.343704008,44.342384253,0
                89.2099167710001,44.2858844410001,0
                89.0972257110001,44.264630219,0
                88.9703852390001,44.299717763,0
                88.8153287270001,44.3699982160001,0
                88.6673092920001,44.4473307960001,0
                88.4981635760001,44.517596197,0
                88.315003915,44.5174005220001,0
                88.1459786130001,44.474952285,0
                87.9910274650001,44.4466083040001,0
                87.871321907,44.3971681470001,0
                87.7869522500001,44.242096583,0
                87.7871328720001,44.073026127,0
                87.738016331,43.8898137830001,0
                87.667720826,43.748846476,0
                87.548000217,43.7134955230001,0
                87.470471961,43.7486357500001,0
                87.4351059560001,43.8824455650001,0
                87.3645846730001,43.952816329,0
                87.301138096,43.995016209,0
                87.181342225,44.03011128,0
                87.0121739320001,44.1215104880001,0
                86.8078202560001,44.177649054,0
                86.6246229640001,44.2126763900001,0
                86.370972124,44.2546730710001,0
                86.0891805040001,44.2614166340001,0
                85.8989461360001,44.289391842,0
                85.673496282,44.3102848190001,0
                85.5114026940001,44.373513143,0
                85.342249452,44.4508231460001,0
                85.2225363680001,44.40842759,0
                85.1028232830001,44.366032036,0
                84.947902239,44.309509645,0
                84.8281439990001,44.309381704,0
                84.6871992700001,44.3585434020001,0
                84.5110842110001,44.3583552530001,0
                84.3349917300001,44.3370332960001,0
                84.123683763,44.308629108,0
                83.9687025110001,44.3084635370001,0
                83.8558910360001,44.399922953,0
                83.7361177440001,44.413884216,0
                83.6022702990001,44.4137412220001,0
                83.46843038,44.4065536270001,0
                83.3064045260001,44.40638053,0
                83.1373415960001,44.3991553050001,0
                83.010508649,44.427198247,0
                82.8906600970001,44.5116055340001,0
                82.791930301,44.6101246040001,0
                82.890404215,44.751122014,0
                82.848038763,44.8426566890001,0
                82.7211907650001,44.884788836,0
                82.5662095120001,44.8846232650001,0
                82.4534732980001,44.9056366570001,0
                82.3477214760001,44.9830143930001,0
                82.3969659590001,45.046468496,0
                82.5166790430001,45.088864051,0
                82.622317975,45.1171553500001,0
                82.720942408,45.1172607140001,0
                82.7208295180001,45.22292975,0
                82.7206488960001,45.392000206,0
                83.014877697,45.2831230780001,0
                83.1391150140001,45.2119291240001,0
                83.2818444120001,45.1407549260001,0
                83.363763314,45.1170668820001,0
                83.5592228070001,45.1436929870001,0
                83.6913373240001,45.117416839,0
                83.8921762250001,45.054229908,0
                84.005753505,45.07020162,0
                84.077046237,45.1019785300001,0
                84.1906206940001,45.1205919670001,0
                84.3517575060001,45.1286893010001,0
                84.52608037,45.1579345540001,0
                84.592086829,45.1923475460001,0
                84.644845145,45.2637305900001,0
                84.676438611,45.36415004,0
                84.710693559,45.4460802310001,0
                84.7661105350001,45.5016157420001,0
                84.84267543,45.543965201,0
                84.9324743550001,45.5625532380001,0
                85.0301815230001,45.597000097,0
                85.080329159,45.639321334,0
                85.080261426,45.7027227560001,0
                85.064337692,45.771390695,0
                85.0272857960001,45.8347526050001,0
                85.0087005810001,45.9219098040001,0
                84.9584400560001,45.985257602,0
                84.858006495,46.0300596970001,0
                84.762898718,46.035241549,0
                84.680991104,46.048362689,0
                84.5990524470001,46.0905428140001,0
                84.5540951280001,46.1354041750001,0
                84.5593136690001,46.1961695150001,0
                84.6385513340001,46.209462812,0
                84.7019104220001,46.249156434,0
                84.74943891,46.2703410410001,0
                84.8022649600001,46.278322663,0
                84.8445325750001,46.278367819,0
                84.9501592770001,46.3181065970001,0
                85.0408246650001,46.349904204,0
                85.1297486590001,46.363207849,0
                85.251268049,46.3633376720001,0
                85.370142892,46.3661063980001,0
                85.478433898,46.3847141910001,0
                85.5867136150001,46.413888887,0
                85.67913451,46.450971828,0
                85.7530463890001,46.5038853680001,0
                85.805776484,46.601685671,0
                85.855876143,46.6889162470001,0
                85.911250785,46.7840776460001,0
                86.0142752720001,46.786829439,0
                86.138439212,46.7843203580001,0
                86.249402988,46.773871989,0
                86.3524415860001,46.7634151520001,0
                86.4607664590001,46.7503222340001,0
                86.5585131390001,46.7477849310001,0
                86.6430483670001,46.7478752420001,0
                86.7328557580001,46.758538102,0
                86.7830231500001,46.782367257,0
                86.8437433340001,46.8194163320001,0
                86.8806738740001,46.869648634,0
                86.8964452070001,46.943633892,0
                86.854090103,47.02548224,0
                86.777386919,47.1125773480001,0
                86.6874976830001,47.1785245400001,0
                86.621403736,47.22600505,0
                86.5552843880001,47.297261093,0
                86.454845182,47.3473466400001,0
                86.2909763320001,47.423781712,0
                86.1852564970001,47.4712198880001,0
                86.039905128,47.5238991840001,0
                85.8971898410001,47.5818647520001,0
                85.7703277320001,47.637205528,0
                85.643440222,47.7163218370001,0
                85.458488366,47.745183266,0
                85.3897865590001,47.7609602430001,0
                85.310531961,47.763517302,0
                85.249766621,47.7687358420001,0
                85.183715007,47.776590464,0
                85.078099594,47.726284783,0
                84.9803670260001,47.7156134570001,0
                84.84829202,47.7049054410001,0
                84.7901853390001,47.694276449,0
                84.692401971,47.731156189,0
                84.5391734020001,47.7389176770001,0
                84.4440486930001,47.759949883,0
                84.293447739,47.780922823,0
                84.203623414,47.786110319,0
                84.0794566540001,47.7912611260001,0
                84.008090543,47.828169088,0
                83.9472885150001,47.867730065,0
                83.9050180780001,47.870326635,0
                83.831063865,47.8570389830001,0
                83.7571096510001,47.84375133,0
                83.7095557630001,47.8463422560001,0
                83.622347764,47.8753081070001,0
                83.471769388,47.87514724,0
                83.3476393160001,47.84595561,0
                83.223483845,47.8405395130001,0
                83.0623385660001,47.840367357,0
                82.977823093,47.8217849640001,0
                82.8615871540001,47.821660787,0
                82.795518606,47.8453657640001,0
                82.716230141,47.879623533,0
                82.6263775950001,47.911228287,0
                82.5259581440001,47.942821753,0
                82.4123357080001,47.969117655,0
                82.335700258,47.9928113440001,0
                82.2722593250001,48.0297277720001,0
                82.2246659260001,48.069302861,0
                82.200825481,48.1300371560001,0
                82.147951452,48.166964874,0
                82.1240658520001,48.269966783,0
                82.211177895,48.3308196130001,0
                82.3036157230001,48.3520521980001,0
                82.3775417140001,48.391757109,0
                82.440866935,48.46315144,0
                82.530595304,48.5477826250001,0
                82.6124154280001,48.616554987,0
                82.6652499460001,48.6166114320001,0
                82.7181267970001,48.5770419880001,0
                82.8053404410001,48.542792686,0
                82.889875669,48.542882998,0
                82.9876082380001,48.5535543230001,0
                83.0694509400001,48.6011928790001,0
                83.1274927090001,48.6725815660001,0
                83.1591143970001,48.746583759,0
                83.233006521,48.81798938,0
                83.296351498,48.8708916310001,0
                83.3359040080001,48.9396188370001,0
                83.4150626510001,49.026880459,0
                83.515428479,49.0454797850001,0
                83.5814546930001,49.0614006960001,0
                83.6738671210001,49.1064088140001,0
                83.816458229,49.1646791850001,0
                83.937923998,49.215001799,0
                84.043584566,49.2230398660001,0
                84.1756736820001,49.220539252,0
              </coordinates>
            </LinearRing>
          </outerBoundaryIs>
        </Polygon>
      </Placemark>
    </Document>
  </Document>
</kml>
