<?xml version="1.0" encoding="UTF-8"?>
<kml xmlns="http://www.opengis.net/kml/2.2">
  <Document id="root_doc">
    <Schema id="Bioregions_PA39.schema">
      <SimpleField name="OBJECTID" type="float"/>
      <SimpleField name="Shape_Leng" type="float"/>
      <SimpleField name="Shape_Area" type="float"/>
      <SimpleField name="Bioregions" type="string"/>
    </Schema>
    <Document id="Bioregions_PA39">
      <name>Bioregions_PA39</name>
      <Placemark id="Bioregions_PA39.1">
        <ExtendedData>
          <SchemaData schemaUrl="#Bioregions_PA39.schema">
            <SimpleData name="OBJECTID">132</SimpleData>
            <SimpleData name="Shape_Leng">52.46447866970</SimpleData>
            <SimpleData name="Shape_Area">84.27055554920</SimpleData>
            <SimpleData name="Bioregions">PA39</SimpleData>
          </SchemaData>
        </ExtendedData>
        <Polygon>
          <outerBoundaryIs>
            <LinearRing>
              <coordinates>
                88.3935560210001,43.5241944150001,0
                88.5388528670001,43.520422759,0
                88.654212489,43.517428147,0
                88.935982729,43.531818365,0
                89.1614697950001,43.475702481,0
                89.4292314950001,43.4125869480001,0
                89.689913243,43.384687066,0
                89.9365113800001,43.3497272990001,0
                90.1689989540001,43.335886477,0
                90.338055764,43.3501562800001,0
                90.54183678,43.360078629,0
                90.633912863,43.364561844,0
                90.887508843,43.371877269,0
                91.0617212980001,43.3465731210001,0
                91.176384612,43.3299182810001,0
                91.3736330710001,43.330129006,0
                91.3735051300001,43.4498872440001,0
                91.3925387680001,43.5018683970001,0
                91.5213596280001,43.527535856,0
                91.704564394,43.485464027,0
                91.7953244460001,43.471949017,0
                91.84547704,43.4644806910001,0
                91.990468627,43.4190825160001,0
                92.092122864,43.3872534390001,0
                92.197961794,43.3634730590001,0
                92.310557551,43.3381743680001,0
                92.6699144830001,43.261067897,0
                92.8812683620001,43.247204385,0
                93.0669897120001,43.1958287320001,0
                93.1349495310001,43.1770291380001,0
                93.2882052360001,43.143731056,0
                93.4519922420001,43.1439060340001,0
                93.6844866970001,43.123020583,0
                93.806073821,43.0597489850001,0
                93.9593390780001,43.0176450610001,0
                94.1654670760001,42.9491803220001,0
                94.339860495,42.9123824270001,0
                94.5565102400001,42.886196591,0
                94.7520036000001,42.8811219840001,0
                94.921045834,42.907719867,0
                95.058398647,42.9237169780001,0
                95.1798615930001,42.976681318,0
                95.290746347,43.040201273,0
                95.380514227,43.0878482950001,0
                95.5072606240001,43.1408182810001,0
                95.63396751,43.2307724280001,0
                95.7765247520001,43.3207435090001,0
                95.8821316990001,43.3789743670001,0
                95.9614173420001,43.347358324,0
                95.9615471650001,43.2258389340001,0
                95.8243185310001,43.0936058830001,0
                95.7821863840001,42.966757885,0
                95.697758401,42.8662819890001,0
                95.557074721,42.771029453,0
                95.4609687910001,42.686391455,0
                95.333493741,42.5911530290001,0
                95.2173932690001,42.464226008,0
                95.0113442950001,42.4587224220001,0
                94.8194221540001,42.418010876,0
                94.7490702050001,42.3298780870001,0
                94.6575543450001,42.2699011290001,0
                94.5554527670001,42.2275243890001,0
                94.4286988430001,42.1815990060001,0
                94.316037887,42.1321663750001,0
                94.2244919230001,42.1003678270001,0
                94.1787546890001,42.0510066910001,0
                94.1471518160001,41.9593929930001,0
                94.1332093680001,41.8220081960001,0
                94.1156881730001,41.737454153,0
                94.1193007860001,41.6529226870001,0
                94.1617527860001,41.480375085,0
                94.1513138240001,41.3606055560001,0
                94.0914986750001,41.3006624650001,0
                94.00345996,41.282956885,0
                93.8766721690001,41.2687322130001,0
                93.7674996480001,41.2510040550001,0
                93.6653717290001,41.233283423,0
                93.5738107120001,41.2155740790001,0
                93.492842941,41.173219917,0
                93.5070111680001,41.0992666430001,0
                93.5704539820001,41.060589065,0
                93.640941399,41.0219190110001,0
                93.7361300790001,40.9410076840001,0
                93.7362203900001,40.8564724560001,0
                93.6940656660001,40.7507582650001,0
                93.6060984480001,40.6661289620001,0
                93.532194094,40.60617082,0
                93.5147030030001,40.4934383670001,0
                93.5535499170001,40.398377628,0
                93.602892237,40.3702519,0
                93.708568798,40.3633201870001,0
                93.845938544,40.363466943,0
                94.025575904,40.363658855,0
                94.1347747670001,40.3567309050001,0
                94.1771138780001,40.2898523380001,0
                94.1771966630001,40.2123617120001,0
                94.2441730670001,40.1631209930001,0
                94.339357985,40.0857319670001,0
                94.434531613,40.0189098450001,0
                94.4944685890001,39.964818515,0
                94.557940096,39.8992833090001,0
                94.5932496560001,39.818308012,0
                94.663842436,39.681013525,0
                94.684185115,39.5973803680001,0
                94.6287159770001,39.5920377350001,0
                94.5204052320001,39.5919220230001,0
                94.4068076840001,39.5918006630001,0
                94.2694406690001,39.589012224,0
                94.1188601640001,39.59149304,0
                94.0158334000001,39.594024661,0
                93.9154436970001,39.5939174110001,0
                93.7939194620001,39.599071243,0
                93.6987826960001,39.630670131,0
                93.5693046150001,39.6622326180001,0
                93.4848130730001,39.622516481,0
                93.424090999,39.585467425,0
                93.366028197,39.537854177,0
                93.307960812,39.4902412100001,0
                93.191772422,39.4452075510001,0
                93.059741252,39.392231908,0
                92.9541105970001,39.357776561,0
                92.835264694,39.3259487820001,0
                92.7217112380001,39.288843285,0
                92.62400727,39.2491130330001,0
                92.528941059,39.214668972,0
                92.4100997370001,39.1828411990001,0
                92.3124042370001,39.1351858960001,0
                92.2068046270001,39.071671457,0
                92.077430969,39.0054902190001,0
                91.971808781,38.963109536,0
                91.8661650780001,38.9365795210001,0
                91.757876911,38.915330054,0
                91.6627824780001,38.907303116,0
                91.5941478280001,38.862320546,0
                91.543966556,38.851699904,0
                91.438302035,38.848945332,0
                91.3352848010001,38.8382682430001,0
                91.2507294120001,38.854028316,0
                91.1318626890001,38.845976267,0
                91.0050544730001,38.8484824810001,0
                90.915238376,38.848386528,0
                90.7857885190001,38.853531606,0
                90.622014279,38.8427898950001,0
                90.484647265,38.8400011680001,0
                90.3446255590001,38.8477769250001,0
                90.231052348,38.8291634990001,0
                90.1201010240001,38.826403279,0
                90.0276499920001,38.8183791660001,0
                89.9351989610001,38.810355337,0
                89.834813839,38.810248093,0
                89.742338471,38.820716045,0
                89.6313776160001,38.831164535,0
                89.5336200260001,38.8416271310001,0
                89.443781351,38.8626649330001,0
                89.340727428,38.8863303030001,0
                89.158402096,38.928403077,0
                89.0500772400001,38.94149607,0
                88.9232623170001,38.9545693090001,0
                88.804385369,38.9518006230001,0
                88.6643880010001,38.9410840260001,0
                88.590429858,38.930438268,0
                88.482138868,38.911830486,0
                88.381818659,38.8509633730001,0
                88.329067363,38.7716552740001,0
                88.286876626,38.7002835170001,0
                88.2500019780001,38.5972166270001,0
                88.1786815930001,38.5918570600001,0
                88.12846081,38.6182205600001,0
                88.0174925520001,38.6313107290001,0
                87.9567355470001,38.6312458210001,0
                87.9012900500001,38.5994857740001,0
                87.874961849,38.517564217,0
                87.851269646,38.4382868760001,0
                87.8143131520001,38.4118302420001,0
                87.758883526,38.369503181,0
                87.7192966790001,38.33511839,0
                87.687633696,38.2981003780001,0
                87.6533403600001,38.253154497,0
                87.608446955,38.23725613,0
                87.5397625680001,38.2345410660001,0
                87.4816415610001,38.2371206610001,0
                87.452542958,38.274073759,0
                87.4313474,38.332169079,0
                87.378465218,38.379663801,0
                87.304464743,38.4086435830001,0
                87.2120024220001,38.4111867760001,0
                87.1274921890001,38.384679052,0
                87.032422093,38.358160334,0
                86.966412151,38.3263890010001,0
                86.905715478,38.265564221,0
                86.831825069,38.1915169100001,0
                86.7790077990001,38.1782520510001,0
                86.6944806320001,38.1675947150001,0
                86.575633666,38.1410505960001,0
                86.5016839890001,38.1224795000001,0
                86.4673821870001,38.085458384,0
                86.417279938,38.000869741,0
                86.3671720440001,37.9215641800001,0
                86.301198792,37.8554506740001,0
                86.2299292070001,37.802539944,0
                86.148073664,37.7654683100001,0
                86.066246343,37.7019792680001,0
                85.9817548030001,37.6622631320001,0
                85.868195702,37.6304410000001,0
                85.7414298200001,37.593321388,0
                85.6225913200001,37.5588519300001,0
                85.5090096420001,37.548163555,0
                85.366403802,37.500460274,0
                85.2158853860001,37.444823193,0
                85.0944288850001,37.3865751870001,0
                84.9914539850001,37.3362725580001,0
                84.9095945560001,37.307125979,0
                84.7880731430001,37.309637841,0
                84.685050265,37.3042444050001,0
                84.5899727650001,37.280367223,0
                84.4975499560001,37.245925986,0
                84.3972241010001,37.190342527,0
                84.3021748240001,37.1400480780001,0
                84.228264659,37.0844928400001,0
                84.159596143,37.0712109030001,0
                84.0697867540001,37.0605480680001,0
                83.998463546,37.057830042,0
                83.8848959790001,37.033933248,0
                83.847976175,36.9731340120001,0
                83.81106766,36.9017678970001,0
                83.731900674,36.8224314350001,0
                83.6500423090001,36.7880014850001,0
                83.591932591,36.780014201,0
                83.4914994920001,36.824816293,0
                83.428099086,36.824748561,0
                83.3092616490001,36.784995732,0
                83.1957110160001,36.7452484070001,0
                83.1376746770001,36.668576348,0
                83.0426366880001,36.607715023,0
                82.9317266340001,36.570612349,0
                82.812866619,36.551993274,0
                82.7230787450001,36.525480056,0
                82.6914665630001,36.440910881,0
                82.638678579,36.395945098,0
                82.5594269250001,36.3958604310001,0
                82.459036159,36.4010366970001,0
                82.3533547050001,36.4141323700001,0
                82.226549312,36.4139969,0
                82.123531014,36.4086034700001,0
                82.0495785160001,36.3926740580001,0
                81.9439150580001,36.3846359720001,0
                81.8488308510001,36.371325815,0
                81.753727951,36.3712242130001,0
                81.655953427,36.3975370530001,0
                81.542360461,36.397415698,0
                81.4129162470001,36.3972774100001,0
                81.3019621000001,36.3971588740001,0
                81.196294757,36.3970459860001,0
                81.0800583880001,36.3969218070001,0
                80.987570668,36.4232402960001,0
                80.9056530350001,36.444286559,0
                80.8263590490001,36.483827719,0
                80.73648933,36.5339246130001,0
                80.651888785,36.591952339,0
                80.5567294400001,36.6446851250001,0
                80.4906676360001,36.6657484720001,0
                80.4193398470001,36.6630305830001,0
                80.3216122380001,36.649717459,0
                80.23179156,36.6496215010001,0
                80.139340529,36.6415975300001,0
                80.009907604,36.630892363,0
                79.917414239,36.6624943620001,0
                79.848673407,36.7126136850001,0
                79.7455789090001,36.778546856,0
                79.629246585,36.8682413510001,0
                79.520853995,36.9447356090001,0
                79.43629472,36.968420881,0
                79.3358683280001,37.0026560910001,0
                79.2750859240001,37.0263666210001,0
                79.1772718890001,37.0896636040001,0
                79.0503751210001,37.1793468120001,0
                78.9129177940001,37.2610936790001,0
                78.7993248270001,37.2609723250001,0
                78.709456172,37.3057855600001,0
                78.6011030930001,37.345295961,0
                78.4769411010001,37.345163315,0
                78.3527921570001,37.337105337,0
                78.2497833890001,37.318503197,0
                78.1784347820001,37.3395607530001,0
                78.038350988,37.405454407,0
                77.914121262,37.4687230260001,0
                77.7951924500001,37.518788875,0
                77.649854657,37.5582594790001,0
                77.507168731,37.5898078540001,0
                77.3539166020001,37.6187032560001,0
                77.2297263870001,37.6449877320001,0
                77.013071031,37.676457085,0
                76.9390112880001,37.760913368,0
                76.835883987,37.8532636570001,0
                76.761890915,37.8796020460001,0
                76.7142129960001,37.9957870380001,0
                76.6877323940001,38.0565184000001,0
                76.6321531890001,38.1542031450001,0
                76.6663759690001,38.265192262,0
                76.7085469500001,38.3550560900001,0
                76.7084622830001,38.4343080300001,0
                76.6608453900001,38.497658496,0
                76.5445243550001,38.576786257,0
                76.3303582390001,38.748269663,0
                76.216706006,38.8036245220001,0
                76.1321721310001,38.803534212,0
                75.957770382,38.847376705,0
                75.939373839,38.855237636,0
                75.859100266,38.889539041,0
                75.7897014800001,38.941472554,0
                75.7744977940001,38.9528500760001,0
                75.7676198080001,38.9639997850001,0
                75.7180424480001,39.04436975,0
                75.727201113,39.1089700530001,0
                75.732027486,39.1430092630001,0
                75.682616878,39.234536457,0
                75.5910219500001,39.2485277980001,0
                75.565035713,39.254067175,0
                75.4923744810001,39.2695562000001,0
                75.4218907280001,39.3047039300001,0
                75.318805807,39.37326855,0
                75.3161468550001,39.3750371040001,0
                75.2033882700001,39.41718423,0
                75.090577002,39.508643691,0
                74.9777431580001,39.621236921,0
                74.8437908120001,39.7197181780001,0
                74.805371506,39.7375969060001,0
                74.7380676480001,39.768917668,0
                74.62520356,39.9096893560001,0
                74.615753398,39.9753414310001,0
                74.611009724,40.0082986290001,0
                74.7307387130001,40.036604928,0
                74.8434441350001,40.0437701160001,0
                74.8783912590001,40.0724260470001,0
                74.9208660940001,40.1072543340001,0
                74.9884075910001,40.133603389,0
                75.047617571,40.1567017730001,0
                75.1885399510001,40.1286740400001,0
                75.3505632150001,40.1288471350001,0
                75.4364770590001,40.1641003670001,0
                75.5054794060001,40.1924141650001,0
                75.6181920610001,40.1925345880001,0
                75.7309357330001,40.1644766040001,0
                75.850694554,40.1646045890001,0
                75.9633861670001,40.1858585620001,0
                76.139394892,40.28467139,0
                76.301308202,40.3905135430001,0
                76.471477275,40.499678584,0
                76.4773019500001,40.50341516,0
                76.4853057350001,40.5095492400001,0
                76.596963132,40.5951229390001,0
                76.6673116170001,40.6867780750001,0
                76.7076035910001,40.7242731950001,0
                76.765836784,40.7784630620001,0
                76.8449765230001,40.7609655030001,0
                76.8926703960001,40.750420381,0
                76.9712136570001,40.738104752,0
                77.026540303,40.7294294340001,0
                77.091262364,40.726802052,0
                77.1956187150001,40.722565606,0
                77.385822218,40.722768806,0
                77.48372799,40.737561557,0
                77.5266917390001,40.744052955,0
                77.7732374970001,40.7584056110001,0
                77.93523356,40.786757284,0
                78.012128509,40.82757144,0
                78.0549245540001,40.850286458,0
                78.1161059070001,40.877995733,0
                78.2732011680001,40.949144356,0
                78.3435348720001,41.0544483480001,0
                78.45617271,41.1254550530001,0
                78.5057162960001,41.15856037,0
                78.5617679330001,41.1960138490001,0
                78.6476617650001,41.239076186,0
                78.7307466780001,41.2807298650001,0
                78.913838635,41.3443268510001,0
                78.9466054230001,41.3727859000001,0
                79.0194114320001,41.436019505,0
                79.110863367,41.5558755760001,0
                79.244589934,41.6687324280001,0
                79.4488079800001,41.7393965740001,0
                79.6107814050001,41.7888819410001,0
                79.8643868550001,41.7891529400001,0
                80.110879777,41.8528177480001,0
                80.329231796,41.8812294470001,0
                80.4841902310001,41.902528741,0
                80.7800258620001,41.938067893,0
                80.899478055,41.995106273,0
                80.927887904,42.0086718490001,0
                81.0546892250001,42.0088073150001,0
                81.2378645680001,41.994913878,0
                81.3508100550001,42.010096016,0
                81.449173036,42.0233180160001,0
                81.4580995480001,42.0277931420001,0
                81.5759099160001,42.0868549360001,0
                81.716799284,42.0870054750001,0
                81.836528419,42.11531181,0
                81.998479128,42.1859310310001,0
                82.2027574900001,42.2002384790001,0
                82.371828415,42.2004191020001,0
                82.4824046910001,42.206680691,0
                82.498623007,42.2075990820001,0
                82.5861006370001,42.2645923750001,0
                82.6394177720001,42.299329469,0
                82.7802953670001,42.3135691630001,0
                82.9000318810001,42.334831088,0
                83.054914432,42.4265763870001,0
                83.234701709,42.4323869770001,0
                83.280333913,42.4338617390001,0
                83.4423601120001,42.4340348370001,0
                83.587318979,42.498002081,0
                83.6183914810001,42.511713652,0
                83.8367437250001,42.5401253420001,0
                83.9705919090001,42.540268338,0
                84.1045074680001,42.4770098770001,0
                84.2947096240001,42.477213012,0
                84.442647933,42.4773710590001,0
                84.6469713440001,42.449410958,0
                84.7879013670001,42.414338376,0
                84.914638348,42.4285575420001,0
                84.978082042,42.435675513,0
                85.032866223,42.466568427,0
                85.090730152,42.499197431,0
                85.2668289480001,42.5134747380001,0
                85.4710999170001,42.5348265630001,0
                85.5347138590001,42.553075875,0
                85.6189904450001,42.577252478,0
                85.8232612800001,42.5986044540001,0
                85.942997227,42.619866261,0
                85.994217136,42.6821972110001,0
                86.041494475,42.739729901,0
                86.1823118610001,42.8103263150001,0
                86.4640943300001,42.810627395,0
                86.6613297440001,42.824927259,0
                86.8373760530001,42.888516897,0
                86.861170584,42.882282344,0
                86.971260713,42.8534367570001,0
                87.1332869120001,42.8536098540001,0
                87.20628652,42.869914013,0
                87.2600582260001,42.881923597,0
                87.471427448,42.8539711660001,0
                87.6545345820001,42.903479132,0
                87.6755629410001,43.0021260830001,0
                87.6753446880001,43.20641964,0
                87.7935344750001,43.373653946,0
                87.7949226790001,43.375618187,0
                87.900448209,43.5095784010001,0
                88.083577797,43.5379524680001,0
                88.3935560210001,43.5241944150001,0
              </coordinates>
            </LinearRing>
          </outerBoundaryIs>
        </Polygon>
      </Placemark>
    </Document>
  </Document>
</kml>
