<?xml version="1.0" encoding="UTF-8"?>
<kml xmlns="http://www.opengis.net/kml/2.2">
  <Document id="root_doc">
    <Schema id="Bioregions_PA40.schema">
      <SimpleField name="OBJECTID" type="float"/>
      <SimpleField name="Shape_Leng" type="float"/>
      <SimpleField name="Shape_Area" type="float"/>
      <SimpleField name="Bioregions" type="string"/>
    </Schema>
    <Document id="Bioregions_PA40">
      <name>Bioregions_PA40</name>
      <Placemark id="Bioregions_PA40.1">
        <ExtendedData>
          <SchemaData schemaUrl="#Bioregions_PA40.schema">
            <SimpleData name="OBJECTID">120</SimpleData>
            <SimpleData name="Shape_Leng">171.53416483000</SimpleData>
            <SimpleData name="Shape_Area">201.79182718100</SimpleData>
            <SimpleData name="Bioregions">PA40</SimpleData>
          </SchemaData>
        </ExtendedData>
        <Polygon>
          <outerBoundaryIs>
            <LinearRing>
              <coordinates>
                96.1102654590001,40.0215806570001,0
                96.2053817020001,40.008473628,0
                96.3163454780001,39.998025259,0
                96.4379043800001,39.961170919,0
                96.572666267,39.929614143,0
                96.6625470370001,39.8715921290001,0
                96.76563079,39.8188676780001,0
                96.858170219,39.744998132,0
                96.9717785440001,39.731910859,0
                97.1303018520001,39.713588111,0
                97.3072833750001,39.726985831,0
                97.4789814470001,39.7403779050001,0
                97.6559742590001,39.743208721,0
                97.8171449380001,39.719605345,0
                97.9043416480001,39.7012063970001,0
                98.002161705,39.629984221,0
                98.1342592890001,39.6195584290001,0
                98.2399113910001,39.635521673,0
                98.327105278,39.619764452,0
                98.3931879370001,39.5828508450001,0
                98.4698290320001,39.553873706,0
                98.562300727,39.5434055800001,0
                98.7049708590001,39.5277076250001,0
                98.8477002560001,39.4565334280001,0
                98.974556722,39.406476103,0
                99.1357697340001,39.343246838,0
                99.294352309,39.269447847,0
                99.4370817070001,39.198273649,0
                99.6512110830001,39.0584907780001,0
                99.8996546720001,38.945161855,0
                100.119027988,38.8423687910001,0
                100.341014807,38.7659958080001,0
                100.526006175,38.700150217,0
                100.674030314,38.6184147600001,0
                100.822040341,38.549887932,0
                100.967352198,38.534192799,0
                101.057230145,38.478812512,0
                101.168227788,38.4366634310001,0
                101.273910935,38.4235676920001,0
                101.387496681,38.4316142260001,0
                101.546028457,38.4053663,0
                101.664942811,38.3711508650001,0
                101.754767135,38.365963369,0
                101.873647622,38.363448643,0
                101.997839783,38.3345223040001,0
                102.127318219,38.302959883,0
                102.22512981,38.239662884,0
                102.315027512,38.165790515,0
                102.389083326,38.083976036,0
                102.47371451,37.994247667,0
                102.555701147,37.9071582020001,0
                102.619195702,37.8200489810001,0
                102.717052449,37.714484369,0
                102.849245988,37.6142398960001,0
                103.013078148,37.5721472610001,0
                103.153123487,37.5405961290001,0
                103.327516907,37.503798234,0
                103.533577171,37.498734916,0
                103.663021739,37.498873206,0
                103.805684601,37.4884586950001,0
                103.842725761,37.435663676,0
                103.842807606,37.359053707,0
                103.840264741,37.2692322140001,0
                103.795393914,37.2321999490001,0
                103.742603107,37.189875993,0
                103.674013613,37.1026256270001,0
                103.631840873,37.0101201100001,0
                103.547400131,36.9228528090001,0
                103.478687952,36.949196665,0
                103.478504506,37.1209088480001,0
                103.425647411,37.14198621,0
                103.333170071,37.157737787,0
                103.26184065,37.160303313,0
                103.156180082,37.1522652460001,0
                103.127171897,37.1046831360001,0
                103.127250919,37.0307148110001,0
                103.151105475,36.9567718860001,0
                103.201382934,36.877573732,0
                103.254299297,36.801020126,0
                103.304562644,36.7350306010001,0
                103.426158235,36.663833826,0
                103.558306619,36.6058569680001,0
                103.666665358,36.561063339,0
                103.788272238,36.47929966,0
                103.944230021,36.3896474910001,0
                104.100179338,36.3079205010001,0
                104.216415276,36.308044679,0
                104.311517408,36.308146279,0
                104.403955236,36.329378864,0
                104.480522953,36.369086597,0
                104.570237211,36.466926411,0
                104.652113781,36.482864256,0
                104.697000542,36.504046041,0
                104.744492342,36.5595730840001,0
                104.773503349,36.60451347,0
                104.773449726,36.6547062610001,0
                104.849949709,36.757815416,0
                104.892138301,36.831828896,0
                104.942260537,36.8979256650001,0
                104.997674691,36.9561029020001,0
                105.061050713,36.9799461690001,0
                105.111319704,36.908673192,0
                105.135177082,36.8320885420001,0
                105.09297438,36.7712836900001,0
                105.093033646,36.715807447,0
                105.101009624,36.668264847,0
                105.140660912,36.644531649,0
                105.190915794,36.586467301,0
                105.230612237,36.5204664880001,0
                105.230682794,36.4544233410001,0
                105.140892336,36.427910125,0
                105.141002403,36.3248828160001,0
                105.127855862,36.2667507350001,0
                105.038082339,36.224387166,0
                104.961497687,36.200529788,0
                104.842620023,36.200402787,0
                104.739609647,36.1844423650001,0
                104.64453856,36.1552817790001,0
                104.562704324,36.0997180460001,0
                104.546930169,36.0283745140001,0
                104.565574651,35.885741072,0
                104.623782932,35.8012679330001,0
                104.718964086,35.7274012080001,0
                104.790364063,35.6587925360001,0
                104.861755574,35.598109041,0
                104.909365907,35.5426835980001,0
                104.917440663,35.4026805930001,0
                104.805631119,35.380546736,0
                104.752792838,35.384012592,0
                104.650661156,35.3698142600001,0
                104.520343538,35.362630428,0
                104.400577772,35.369547089,0
                104.273782456,35.3623670200001,0
                104.189292383,35.3200090940001,0
                104.147130132,35.221339506,0
                104.171842685,35.168531328,0
                104.295142042,35.151051527,0
                104.400848707,35.1159414040001,0
                104.457295837,35.0314663840001,0
                104.464475907,34.904671068,0
                104.49989083,34.725071337,0
                104.454112204,34.7144555150001,0
                104.344943445,34.6932050550001,0
                104.27101275,34.657903021,0
                104.207648958,34.6226122750001,0
                104.102010027,34.5943209770001,0
                103.978778404,34.5483993570001,0
                103.89780687,34.509567496,0
                103.908437745,34.449699664,0
                103.950773092,34.3863433990001,0
                104.014227195,34.3370989160001,0
                104.067125684,34.277276241,0
                104.095390642,34.196293417,0
                104.162442305,34.0766066730001,0
                104.303466057,33.9534766520001,0
                104.194353743,33.879391674,0
                104.28261071,33.6928037860001,0
                104.300387787,33.5378413490001,0
                104.290057951,33.315925086,0
                104.142350843,33.100906669,0
                104.068585719,32.910623383,0
                103.955902186,32.8823245580001,0
                103.843301437,32.776535107,0
                103.815081635,32.8152503160001,0
                103.779794652,32.8750918060001,0
                103.737455542,32.9419703730001,0
                103.691597893,33.005322876,0
                103.673715452,33.258909746,0
                103.796898156,33.35062128,0
                103.846086195,33.4669099010001,0
                103.845962016,33.58314584,0
                103.831797552,33.653576812,0
                103.757772782,33.706332307,0
                103.704874294,33.766154982,0
                103.676650729,33.808392493,0
                103.620271332,33.8294660930001,0
                103.53224767,33.797671307,0
                103.507674347,33.7201543410001,0
                103.507764659,33.635619112,0
                103.51142619,33.505297731,0
                103.518628837,33.3573686080001,0
                103.522256501,33.2587479380001,0
                103.522083681,33.019014011,0
                103.494386657,32.9698891370001,0
                103.427658609,32.786657979,0
                103.388996082,32.7091259600001,0
                103.382075658,32.592882495,0
                103.396334196,32.4343939940001,0
                103.34356365,32.3744584290001,0
                103.280158465,32.3779129970001,0
                103.19558937,32.4095233960001,0
                103.114625361,32.363646933,0
                103.047848395,32.22620569,0
                103.005663566,32.148669908,0
                103.005712486,32.1028799920001,0
                103.058603448,32.05010192,0
                103.143244039,31.951567798,0
                103.203213471,31.86709654,0
                103.220952918,31.7473571150001,0
                103.196394647,31.655750944,0
                103.140101799,31.595811616,0
                103.097860526,31.5711103520001,0
                103.037981406,31.571046381,0
                102.971061446,31.5674525840001,0
                102.918339818,31.461727103,0
                102.886684263,31.4194256230001,0
                102.848033025,31.3313267,0
                102.886861123,31.2538774670001,0
                102.95734854,31.215207413,0
                103.013773092,31.1518662,0
                103.006886535,31.0039220250001,0
                102.975272373,30.922875231,0
                102.908431436,30.845313108,0
                102.890883901,30.785415173,0
                102.82750882,30.760691331,0
                102.760585098,30.7606198350001,0
                102.6901466,30.753499972,0
                102.633872567,30.6759491390001,0
                102.559975739,30.608946394,0
                102.55299887,30.545537446,0
                102.556615246,30.4574836800001,0
                102.556735661,30.344770043,0
                102.549800185,30.2426157830001,0
                102.489966221,30.200284197,0
                102.430113441,30.1755641190001,0
                102.401848483,30.2565469420001,0
                102.352472296,30.3163733800001,0
                102.324237442,30.3691777940001,0
                102.31008803,30.425519561,0
                102.285349136,30.5029838470001,0
                102.2677,30.538188043,0
                102.250024524,30.5980483480001,0
                102.249964317,30.654405167,0
                102.316820305,30.7178780850001,0
                102.411820836,30.8130818170001,0
                102.482244282,30.834290884,0
                102.545634414,30.8449255210001,0
                102.616005179,30.9154468040001,0
                102.62298581,30.9753334500001,0
                102.577150739,31.0175521460001,0
                102.510223254,31.0210029510001,0
                102.422146909,31.0385203820001,0
                102.411478406,31.133611224,0
                102.36565086,31.1687853180001,0
                102.228356374,31.098192538,0
                102.213794723,31.2327441420001,0
                102.258986479,31.2761016740001,0
                102.287907174,31.405577286,0
                102.319492173,31.513921915,0
                102.398659282,31.5932583580001,0
                102.499027933,31.609215958,0
                102.636397679,31.609362715,0
                102.784291995,31.6491466480001,0
                102.874051408,31.704718848,0
                102.863360326,31.8209434980001,0
                102.815769748,31.85787686,0
                102.712739617,31.860408518,0
                102.614995759,31.860304096,0
                102.509332369,31.8549077540001,0
                102.451172065,31.8944715540001,0
                102.427323154,31.963131026,0
                102.403395221,32.1057588250001,0
                102.34245208,32.2774060950001,0
                102.284224043,32.380371316,0
                102.17055363,32.4515765580001,0
                102.070094668,32.5201541860001,0
                101.969635706,32.5887318150001,0
                101.869210611,32.625608733,0
                101.792583627,32.6413772430001,0
                101.705406673,32.641284109,0
                101.618198675,32.67024996,0
                101.475548299,32.6674558330001,0
                101.433370996,32.582875449,0
                101.4598447,32.530069154,0
                101.528569084,32.4931583700001,0
                101.639600594,32.4193085790001,0
                101.732131556,32.3533642100001,0
                101.769172163,32.3005692040001,0
                101.859067043,32.22933856,0
                101.935764583,32.147526903,0
                101.920021472,32.0471243860001,0
                101.861948659,32.0047946820001,0
                101.785364008,31.9809373050001,0
                101.674411522,31.980818771,0
                101.563433634,32.0044757700001,0
                101.494714894,32.0361031030001,0
                101.415350228,32.1416874710001,0
                101.351858496,32.226154966,0
                101.251340267,32.350208837,0
                101.161380475,32.4821991750001,0
                101.071508173,32.5322960120001,0
                101.000192863,32.5216529080001,0
                100.95531739,32.489904219,0
                100.955421812,32.392160362,0
                100.966093138,32.2944277930001,0
                101.042762456,32.239033394,0
                101.135284951,32.181014202,0
                101.164417314,32.112360374,0
                101.14335124,32.048936375,0
                101.08529536,31.990756317,0
                101.029852983,31.9589963390001,0
                100.995566991,31.9061251320001,0
                101.000937932,31.824237274,0
                101.05645651,31.784670652,0
                101.133060916,31.7900359490001,0
                101.280935476,31.8483119640001,0
                101.36811243,31.8484050980001,0
                101.455328896,31.8115140690001,0
                101.555813258,31.719160908,0
                101.640387998,31.682267057,0
                101.748769315,31.6163396210001,0
                101.828066246,31.5741566740001,0
                101.870407239,31.5055169570001,0
                101.865284654,31.3549329370001,0
                101.833708123,31.2386631320001,0
                101.770436524,31.117076007,0
                101.699248215,30.987555238,0
                101.627994994,30.9187941650001,0
                101.628045794,30.871243099,0
                101.679170902,30.822866021,0
                101.763826546,30.710242695,0
                101.862548816,30.6187682280001,0
                101.912056708,30.435661248,0
                101.954640412,30.139833105,0
                102.018380502,29.8228937320001,0
                102.046882527,29.520005935,0
                102.096467559,29.2646917800001,0
                102.115964395,29.1484765380001,0
                102.130166488,29.0428225540001,0
                102.13024363,28.97061538,0
                102.073930085,28.9300487090001,0
                102.029886268,28.9440908770001,0
                101.987584788,28.9757464320001,0
                101.943531563,28.9985943520001,0
                101.895976734,29.002065853,0
                101.850245145,28.947421266,0
                101.764022144,28.8786441990001,0
                101.734071295,28.8891791180001,0
                101.712911148,28.9138126490001,0
                101.654766837,28.938406668,0
                101.600169288,28.940109492,0
                101.579135199,28.8467459330001,0
                101.575682513,28.7815795980001,0
                101.533493922,28.7075661170001,0
                101.47713334,28.711028211,0
                101.454189464,28.7567936670001,0
                101.434752836,28.816652091,0
                101.447009393,28.883588983,0
                101.44694166,28.9469904040001,0
                101.434480021,29.0720189260001,0
                101.402672065,29.172370642,0
                101.39724562,29.306212443,0
                101.411302839,29.336167055,0
                101.479963253,29.3591353910001,0
                101.566240817,29.37683909,0
                101.627881087,29.3769049420001,0
                101.68421721,29.3963378060001,0
                101.712369278,29.421024018,0
                101.717558656,29.509087192,0
                101.65415159,29.51430291,0
                101.543129488,29.5793469480001,0
                101.543059873,29.64450952,0
                101.599356484,29.7009265460001,0
                101.659184803,29.7485415830001,0
                101.676700354,29.8383790780001,0
                101.727657069,29.9476249780001,0
                101.713456855,30.0515178110001,0
                101.685176846,30.1465898390001,0
                101.616396017,30.236335141,0
                101.533518457,30.3331099930001,0
                101.473609233,30.361224432,0
                101.364468697,30.3135567140001,0
                101.334487744,30.3522700410001,0
                101.274510787,30.4437859020001,0
                101.24448656,30.523005692,0
                101.272505042,30.672733597,0
                101.307600113,30.7925294660001,0
                101.307411964,30.968644526,0
                101.287943351,31.058442509,0
                101.231496221,31.14291753,0
                101.155695249,31.209760348,0
                101.060572421,31.2290314040001,0
                100.981283014,31.2641697490001,0
                100.879021509,31.3714908090001,0
                100.790832275,31.4946772750001,0
                100.688567007,31.605520637,0
                100.632117996,31.691756808,0
                100.524608787,31.7656103620001,0
                100.473473331,31.8236737670001,0
                100.425924146,31.8218618170001,0
                100.385417683,31.8218185420001,0
                100.374944854,31.7337497240001,0
                100.41200992,31.6580597600001,0
                100.475507298,31.568308814,0
                100.535499307,31.4627037490001,0
                100.613072718,31.385295909,0
                100.695931463,31.3061325620001,0
                100.761167413,31.2375173040001,0
                100.858130414,31.1442798040001,0
                100.940968463,31.0844891150001,0
                101.007991904,30.99121963,0
                101.043335332,30.8785436220001,0
                101.039918394,30.7799154260001,0
                101.040099017,30.6108449700001,0
                101.029599847,30.5474322590001,0
                100.95390612,30.5138894940001,0
                100.832362269,30.5366546290001,0
                100.71784797,30.573516495,0
                100.596281542,30.617415436,0
                100.465890547,30.678916477,0
                100.375985318,30.7598334480001,0
                100.342444434,30.8337660240001,0
                100.398637563,30.9870463340001,0
                100.370342501,31.096207566,0
                100.347297025,31.2370751550001,0
                100.283705573,31.4148836300001,0
                100.253656887,31.516998379,0
                100.188420937,31.5856136370001,0
                100.052727674,31.664720538,0
                99.909976639,31.7561479680001,0
                99.7654531640001,31.858140421,0
                99.6773279010001,31.9214477680001,0
                99.5274852260001,32.056896437,0
                99.3688367980001,32.192335697,0
                99.1925542870001,32.348889952,0
                99.018087489,32.45437272,0
                98.8947617920001,32.4965086290001,0
                98.822594129,32.459447326,0
                98.8032816800001,32.4030698110001,0
                98.8544096100001,32.3520510070001,0
                98.9478277330001,32.279943551,0
                99.0500290300001,32.228979311,0
                99.1769485250001,32.119923441,0
                99.2703610020001,32.0530994380001,0
                99.3215265630001,31.9668576220001,0
                99.3761655050001,31.926409484,0
                99.4907211980001,31.850802306,0
                99.6123177300001,31.778724955,0
                99.7269035260001,31.674939367,0
                99.792190276,31.558773043,0
                99.8926868680001,31.4549724030001,0
                99.98087422,31.3335470870001,0
                100.090197261,31.210383198,0
                100.143137142,31.111815209,0
                100.159085335,31.020252312,0
                100.129260545,30.9127901410001,0
                100.083624912,30.768326874,0
                100.103131155,30.643305878,0
                100.171923272,30.5429936730001,0
                100.240692812,30.4638152740001,0
                100.330596159,30.384659454,0
                100.425735921,30.3495380420001,0
                100.517327041,30.3390689760001,0
                100.566678769,30.3021374960001,0
                100.580848877,30.226423072,0
                100.640816428,30.1437129650001,0
                100.691961291,30.0768438060001,0
                100.76070449,30.022321515,0
                100.840031527,29.9519601590001,0
                100.864774183,29.8709735730001,0
                100.898358341,29.756534532,0
                100.940714385,29.673805611,0
                100.923208243,29.5751623630001,0
                100.831656634,29.548647266,0
                100.799869375,29.629626327,0
                100.773388146,29.689477224,0
                100.75218096,29.75813952,0
                100.70103986,29.821486377,0
                100.646417851,29.84608416,0
                100.598836682,29.8742117690001,0
                100.521278322,29.9375304050001,0
                100.406733918,30.0025706800001,0
                100.334543678,29.9866431830001,0
                100.299371466,29.9390544880001,0
                100.318823145,29.865106859,0
                100.380572542,29.763025977,0
                100.470434496,29.7226154690001,0
                100.553236796,29.696286641,0
                100.62550606,29.638245812,0
                100.706656335,29.509768368,0
                100.77900274,29.3795203650001,0
                100.877785218,29.231689079,0
                100.920160077,29.1313486510001,0
                101.027791583,28.9430203090001,0
                101.091356694,28.7898679410001,0
                101.158461039,28.6208689810001,0
                101.207923775,28.480029616,0
                101.248601454,28.319808186,0
                101.278648258,28.2194545880001,0
                101.229424472,28.136627828,0
                101.132576242,28.122435142,0
                101.069189872,28.1082782030001,0
                100.993554471,28.0201397700001,0
                100.926666498,27.9866064120001,0
                100.891407737,28.020030644,0
                100.877224458,28.1080731210001,0
                100.903598443,28.1486078070001,0
                100.944054106,28.1962021470001,0
                100.998482322,28.3530028760001,0
                101.012464281,28.453403511,0
                100.966474929,28.6400365550001,0
                100.90291358,28.789666622,0
                100.846430701,28.9076035030001,0
                100.761714851,29.076583649,0
                100.689396668,29.180414393,0
                100.583656136,29.2472252260001,0
                100.506176799,29.2365755370001,0
                100.522134399,29.136206886,0
                100.516928089,29.0639940680001,0
                100.508178781,29.0111501420001,0
                100.520572687,28.9495230430001,0
                100.578743338,28.900272914,0
                100.617558266,28.8351517360001,0
                100.645815698,28.7612135150001,0
                100.649417022,28.6872489530001,0
                100.610720628,28.641417645,0
                100.531425577,28.6818394420001,0
                100.494503504,28.6236819600001,0
                100.51217898,28.5638216560001,0
                100.529858219,28.5004390490001,0
                100.521167238,28.392999456,0
                100.463036097,28.405265421,0
                100.350337512,28.391055801,0
                100.375076406,28.313591515,0
                100.378651389,28.2642830620001,0
                100.357622945,28.165636052,0
                100.280151133,28.14794176,0
                100.209599747,28.2464909330001,0
                100.170749071,28.3450739730001,0
                100.141042348,28.462287474,0
                100.105381416,28.5369697730001,0
                100.057700528,28.6584383630001,0
                100.068150778,28.767640989,0
                100.097964279,28.8856700640001,0
                100.126037324,28.984324601,0
                100.145289566,29.0970589350001,0
                100.145161625,29.2168171750001,0
                100.118578794,29.371770204,0
                100.081496795,29.4633105240001,0
                100.011043246,29.470279867,0
                99.937076802,29.468439694,0
                99.9353815040001,29.4067975410001,0
                99.9389922340001,29.324027227,0
                99.933855539,29.1866518360001,0
                99.92865111,29.1126778660001,0
                99.8231006090001,29.0016124900001,0
                99.7862519130001,28.8747701360001,0
                99.7229408040001,28.790167174,0
                99.6313854320001,28.767174379,0
                99.634804251,28.864041424,0
                99.6487410560001,29.006709674,0
                99.6011561220001,29.038359585,0
                99.5640760040001,29.1281387540001,0
                99.611542403,29.207441331,0
                99.6853583270001,29.3501735510001,0
                99.7380460890001,29.487599742,0
                99.653414904,29.5773281100001,0
                99.6321625640001,29.688258019,0
                99.626726712,29.8309055730001,0
                99.6794483400001,29.936631053,0
                99.732175613,30.0370730810001,0
                99.8006685730001,30.2167838190001,0
                99.8639063050001,30.3700716550001,0
                99.7950859650001,30.4968011190001,0
                99.705222129,30.538972777,0
                99.641894085,30.4702201700001,0
                99.5520866950001,30.459557311,0
                99.4623639700001,30.369642674,0
                99.377902121,30.30086749,0
                99.330277676,30.369501563,0
                99.3089632460001,30.538549442,0
                99.287660105,30.6970304170001,0
                99.2346788310001,30.8343437180001,0
                99.1077292320001,30.9715779970001,0
                99.1499404020001,31.0244576700001,0
                99.2555812150001,31.0509878190001,0
                99.3612446060001,31.0563841600001,0
                99.3822881020001,31.1409419660001,0
                99.2871257620001,31.1971971840001,0
                99.1919784740001,31.239363198,0
                99.1461208250001,31.3027157000001,0
                99.2024249620001,31.3520881250001,0
                99.279911826,31.3556932120001,0
                99.3433132470001,31.355760945,0
                99.385584624,31.3522838000001,0
                99.471818914,31.4104939630001,0
                99.4136219220001,31.4844001980001,0
                99.3184802790001,31.521282759,0
                99.218066472,31.5475927740001,0
                99.1282477930001,31.5474968180001,0
                99.101740222,31.632003824,0
                99.0382428450001,31.7217547700001,0
                98.932551232,31.7427756880001,0
                98.8322108040001,31.7004008280001,0
                98.784631516,31.726767287,0
                98.731672819,31.8429467820001,0
                98.6839580640001,31.9961160830001,0
                98.6310388790001,32.0753114140001,0
                98.5796813540001,32.0968710650001,0
                98.482194667,32.009114599,0
                98.3615094610001,32.1437084200001,0
                98.2979499940001,32.291577336,0
                98.3560397410001,32.3180566840001,0
                98.419401651,32.355108579,0
                98.3823328220001,32.4343208450001,0
                98.2765791190001,32.5134597320001,0
                98.2131043200001,32.5820768720001,0
                98.1126792250001,32.618953789,0
                98.0070440570001,32.587140189,0
                97.8908814960001,32.5183311370001,0
                97.9015612890001,32.4126733910001,0
                97.9069971420001,32.270025838,0
                97.8595646090001,32.1590225510001,0
                97.9177559570001,32.0903997670001,0
                98.0499833630001,31.958454584,0
                98.235101731,31.773731329,0
                98.2686651930001,31.678664945,0
                98.3251349020001,31.5730561170001,0
                98.360538536,31.4040232900001,0
                98.367688501,31.305406384,0
                98.367814561,31.1874092940001,0
                98.4948262490001,30.9920570460001,0
                98.5900582040001,30.8706392550001,0
                98.6642184410001,30.6910809180001,0
                98.6909179230001,30.426936552,0
                98.691138057,30.2208819320001,0
                98.754720101,30.051879209,0
                98.7549063690001,29.877525301,0
                98.7867481920001,29.745472874,0
                98.9084877160001,29.5395480780001,0
                98.99323179,29.344150674,0
                98.9988087550001,29.0694168260001,0
                98.9090521630001,29.0112029000001,0
                98.8843151510001,29.086906035,0
                98.8065987460001,29.2981613200001,0
                98.693636752,29.5305127830001,0
                98.4889444080001,29.903658455,0
                98.3266701960001,30.135957236,0
                98.1785755020001,30.2837358410001,0
                97.953020285,30.403253249,0
                97.7415015910001,30.5720979270001,0
                97.5370651300001,30.7057271200001,0
                97.4381772880001,30.952182839,0
                97.353401229,31.1775198030001,0
                97.282729427,31.388782614,0
                97.205028074,31.5859486950001,0
                97.0922316510001,31.663318905,0
                96.986412096,31.804098063,0
                97.000313152,31.980228174,0
                97.052967046,32.1493550750001,0
                96.9753672940001,32.251419024,0
                96.9224161240001,32.3605539160001,0
                96.87650203,32.4767409360001,0
                96.8622924100001,32.5894395220001,0
                96.7742160660001,32.6069569540001,0
                96.7072923440001,32.606885457,0
                96.6545481370001,32.5222937830001,0
                96.5736405740001,32.423582803,0
                96.5066415920001,32.4939573290001,0
                96.446717316,32.5361609720001,0
                96.376196033,32.6065317370001,0
                96.2952056840001,32.5853113810001,0
                96.274165951,32.4972312730001,0
                96.3094755110001,32.4162559760001,0
                96.4046566650001,32.342389252,0
                96.49987545,32.233299516,0
                96.5844897010001,32.159421503,0
                96.65508248,32.0221270160001,0
                96.5811630740001,31.9762580780001,0
                96.5143334270001,31.8881290520001,0
                96.4297981980001,31.8880387410001,0
                96.3312113950001,31.8527103650001,0
                96.2855268430001,31.7540370140001,0
                96.2821249570001,31.6413196130001,0
                96.356130911,31.6061756240001,0
                96.4935646280001,31.54644326,0
                96.6028312240001,31.476113889,0
                96.7015647840001,31.374072518,0
                96.7510613860001,31.201532442,0
                96.8533511140001,31.0677941230001,0
                96.952099725,30.9516635470001,0
                97.1037167210001,30.8038887060001,0
                97.3328469210001,30.6350628440001,0
                97.4422000650001,30.483720545,0
                97.5338626820001,30.4063277560001,0
                97.7277472920001,30.2585980710001,0
                97.949844178,30.079197778,0
                98.0627309130001,29.917292339,0
                98.189699326,29.7624465540001,0
                98.2709267440001,29.561761936,0
                98.3909408660001,29.322373397,0
                98.4474933600001,29.139273944,0
                98.4617142690001,29.016008454,0
                98.447756768,28.8927128610001,0
                98.3773408490001,28.864459192,0
                98.3385541430001,28.9031631120001,0
                98.271510005,29.0158052530001,0
                98.1762385390001,29.1742072060001,0
                98.0668628160001,29.346683311,0
                98.0103931080001,29.4522921390001,0
                97.915200665,29.5367257670001,0
                97.7882661190001,29.659870841,0
                97.6824616160001,29.786560794,0
                97.6013395620001,29.8886209790001,0
                97.5589628220001,29.9907225580001,0
                97.4637139330001,30.1279907040001,0
                97.223967912,30.3425951930001,0
                97.047724912,30.462165284,0
                96.8749741080001,30.6099175470001,0
                96.691645113,30.7682254260001,0
                96.5541173220001,30.9160153190001,0
                96.3777952990001,31.1095537360001,0
                96.2579279320001,31.211572528,0
                96.1276216030001,31.1938217920001,0
                96.0148477580001,31.2500581960001,0
                95.944401735,31.249982936,0
                95.881015366,31.2358259970001,0
                95.747164157,31.239205306,0
                95.6520770770001,31.2250145,0
                95.551323966,31.192545296,0
                95.4723305910001,31.326969322,0
                95.599110855,31.348238597,0
                95.5919909940001,31.418677094,0
                95.5249920110001,31.489051622,0
                95.5002794590001,31.5418597980001,0
                95.4192251380001,31.5805185630001,0
                95.3487189080001,31.6368001220001,0
                95.221893487,31.6577984620001,0
                95.0738702890001,31.7386533440001,0
                95.031561282,31.7773535010001,0
                94.9856998700001,31.8442283050001,0
                94.9258169870001,31.847686636,0
                94.8624419070001,31.822962794,0
                94.851995419,31.710237867,0
                94.8661410670001,31.657418401,0
                94.901428051,31.597576911,0
                94.9472969880001,31.5236575050001,0
                95.0284002270001,31.439208825,0
                95.0249682370001,31.354669834,0
                94.9474813740001,31.3510647470001,0
                94.8769638540001,31.4179132090001,0
                94.767791333,31.400185052,0
                94.7218170310001,31.5727288910001,0
                94.746379065,31.660812761,0
                94.6899658010001,31.7135870710001,0
                94.6722827990001,31.780491979,0
                94.654573455,31.872052995,0
                94.6017125970001,31.8966526580001,0
                94.55940359,31.935352815,0
                94.5382058120001,31.9952093570001,0
                94.488886069,32.002201278,0
                94.3867393360001,32.0020921510001,0
                94.2986667540001,32.0160872810001,0
                94.210571594,32.051216219,0
                94.0590938300001,32.068665917,0
                93.9181904930001,32.079082301,0
                93.7632280560001,32.0613052240001,0
                93.6858390300001,31.966120307,0
                93.5872145980001,31.9660149440001,0
                93.495710026,31.8954710830001,0
                93.372478404,31.849549462,0
                93.245713191,31.814190984,0
                93.108354734,31.803477324,0
                93.062670182,31.704803972,0
                93.0909200880001,31.6379103530001,0
                93.1472957220001,31.620359056,0
                93.207216235,31.581677713,0
                93.3093629690001,31.5817868400001,0
                93.3516757390001,31.539564381,0
                93.4432781470001,31.518528411,0
                93.545364674,31.574994357,0
                93.6017177290001,31.5785768650001,0
                93.650988554,31.61737486,0
                93.7602363350001,31.5646569950001,0
                93.8201079290001,31.571765568,0
                93.9116538930001,31.603564116,0
                94.0138006270001,31.6036732420001,0
                94.0983019880001,31.6354642650001,0
                94.144091904,31.6355131830001,0
                94.2216088700001,31.61093986,0
                94.3026217980001,31.611026409,0
                94.3625648880001,31.5512112600001,0
                94.327424663,31.4736830040001,0
                94.2569711130001,31.480652347,0
                94.2147411280001,31.445384179,0
                94.1689926060001,31.406589947,0
                94.0774203010001,31.399447507,0
                94.0034369240001,31.41345769,0
                93.9224202340001,31.4168934420001,0
                93.8554965120001,31.416821946,0
                93.756883368,31.4061496790001,0
                93.6723744800001,31.381403259,0
                93.5526651590001,31.3354854020001,0
                93.461119195,31.303686854,0
                93.4541498520001,31.2332333050001,0
                93.517630296,31.1593327140001,0
                93.6198297120001,31.110129624,0
                93.7607405740001,31.092668637,0
                93.848745422,31.1420749280001,0
                93.887434291,31.1949508380001,0
                93.9649173910001,31.202078226,0
                94.0143048670001,31.131684885,0
                94.1129744550001,31.089522634,0
                94.2186434910001,31.089635523,0
                94.3136929400001,31.13904934,0
                94.352396861,31.177836046,0
                94.3593662040001,31.2482895950001,0
                94.3645324660001,31.353876433,0
                94.4895257760001,31.403410078,0
                94.5248315730001,31.3259570810001,0
                94.5741889450001,31.283742149,0
                94.6341621400001,31.1957485900001,0
                94.7610026120001,31.160661045,0
                94.8772310260001,31.1678298260001,0
                94.95123698,31.1326858360001,0
                95.0181719920001,31.12219043,0
                95.081592227,31.104646658,0
                95.1308969180001,31.111743942,0
                95.1802279490001,31.094185118,0
                95.2753187930001,31.1048536210001,0
                95.35272287,31.185949334,0
                95.4091624750001,31.108518916,0
                95.409241497,31.034550591,0
                95.4586440250001,30.950068045,0
                95.5326161130001,30.9466247660001,0
                95.6101857620001,30.8727392260001,0
                95.694698412,30.893963345,0
                95.7616484750001,30.8693787330001,0
                95.8602841970001,30.858917193,0
                95.9799445990001,30.950624965,0
                96.0434212810001,30.8802466760001,0
                96.1139801940001,30.774652899,0
                96.1915310270001,30.718378866,0
                96.2831334350001,30.6973428960001,0
                96.3747960520001,30.6199501080001,0
                96.4382727320001,30.5495718190001,0
                96.5088015410001,30.472156452,0
                96.5863674280001,30.4017932140001,0
                96.6568887110001,30.33142245,0
                96.8260645300001,30.2329786390001,0
                96.9071640060001,30.1520522610001,0
                96.8614079580001,30.1203026320001,0
                96.7698544680001,30.095548686,0
                96.7276508250001,30.03562441,0
                96.738319328,29.940533568,0
                96.7666294420001,29.8172831300001,0
                96.727914233,29.7890633270001,0
                96.6750947670001,29.7749176780001,0
                96.6468599130001,29.827722092,0
                96.6080393410001,29.8981267230001,0
                96.5552010600001,29.9015925790001,0
                96.4636663840001,29.859227128,0
                96.4037345830001,29.908475373,0
                96.33678452,29.933059986,0
                96.280397597,29.961178187,0
                96.143091822,29.901152311,0
                96.1148644940001,29.9469121220001,0
                96.1042486710001,29.9926907490001,0
                96.1041696490001,30.066659073,0
                96.0794345180001,30.1406010580001,0
                96.0547257280001,30.189886933,0
                96.0194349820001,30.2532507240001,0
                95.9419293050001,30.267257144,0
                95.867942165,30.2847896270001,0
                95.7974923780001,30.2882366690001,0
                95.79743217,30.344593488,0
                95.797326808,30.443217921,0
                95.797281652,30.4854855350001,0
                95.7655132080001,30.548853089,0
                95.723159045,30.629820861,0
                95.6210085480001,30.633234035,0
                95.6351993520001,30.5381469550001,0
                95.6599532990001,30.446593466,0
                95.6600247950001,30.3796697430001,0
                95.635417605,30.3338534870001,0
                95.5579495570001,30.312636895,0
                95.4804363530001,30.333687916,0
                95.4451907640001,30.354784094,0
                95.41694462,30.418155411,0
                95.430981144,30.4674826790001,0
                95.504915602,30.4992624120001,0
                95.4766581700001,30.5732006330001,0
                95.4624598390001,30.675332316,0
                95.3884877510001,30.6787755940001,0
                95.314542004,30.657562764,0
                95.2687897180001,30.6222908340001,0
                95.2618241380001,30.5483149830001,0
                95.212557078,30.5059946870001,0
                95.163308832,30.4460628850001,0
                95.0752588280001,30.4389242080001,0
                94.9907198370001,30.442356198,0
                94.9343216250001,30.481041303,0
                94.9272055260001,30.5479575000001,0
                94.920081902,30.6219182990001,0
                94.84611734,30.618316975,0
                94.7263779150001,30.600577528,0
                94.6207088790001,30.6004646380001,0
                94.5854181330001,30.66382843,0
                94.5044390740001,30.632041171,0
                94.4199188970001,30.6178616550001,0
                94.3529838850001,30.628357061,0
                94.254340638,30.6458632040001,0
                94.204998318,30.673988932,0
                94.2049268210001,30.7409126540001,0
                94.257746287,30.7550583030001,0
                94.3316957970001,30.772748832,0
                94.402149346,30.7657794890001,0
                94.4831434580001,30.783477544,0
                94.5077393590001,30.839860704,0
                94.5076979660001,30.878606017,0
                94.468851053,30.9736667550001,0
                94.3984050290001,30.973591496,0
                94.32094827,30.941807999,0
                94.2540396000001,30.9276472990001,0
                94.173026672,30.9275607500001,0
                94.0356456380001,30.937980898,0
                93.9652071390001,30.9308610350001,0
                93.8771533730001,30.92724466,0
                93.7679131180001,30.9729179220001,0
                93.6974896720001,30.951708856,0
                93.7609851670001,30.8637190600001,0
                93.7540233510001,30.7862209080001,0
                93.704711134,30.786168226,0
                93.644809437,30.8072380630001,0
                93.549703541,30.810658764,0
                93.461634723,30.8211315930001,0
                93.3665551700001,30.7998961860001,0
                93.3349410070001,30.718849392,0
                93.468818556,30.690813975,0
                93.6097444700001,30.659263783,0
                93.743580626,30.6699736800001,0
                93.8422765550001,30.603155321,0
                93.8529262440001,30.5256759850001,0
                93.9761729190001,30.557508399,0
                94.124109569,30.5576664450001,0
                94.2333460610001,30.5155154830001,0
                94.381327866,30.4734059130001,0
                94.5469174150001,30.43483746,0
                94.649109304,30.392678973,0
                94.7935499930001,30.3681771460001,0
                94.881731701,30.2520352830001,0
                94.839531821,30.188588705,0
                94.747918123,30.2201915790001,0
                94.6351668550001,30.2552941750001,0
                94.5083226200001,30.2939040210001,0
                94.4026422970001,30.3043580340001,0
                94.3251704850001,30.2866637440001,0
                94.3323016360001,30.205658342,0
                94.4274564500001,30.1564477260001,0
                94.4064204800001,30.064845317,0
                94.4804377240001,30.0191344250001,0
                94.550947718,29.959330564,0
                94.5581164980001,29.843102151,0
                94.494752707,29.807811406,0
                94.4383319170001,29.8676303180001,0
                94.3361325010001,29.9168334080001,0
                94.3149309610001,29.9802122520001,0
                94.2268546170001,29.997729683,0
                94.117719724,29.9447785130001,0
                94.0296621950001,29.9446844390001,0
                93.9521527540001,29.962213159,0
                93.832353121,30.0008305310001,0
                93.790059166,30.0254414830001,0
                93.786472895,30.0853168400001,0
                93.8604261670001,30.099485067,0
                93.9837029460001,30.1031390730001,0
                94.0999388850001,30.103263251,0
                94.135116741,30.1455684950001,0
                94.170230626,30.2477528590001,0
                94.106795338,30.2793858360001,0
                94.0151891660001,30.3039441070001,0
                93.9200719830001,30.3179317120001,0
                93.8390891590001,30.2896667540001,0
                93.7827511560001,30.271995039,0
                93.7193647860001,30.2578381010001,0
                93.6523959080001,30.3000342190001,0
                93.6171315030001,30.338741902,0
                93.4973958410001,30.3174801540001,0
                93.4515720590001,30.3491319450001,0
                93.409214133,30.433622019,0
                93.352819685,30.4687848230001,0
                93.292936802,30.4722431530001,0
                93.3212356270001,30.359559619,0
                93.3001921310001,30.2750018130001,0
                93.3249385510001,30.1904929250001,0
                93.3249949950001,30.137658408,0
                93.2439895940001,30.130527257,0
                93.1699949280001,30.1551043420001,0
                93.1734231550001,30.243165635,0
                93.1768024630001,30.377016843,0
                93.1380157570001,30.415720763,0
                93.08870354,30.415668081,0
                93.039364983,30.440271508,0
                92.9935148610001,30.4965794080001,0
                92.9265422190001,30.542297827,0
                92.9020178150001,30.4189909450001,0
                92.8492811350001,30.327354669,0
                92.7823687010001,30.316716269,0
                92.750686806,30.299070896,0
                92.7401951620001,30.2286135840001,0
                92.761423043,30.140578632,0
                92.7192081110001,30.0912212600001,0
                92.6382215250001,30.0664786030001,0
                92.5712789870001,30.0840186120001,0
                92.490235957,30.112110473,0
                92.3951338250001,30.112008873,0
                92.30005427,30.090773465,0
                92.2507984980001,30.0378862650001,0
                92.3248195050001,29.988653072,0
                92.3917921460001,29.9429346530001,0
                92.4376422700001,29.886626753,0
                92.472917963,29.8373521670001,0
                92.5046864070001,29.773984612,0
                92.5926573880001,29.8550916130001,0
                92.6806547100001,29.911542507,0
                92.726410758,29.943292136,0
                92.807423686,29.943378684,0
                92.8566982730001,29.978654378,0
                92.962303337,30.0386463880001,0
                93.043335079,30.0211214300001,0
                93.1701981290001,29.9649000790001,0
                93.2055039260001,29.887447083,0
                93.2372761330001,29.8205572270001,0
                93.3253411890001,29.813606699,0
                93.3499069860001,29.8981682690001,0
                93.4696313590001,29.9299969200001,0
                93.5682896590001,29.8984015730001,0
                93.6036142710001,29.803337071,0
                93.705723376,29.838669209,0
                93.7727298830001,29.76125008,0
                93.8501866430001,29.793033576,0
                93.934793368,29.726200165,0
                94.0650808820001,29.761562407,0
                94.1425715080001,29.761645193,0
                94.198977245,29.715915485,0
                94.2624351110001,29.6631487010001,0
                94.2519622820001,29.5750798830001,0
                94.2450042280001,29.4940594290001,0
                94.202796822,29.4376574550001,0
                94.1182804090001,29.419955638,0
                94.100582354,29.500949749,0
                94.040650552,29.5501979950001,0
                93.9948982670001,29.5149260650001,0
                93.9138477100001,29.5500625280001,0
                93.8469804320001,29.497156514,0
                93.8963603820001,29.433807775,0
                93.921076698,29.377477297,0
                93.8753206490001,29.3457276670001,0
                93.7907854210001,29.3456373550001,0
                93.6991679610001,29.38076253,0
                93.611061513,29.426458371,0
                93.5194177110001,29.486239653,0
                93.456061445,29.443904305,0
                93.4878712830001,29.341791438,0
                93.4069223260001,29.2818257690001,0
                93.350667108,29.1866634300001,0
                93.276736413,29.151361396,0
                93.1991253720001,29.2639922480001,0
                93.0934187070001,29.2991023700001,0
                93.001876505,29.2637815210001,0
                92.89620747,29.263668631,0
                92.7482331910001,29.2987335980001,0
                92.6425114730001,29.3479329250001,0
                92.4874474360001,29.42525798,0
                92.346525285,29.453285871,0
                92.2196998650001,29.4742842100001,0
                92.099941625,29.474156269,0
                92.001324717,29.4670063030001,0
                91.8533955940001,29.4598036560001,0
                91.7053912110001,29.5230470320001,0
                91.5151944730001,29.515799228,0
                91.374355108,29.466336493,0
                91.2334028530001,29.5225427930001,0
                91.113629561,29.5365040560001,0
                91.0149976020001,29.543443295,0
                91.0430405440001,29.6702762410001,0
                91.1627536280001,29.712671797,0
                91.2543184070001,29.7268588380001,0
                91.3740164390001,29.783343599,0
                91.5359068260001,29.9103195390001,0
                91.719051435,29.9246044180001,0
                91.7964592770001,30.0021778300001,0
                91.8667999370001,30.1008775230001,0
                91.7963087570001,30.1430698770001,0
                91.5497928300001,30.100538854,0
                91.458182896,30.1286194260001,0
                91.2397776450001,30.1495199290001,0
                91.1200269300001,30.1423473850001,0
                90.9368672690001,30.1421517100001,0
                90.739588299,30.170119393,0
                90.5352797790001,30.1839903440001,0
                90.4366628720001,30.1768403790001,0
                90.3311067260001,30.071058454,0
                90.274855271,29.972373813,0
                90.3313174530001,29.873809588,0
                90.4511208490001,29.8316699150001,0
                90.556774832,29.8458720090001,0
                90.7258528150001,29.8390080300001,0
                90.852761021,29.7405190640001,0
                90.831717525,29.655961258,0
                90.726063541,29.6417591630001,0
                90.62038698,29.648690877,0
                90.500719051,29.564027707,0
                90.451519724,29.45830599,0
                90.289426136,29.5215343150001,0
                90.2611574150001,29.606039439,0
                90.169555007,29.6270754080001,0
                90.0709004700001,29.655148454,0
                90.04283495,29.5494493150001,0
                89.979456107,29.5282477740001,0
                89.8526683160001,29.5140231020001,0
                89.718820871,29.5138801090001,0
                89.6905747280001,29.577251426,0
                89.6552839830001,29.6406152180001,0
                89.570733703,29.6546141110001,0
                89.4510356700001,29.5981293510001,0
                89.2256460240001,29.5626655090001,0
                89.176145659,29.738727886,0
                89.0844679910001,29.8302098790001,0
                88.9717468270001,29.837134066,0
                88.971897346,29.6962420190001,0
                88.943854404,29.569409073,0
                88.817036509,29.58336281,0
                88.6620552570001,29.5831972390001,0
                88.5492814120001,29.639433642,0
                88.4507322380001,29.5688822550001,0
                88.338018601,29.56876184,0
                88.2463710370001,29.6320654240001,0
                88.1618358090001,29.6319751120001,0
                87.9716616490001,29.603593502,0
                87.8518808300001,29.6245993680001,0
                87.6968770010001,29.6455676040001,0
                87.612386928,29.603209678,0
                87.5067856260001,29.539695368,0
                87.3024996840001,29.5324325120001,0
                87.1333915980001,29.5674749020001,0
                87.112355628,29.4758724920001,0
                87.112498621,29.342025048,0
                86.9645619720001,29.3418670030001,0
                86.7673131050001,29.341656276,0
                86.5629820080001,29.376661035,0
                86.415045358,29.3765029900001,0
                86.2530195030001,29.376329893,0
                86.154334862,29.432581348,0
                86.0663375410001,29.3761304550001,0
                85.992369216,29.3760514320001,0
                85.949988713,29.481675312,0
                85.8548978690001,29.471006807,0
                85.6928870670001,29.4567445060001,0
                85.5695801850001,29.48126891,0
                85.4919954840001,29.569243654,0
                85.3933710520001,29.5691382900001,0
                85.301700909,29.6535756810001,0
                85.2241801800001,29.6816713050001,0
                85.0762397670001,29.6850355610001,0
                85.0163004390001,29.7413284090001,0
                84.9669656450001,29.7624095350001,0
                84.910612589,29.7588270260001,0
                84.8401929060001,29.734095659,0
                84.7239231,29.76567219,0
                84.6041799120001,29.7514550450001,0
                84.5125586890001,29.7901025200001,0
                84.4033297220001,29.8252088790001,0
                84.2870749690001,29.8426962070001,0
                84.230718149,29.842635999,0
                84.1285751790001,29.8390045720001,0
                84.054606854,29.8389255490001,0
                84.044111446,29.7719905380001,0
                84.0582759110001,29.7015595670001,0
                84.0935516050001,29.65228498,0
                84.1992281660001,29.645353266,0
                84.304908491,29.6348992530001,0
                84.3859214180001,29.634985801,0
                84.4634007540001,29.6456354900001,0
                84.5198253070001,29.582294276,0
                84.5587023240001,29.459055128,0
                84.555270335,29.3745161370001,0
                84.463664163,29.399074408,0
                84.3298167180001,29.398931415,0
                84.2557844230001,29.458731512,0
                84.1676817370001,29.5009050510001,0
                84.0549455220001,29.5219184430001,0
                83.9527837360001,29.535898521,0
                83.88196894,29.881008778,0
                83.8501628660001,29.9795993440001,0
                83.716266503,30.0252462660001,0
                83.6245925970001,30.113205958,0
                83.465964866,30.2292725630001,0
                83.360205519,30.3136949020001,0
                83.2827449970001,30.285433707,0
                83.226474726,30.204360572,0
                83.254709581,30.1515561580001,0
                83.3111303700001,30.091737246,0
                83.4310240780001,29.965062344,0
                83.498064453,29.855942504,0
                83.579092432,29.841939848,0
                83.6530607560001,29.8420188710001,0
                83.7481628880001,29.842120471,0
                83.7799539100001,29.7576191090001,0
                83.7271645490001,29.7152950510001,0
                83.6461779620001,29.6905523940001,0
                83.670905567,29.6236550130001,0
                83.7027154040001,29.5215421450001,0
                83.713368856,29.440540507,0
                83.639445687,29.398193871,0
                83.5830324240001,29.4509681800001,0
                83.491350992,29.545972475,0
                83.4173036450001,29.619861777,0
                83.346756021,29.714888649,0
                83.30092095,29.7571073450001,0
                83.248026225,29.8134077190001,0
                83.1598934350001,29.883759668,0
                83.0929697130001,29.8836881710001,0
                83.036563975,29.929417879,0
                82.9836504350001,30.0033297590001,0
                82.9237299220001,30.0420111010001,0
                82.856772333,30.073640315,0
                82.772199474,30.1087730150001,0
                82.6523998420001,30.147390387,0
                82.5819049,30.1931050430001,0
                82.5817995360001,30.2917294760001,0
                82.521848919,30.358589228,0
                82.525292198,30.432561316,0
                82.578085323,30.4713630740001,0
                82.6378891840001,30.541873068,0
                82.6342953860001,30.608793027,0
                82.581408186,30.658048799,0
                82.5214952000001,30.689685539,0
                82.429896554,30.707199207,0
                82.3699798040001,30.7423582480001,0
                82.2643107690001,30.742245359,0
                82.1691634810001,30.7844113730001,0
                82.0458340210001,30.8300695840001,0
                81.9541826940001,30.8968954690001,0
                81.8379467550001,30.8967712900001,0
                81.7709703510001,30.9460120110001,0
                81.7462276940001,31.026998597,0
                81.6758155370001,30.995222626,0
                81.612399064,31.0092440970001,0
                81.5630304030001,31.062025933,0
                81.436204983,31.083024273,0
                81.3199201250001,31.1286900100001,0
                81.1895046700001,31.2130860090001,0
                81.076689431,31.3080677250001,0
                80.97450883,31.3396593100001,0
                80.8652685750001,31.385332572,0
                80.7912588570001,31.4239988620001,0
                80.7137193120001,31.469705993,0
                80.653907927,31.4062406,0
                80.594028806,31.4061766300001,0
                80.5234774190001,31.504725803,0
                80.438848116,31.5926930210001,0
                80.3753338050001,31.698294323,0
                80.28369753,31.751031003,0
                80.2378549330001,31.8002943010001,0
                80.1884561680001,31.881254547,0
                80.117964989,31.923446902,0
                80.1284265290001,32.0220826240001,0
                80.047248031,32.176977326,0
                80.0119271820001,32.268519527,0
                79.8144638260001,32.4690799680001,0
                79.691081684,32.564050395,0
                79.5254018250001,32.6871540760001,0
                79.4302432480001,32.739886993,0
                79.349109905,32.8525140830001,0
                79.4723490540001,32.8913911000001,0
                79.5816005980001,32.8351509340001,0
                79.6978666410001,32.807096702,0
                79.8211772860001,32.7790499970001,0
                79.9586335800001,32.698183827,0
                80.1065928080001,32.6772080650001,0
                80.2193214980001,32.6632392760001,0
                80.353112497,32.7162167860001,0
                80.3142806370001,32.79718832,0
                80.1627577150001,32.8569056320001,0
                80.0182643430001,32.930719676,0
                79.8843303510001,33.0115896090001,0
                79.8807139740001,33.099643375,0
                79.8453856,33.1982301790001,0
                79.8382619750001,33.272190978,0
                79.7817960290001,33.3742775040001,0
                79.7359270910001,33.44819691,0
                79.8203983500001,33.508166342,0
                79.897813715,33.578695151,0
                79.9329689940001,33.6421342020001,0
                79.985739541,33.7020697670001,0
                80.0878862750001,33.7021788930001,0
                80.1794661060001,33.7022767300001,0
                80.3167944580001,33.7411688,0
                80.4083103190001,33.801145757,0
                80.411749834,33.8786401460001,0
                80.510374267,33.87874551,0
                80.605431244,33.9211147240001,0
                80.5242903760001,34.0407864150001,0
                80.422004411,34.1710024330001,0
                80.291698082,34.153251697,0
                80.203621738,34.1707691290001,0
                80.136735645,34.13547462,0
                80.0451821550001,34.110720675,0
                79.943039184,34.107089246,0
                79.7774571620001,34.1386130970001,0
                79.6647585750001,34.124403477,0
                79.5591158810001,34.0996344800001,0
                79.4429175720001,34.06428729,0
                79.3337262360001,34.0641706370001,0
                79.245646128,34.08521037,0
                79.1681065830001,34.1309175000001,0
                79.1680087460001,34.2224973300001,0
                79.0904842530001,34.254115255,0
                79.0340484120001,34.3280233720001,0
                78.953035485,34.3279368240001,0
                78.875522281,34.3489878450001,0
                78.8050160500001,34.4052694050001,0
                78.752113798,34.4686143810001,0
                78.6957042980001,34.5178663900001,0
                78.6217359730001,34.517787367,0
                78.5406929420001,34.545879228,0
                78.4666418320001,34.6232908310001,0
                78.367934613,34.7006760940001,0
                78.3009469200001,34.760483718,0
                78.2480183280001,34.8484848030001,0
                78.174050003,34.8484057810001,0
                78.1386990500001,34.9681263900001,0
                78.1245232970001,35.049124266,0
                78.0434426360001,35.1124391380001,0
                77.9483179260001,35.133471345,0
                77.8390626190001,35.1932338130001,0
                77.9199814720001,35.281377891,0
                78.0326349010001,35.337855125,0
                78.1276984630001,35.374060312,0
                78.2297595890001,35.45430179,0
                78.1768460500001,35.5282136710001,0
                78.064008233,35.6443291940001,0
                77.9723192760001,35.7463780910001,0
                77.8736045320001,35.8308079560001,0
                77.7537785580001,35.8940814360001,0
                77.6832685630001,35.9538852960001,0
                77.5881062240001,36.0101405140001,0
                77.4154494960001,36.0698352490001,0
                77.2709862280001,36.1154708820001,0
                77.1441683340001,36.1294246190001,0
                77.0031972640001,36.203242425,0
                76.8586399230001,36.3369355880001,0
                76.7106242500001,36.4107458670001,0
                76.6013614170001,36.477552938,0
                76.432249567,36.516117627,0
                76.294876059,36.5194931720001,0
                76.157431053,36.5897924400001,0
                76.0270118350001,36.6777107390001,0
                75.9071933870001,36.733939617,0
                75.8331723810001,36.783172811,0
                75.755606496,36.8535360490001,0
                75.825898237,36.998025657,0
                75.8821685070001,37.079098791,0
                75.9454758540001,37.1672240550001,0
                75.95594492,37.2588151750001,0
                75.903008802,37.353860862,0
                75.90291849,37.43839609,0
                75.9698497380001,37.4314229840001,0
                76.0649556330001,37.4280022830001,0
                76.138912669,37.4386482090001,0
                76.1811351280001,37.4809609800001,0
                76.205697162,37.5690448500001,0
                76.2055880350001,37.671191584,0
                76.184360154,37.759226535,0
                76.163120984,37.8578283910001,0
                76.205275708,37.9635425820001,0
                76.2439532870001,38.026985396,0
                76.310809276,38.090458314,0
                76.4094224200001,38.1011305800001,0
                76.5010474060001,38.058960804,0
                76.5820866750001,38.0343912440001,0
                76.6877323940001,38.0565184000001,0
                76.7142129960001,37.9957870380001,0
                76.761890915,37.8796020460001,0
                76.835883987,37.8532636570001,0
                76.9390112880001,37.760913368,0
                77.013071031,37.676457085,0
                77.2297263870001,37.6449877320001,0
                77.3539166020001,37.6187032560001,0
                77.507168731,37.5898078540001,0
                77.649854657,37.5582594790001,0
                77.7951924500001,37.518788875,0
                77.914121262,37.4687230260001,0
                78.038350988,37.405454407,0
                78.1784347820001,37.3395607530001,0
                78.2497833890001,37.318503197,0
                78.3527921570001,37.337105337,0
                78.4769411010001,37.345163315,0
                78.6011030930001,37.345295961,0
                78.709456172,37.3057855600001,0
                78.7993248270001,37.2609723250001,0
                78.9129177940001,37.2610936790001,0
                79.0503751210001,37.1793468120001,0
                79.1772718890001,37.0896636040001,0
                79.2750859240001,37.0263666210001,0
                79.3358683280001,37.0026560910001,0
                79.43629472,36.968420881,0
                79.520853995,36.9447356090001,0
                79.629246585,36.8682413510001,0
                79.7455789090001,36.778546856,0
                79.848673407,36.7126136850001,0
                79.917414239,36.6624943620001,0
                80.009907604,36.630892363,0
                80.139340529,36.6415975300001,0
                80.23179156,36.6496215010001,0
                80.3216122380001,36.649717459,0
                80.4193398470001,36.6630305830001,0
                80.4906676360001,36.6657484720001,0
                80.5567294400001,36.6446851250001,0
                80.651888785,36.591952339,0
                80.73648933,36.5339246130001,0
                80.8263590490001,36.483827719,0
                80.9056530350001,36.444286559,0
                80.987570668,36.4232402960001,0
                81.0800583880001,36.3969218070001,0
                81.196294757,36.3970459860001,0
                81.3019621000001,36.3971588740001,0
                81.4129162470001,36.3972774100001,0
                81.542360461,36.397415698,0
                81.655953427,36.3975370530001,0
                81.753727951,36.3712242130001,0
                81.8488308510001,36.371325815,0
                81.9439150580001,36.3846359720001,0
                82.0495785160001,36.3926740580001,0
                82.123531014,36.4086034700001,0
                82.226549312,36.4139969,0
                82.3533547050001,36.4141323700001,0
                82.459036159,36.4010366970001,0
                82.5594269250001,36.3958604310001,0
                82.638678579,36.395945098,0
                82.6914665630001,36.440910881,0
                82.7230787450001,36.525480056,0
                82.812866619,36.551993274,0
                82.9317266340001,36.570612349,0
                83.0426366880001,36.607715023,0
                83.1376746770001,36.668576348,0
                83.1957110160001,36.7452484070001,0
                83.3092616490001,36.784995732,0
                83.428099086,36.824748561,0
                83.4914994920001,36.824816293,0
                83.591932591,36.780014201,0
                83.6500423090001,36.7880014850001,0
                83.731900674,36.8224314350001,0
                83.81106766,36.9017678970001,0
                83.847976175,36.9731340120001,0
                83.8848959790001,37.033933248,0
                83.998463546,37.057830042,0
                84.0697867540001,37.0605480680001,0
                84.159596143,37.0712109030001,0
                84.228264659,37.0844928400001,0
                84.3021748240001,37.1400480780001,0
                84.3972241010001,37.190342527,0
                84.4975499560001,37.245925986,0
                84.5899727650001,37.280367223,0
                84.685050265,37.3042444050001,0
                84.7880731430001,37.309637841,0
                84.9095945560001,37.307125979,0
                84.9914539850001,37.3362725580001,0
                85.0944288850001,37.3865751870001,0
                85.2158853860001,37.444823193,0
                85.366403802,37.500460274,0
                85.5090096420001,37.548163555,0
                85.6225913200001,37.5588519300001,0
                85.7414298200001,37.593321388,0
                85.868195702,37.6304410000001,0
                85.9817548030001,37.6622631320001,0
                86.066246343,37.7019792680001,0
                86.148073664,37.7654683100001,0
                86.2299292070001,37.802539944,0
                86.301198792,37.8554506740001,0
                86.3671720440001,37.9215641800001,0
                86.417279938,38.000869741,0
                86.4673821870001,38.085458384,0
                86.5016839890001,38.1224795000001,0
                86.575633666,38.1410505960001,0
                86.6944806320001,38.1675947150001,0
                86.7790077990001,38.1782520510001,0
                86.831825069,38.1915169100001,0
                86.905715478,38.265564221,0
                86.966412151,38.3263890010001,0
                87.032422093,38.358160334,0
                87.1274921890001,38.384679052,0
                87.2120024220001,38.4111867760001,0
                87.304464743,38.4086435830001,0
                87.378465218,38.379663801,0
                87.4313474,38.332169079,0
                87.452542958,38.274073759,0
                87.4816415610001,38.2371206610001,0
                87.5397625680001,38.2345410660001,0
                87.608446955,38.23725613,0
                87.6533403600001,38.253154497,0
                87.687633696,38.2981003780001,0
                87.7192966790001,38.33511839,0
                87.758883526,38.369503181,0
                87.8143131520001,38.4118302420001,0
                87.851269646,38.4382868760001,0
                87.874961849,38.517564217,0
                87.9012900500001,38.5994857740001,0
                87.9567355470001,38.6312458210001,0
                88.0174925520001,38.6313107290001,0
                88.12846081,38.6182205600001,0
                88.1786815930001,38.5918570600001,0
                88.2500019780001,38.5972166270001,0
                88.286876626,38.7002835170001,0
                88.329067363,38.7716552740001,0
                88.381818659,38.8509633730001,0
                88.482138868,38.911830486,0
                88.590429858,38.930438268,0
                88.6643880010001,38.9410840260001,0
                88.804385369,38.9518006230001,0
                88.9232623170001,38.9545693090001,0
                89.0500772400001,38.94149607,0
                89.158402096,38.928403077,0
                89.340727428,38.8863303030001,0
                89.443781351,38.8626649330001,0
                89.5336200260001,38.8416271310001,0
                89.6313776160001,38.831164535,0
                89.742338471,38.820716045,0
                89.834813839,38.810248093,0
                89.9351989610001,38.810355337,0
                90.0276499920001,38.8183791660001,0
                90.1201010240001,38.826403279,0
                90.231052348,38.8291634990001,0
                90.3446255590001,38.8477769250001,0
                90.484647265,38.8400011680001,0
                90.622014279,38.8427898950001,0
                90.7857885190001,38.853531606,0
                90.915238376,38.848386528,0
                91.0050544730001,38.8484824810001,0
                91.1318626890001,38.845976267,0
                91.2507294120001,38.854028316,0
                91.3352848010001,38.8382682430001,0
                91.438302035,38.848945332,0
                91.543966556,38.851699904,0
                91.5941478280001,38.862320546,0
                91.6627824780001,38.907303116,0
                91.757876911,38.915330054,0
                91.8661650780001,38.9365795210001,0
                91.971808781,38.963109536,0
                92.077430969,39.0054902190001,0
                92.2068046270001,39.071671457,0
                92.3124042370001,39.1351858960001,0
                92.4100997370001,39.1828411990001,0
                92.528941059,39.214668972,0
                92.62400727,39.2491130330001,0
                92.7217112380001,39.288843285,0
                92.835264694,39.3259487820001,0
                92.9541105970001,39.357776561,0
                93.059741252,39.392231908,0
                93.191772422,39.4452075510001,0
                93.307960812,39.4902412100001,0
                93.366028197,39.537854177,0
                93.424090999,39.585467425,0
                93.4848130730001,39.622516481,0
                93.5693046150001,39.6622326180001,0
                93.6987826960001,39.630670131,0
                93.7939194620001,39.599071243,0
                93.9154436970001,39.5939174110001,0
                94.0158334000001,39.594024661,0
                94.1188601640001,39.59149304,0
                94.2694406690001,39.589012224,0
                94.4068076840001,39.5918006630001,0
                94.5204052320001,39.5919220230001,0
                94.6287159770001,39.5920377350001,0
                94.684185115,39.5973803680001,0
                94.7476598380001,39.52876337,0
                94.8427591480001,39.5315066960001,0
                94.956347716,39.536911505,0
                95.0381847740001,39.589833512,0
                95.1041488990001,39.663872391,0
                95.2414509110001,39.7274205690001,0
                95.320665998,39.761847673,0
                95.3998697970001,39.8068416790001,0
                95.5451082760001,39.8598314210001,0
                95.6401370300001,39.9286178940001,0
                95.727263184,39.976262094,0
                95.8302227600001,40.0397735820001,0
                95.9094717140001,40.0424999740001,0
                96.012499023,40.042610042,0
                96.1102654590001,40.0215806570001,0
              </coordinates>
            </LinearRing>
          </outerBoundaryIs>
        </Polygon>
      </Placemark>
    </Document>
  </Document>
</kml>
