<?xml version="1.0" encoding="UTF-8"?>
<kml xmlns="http://www.opengis.net/kml/2.2">
  <Document id="root_doc">
    <Schema id="Bioregions_PA42.schema">
      <SimpleField name="OBJECTID" type="float"/>
      <SimpleField name="Shape_Leng" type="float"/>
      <SimpleField name="Shape_Area" type="float"/>
      <SimpleField name="Bioregions" type="string"/>
    </Schema>
    <Document id="Bioregions_PA42">
      <name>Bioregions_PA42</name>
      <Placemark id="Bioregions_PA42.1">
        <ExtendedData>
          <SchemaData schemaUrl="#Bioregions_PA42.schema">
            <SimpleData name="OBJECTID">124</SimpleData>
            <SimpleData name="Shape_Leng">29.96517265980</SimpleData>
            <SimpleData name="Shape_Area">24.46066993990</SimpleData>
            <SimpleData name="Bioregions">PA42</SimpleData>
          </SchemaData>
        </ExtendedData>
        <Polygon>
          <outerBoundaryIs>
            <LinearRing>
              <coordinates>
                108.890156354,40.764350973,0
                109.024912597,40.7380776480001,0
                109.228384756,40.682818716,0
                109.44239842,40.6513466060001,0
                109.585062907,40.6409321030001,0
                109.772614155,40.6516993860001,0
                109.960187982,40.6413328610001,0
                110.126653402,40.6071682250001,0
                110.271993482,40.5650558340001,0
                110.496644605,40.4675518660001,0
                110.668416054,40.412259067,0
                110.819014185,40.393927853,0
                111.025091382,40.373014181,0
                111.154566995,40.344093485,0
                111.26818943,40.3177975830001,0
                111.418793206,40.294182918,0
                111.572013307,40.2943466070001,0
                111.677668231,40.3076681260001,0
                111.801815237,40.3210094,0
                111.928575745,40.3607707560001,0
                112.010457959,40.3714251480001,0
                112.071209188,40.379415237,0
                112.116152395,40.347762505,0
                112.116191906,40.310778343,0
                112.087180899,40.2658379580001,0
                112.023827456,40.220860884,0
                111.949924043,40.160022166,0
                111.854903755,40.0833105150001,0
                111.796825298,40.0462642640001,0
                111.775716891,40.022466153,0
                111.72823638,39.956372205,0
                111.717782366,39.850691881,0
                111.7178755,39.7635149270001,0
                111.691517508,39.7080104610001,0
                111.63084248,39.6286937730001,0
                111.556961644,39.546721248,0
                111.472474394,39.501721597,0
                111.469906046,39.433033901,0
                111.535991527,39.393478568,0
                111.586221008,39.3591897540001,0
                111.636467422,39.3090505850001,0
                111.586398808,39.192761024,0
                111.515151232,39.1187164990001,0
                111.430743004,38.9997485230001,0
                111.372681479,38.9468519160001,0
                111.346292443,38.920406434,0
                111.319931628,38.8675436950001,0
                111.354333333,38.81210414,0
                111.436240946,38.7989830000001,0
                111.504891952,38.830757088,0
                111.570904055,38.8598866290001,0
                111.615776705,38.894277043,0
                111.681785986,38.9260483100001,0
                111.742525926,38.9446053030001,0
                111.800655184,38.9341004890001,0
                111.816553518,38.889208081,0
                111.792831607,38.8389898900001,0
                111.700450223,38.764922787,0
                111.629177247,38.7146537950001,0
                111.547393812,38.611538996,0
                111.499941524,38.5190277900001,0
                111.44725094,38.3842433240001,0
                111.413021393,38.2785376,0
                111.349778017,38.130533217,0
                111.291809626,37.990459656,0
                111.289309011,37.8583705400001,0
                111.284124338,37.765904489,0
                111.244557717,37.710385912,0
                111.178511747,37.712957083,0
                111.112383934,37.7921383030001,0
                111.046256119,37.8713195240001,0
                110.977464001,37.9716317290001,0
                110.916625283,38.0455351430001,0
                110.874267358,38.130025215,0
                110.858318224,38.2224686870001,0
                110.884664927,38.288540057,0
                110.958596562,38.3229615160001,0
                111.032531021,38.354741249,0
                111.11169813,38.4340776930001,0
                111.145958722,38.5107244320001,0
                111.137881144,38.653369164,0
                111.119298751,38.737884636,0
                111.071677129,38.8038769840001,0
                111.024126063,38.8038261830001,0
                110.981883849,38.7800054940001,0
                110.937033776,38.724481273,0
                110.878980718,38.6636594880001,0
                110.823518585,38.6503915920001,0
                110.741610972,38.6635127320001,0
                110.694113528,38.6132691400001,0
                110.675706115,38.533997608,0
                110.630872974,38.4626230310001,0
                110.570138679,38.438782587,0
                110.501448162,38.44399266,0
                110.480379267,38.3832103870001,0
                110.472592378,38.253757352,0
                110.44099609,38.1559796280001,0
                110.37506301,38.052881762,0
                110.359271922,37.9973885850001,0
                110.274770561,37.9655975630001,0
                110.18759925,37.9602209770001,0
                110.142718133,37.933755741,0
                110.137508059,37.865065223,0
                110.174590999,37.7726443290001,0
                110.198411689,37.7304021140001,0
                110.230180133,37.66703456,0
                110.25934354,37.5693217470001,0
                110.312288125,37.466350882,0
                110.330895918,37.358059876,0
                110.357457111,37.223360079,0
                110.362802651,37.1652477530001,0
                110.233386306,37.138692205,0
                110.191166669,37.093737709,0
                110.13577227,37.0170683910001,0
                110.064476717,36.987933207,0
                109.985323718,36.895388134,0
                109.874450253,36.8213012750001,0
                109.766201581,36.7630675940001,0
                109.713367064,36.7630111490001,0
                109.594416021,36.8315690220001,0
                109.512446317,36.902808131,0
                109.42252886,36.9951725810001,0
                109.353807297,37.0294416400001,0
                109.263864439,37.1455816220001,0
                109.205619469,37.264397198,0
                109.152736973,37.309250094,0
                109.068167878,37.340860493,0
                108.94134528,37.3592171070001,0
                108.80399529,37.34057827,0
                108.669295492,37.314017076,0
                108.521361665,37.3112173050001,0
                108.434170599,37.324332801,0
                108.296800853,37.324186045,0
                108.185896344,37.2791581710001,0
                108.167446597,37.239512527,0
                108.117369516,37.1311481440001,0
                108.09365325,37.0756465000001,0
                108.046175562,37.0069108270001,0
                107.945815378,36.983028049,0
                107.840171743,36.959139626,0
                107.792668655,36.9141794860001,0
                107.779544693,36.8349135990001,0
                107.792829523,36.7636011110001,0
                107.850992648,36.721395586,0
                107.901244707,36.665972965,0
                107.935632299,36.62374204,0
                107.964753373,36.565655115,0
                108.033418491,36.584220573,0
                108.131125659,36.618667433,0
                108.168222711,36.513037909,0
                108.15510157,36.4311302950001,0
                108.123510928,36.328069118,0
                108.08392455,36.2910426230001,0
                108.010052181,36.20114492,0
                107.991605256,36.1588575500001,0
                107.909754087,36.1191441730001,0
                107.822608177,36.089992055,0
                107.711672623,36.074023165,0
                107.579614552,36.0474647950001,0
                107.47666062,35.9786698550001,0
                107.42384868,35.957479603,0
                107.339369897,35.904554773,0
                107.254927803,35.817287508,0
                107.191591292,35.7564600790001,0
                107.130896508,35.695635472,0
                107.022585747,35.6955197610001,0
                106.893152468,35.684814568,0
                106.803333788,35.684718612,0
                106.718846537,35.63971896,0
                106.642281642,35.5973695010001,0
                106.571022777,35.5338918800001,0
                106.544695829,35.449328429,0
                106.528910386,35.3885518000001,0
                106.439142506,35.340904778,0
                106.338787967,35.3117385480001,0
                106.259457168,35.3856222060001,0
                106.190746894,35.4093243610001,0
                106.151084317,35.443624464,0
                106.114021132,35.517553277,0
                106.063729562,35.609960061,0
                105.98183606,35.609872572,0
                105.870906151,35.588620231,0
                105.765276626,35.5515231790001,0
                105.667504547,35.577836016,0
                105.614743407,35.5090946970001,0
                105.577824156,35.4482954910001,0
                105.464294854,35.38741444,0
                105.377163056,35.345053691,0
                105.284773205,35.2789117660001,0
                105.237210851,35.2894278700001,0
                105.176535822,35.210111182,0
                105.179245282,35.1467125830001,0
                105.144945179,35.1070500050001,0
                105.07364398,35.0831982720001,0
                105.020764307,35.125409442,0
                104.975775944,35.1993297880001,0
                104.936042811,35.299673039,0
                104.917440663,35.4026805930001,0
                104.909365907,35.5426835980001,0
                104.861755574,35.598109041,0
                104.790364063,35.6587925360001,0
                104.718964086,35.7274012080001,0
                104.623782932,35.8012679330001,0
                104.565574651,35.885741072,0
                104.546930169,36.0283745140001,0
                104.562704324,36.0997180460001,0
                104.64453856,36.1552817790001,0
                104.739609647,36.1844423650001,0
                104.842620023,36.200402787,0
                104.961497687,36.200529788,0
                105.038082339,36.224387166,0
                105.127855862,36.2667507350001,0
                105.141002403,36.3248828160001,0
                105.140892336,36.427910125,0
                105.230682794,36.4544233410001,0
                105.230612237,36.5204664880001,0
                105.190915794,36.586467301,0
                105.140660912,36.644531649,0
                105.101009624,36.668264847,0
                105.093033646,36.715807447,0
                105.09297438,36.7712836900001,0
                105.135177082,36.8320885420001,0
                105.111319704,36.908673192,0
                105.061050713,36.9799461690001,0
                104.997674691,36.9561029020001,0
                104.942260537,36.8979256650001,0
                104.892138301,36.831828896,0
                104.849949709,36.757815416,0
                104.773449726,36.6547062610001,0
                104.71789446,36.728615319,0
                104.67289763,36.810460843,0
                104.612039156,36.902856338,0
                104.556512113,36.950348137,0
                104.503632439,36.9925593070001,0
                104.432277618,37.018900365,0
                104.368811286,37.0795923270001,0
                104.323814456,37.1614378520001,0
                104.321076774,37.251253709,0
                104.34741501,37.3252502560001,0
                104.40548218,37.372863411,0
                104.479433571,37.388792789,0
                104.579768355,37.4364511000001,0
                104.67222876,37.4365498780001,0
                104.791024581,37.5132869290001,0
                104.904562349,37.5662428040001,0
                104.989097577,37.566333114,0
                105.08413762,37.624552685,0
                105.068222353,37.6852954460001,0
                105.039030723,37.8094255180001,0
                105.02045962,37.883374088,0
                104.999232679,37.970528464,0
                105.004406064,38.0735614180001,0
                105.038666655,38.1502081570001,0
                105.05709947,38.2057041570001,0
                105.067581706,38.284967222,0
                105.091286683,38.3510357700001,0
                105.104382423,38.456718917,0
                105.096355645,38.551812581,0
                105.138513192,38.6548850470001,0
                105.178034657,38.7526712380001,0
                105.233392367,38.8636829920001,0
                105.291396507,38.970294692,0
                105.29122341,39.1323205460001,0
                105.326348584,39.2239380070001,0
                105.410755871,39.3437865590001,0
                105.481096532,39.442486251,0
                105.593749961,39.498963485,0
                105.699373841,39.541343989,0
                105.755625296,39.640028629,0
                105.797810125,39.7175644110001,0
                105.952738695,39.7670421980001,0
                106.12882365,39.7954087570001,0
                106.225639896,39.8395410040001,0
                106.310200524,39.815855782,0
                106.413230656,39.8133241240001,0
                106.516276781,39.7958226850001,0
                106.577099505,39.736889052,0
                106.734794921,39.6692531470001,0
                106.713450386,39.866479435,0
                106.713247186,40.0566836990001,0
                106.720111166,40.2257616810001,0
                106.783459905,40.275141632,0
                106.846771014,40.3597445940001,0
                107.029862942,40.42334169,0
                107.107263257,40.507959703,0
                107.290422918,40.5081553790001,0
                107.396016694,40.578714292,0
                107.515692148,40.656332859,0
                107.635397707,40.7057730170001,0
                107.769169892,40.776362034,0
                107.931173169,40.7976689380001,0
                108.276426418,40.734636288,0
                108.551158384,40.741974403,0
                108.713176712,40.749192103,0
                108.778757036,40.807611261,0
                108.890156354,40.764350973,0
              </coordinates>
            </LinearRing>
          </outerBoundaryIs>
        </Polygon>
      </Placemark>
    </Document>
  </Document>
</kml>
