<?xml version="1.0" encoding="UTF-8"?>
<kml xmlns="http://www.opengis.net/kml/2.2">
  <Document id="root_doc">
    <Schema id="Bioregions_PA43.schema">
      <SimpleField name="OBJECTID" type="float"/>
      <SimpleField name="Shape_Leng" type="float"/>
      <SimpleField name="Shape_Area" type="float"/>
      <SimpleField name="Bioregions" type="string"/>
    </Schema>
    <Document id="Bioregions_PA43">
      <name>Bioregions_PA43</name>
      <Placemark id="Bioregions_PA43.1">
        <ExtendedData>
          <SchemaData schemaUrl="#Bioregions_PA43.schema">
            <SimpleData name="OBJECTID">154</SimpleData>
            <SimpleData name="Shape_Leng">118.02585105800</SimpleData>
            <SimpleData name="Shape_Area">66.76922163980</SimpleData>
            <SimpleData name="Bioregions">PA43</SimpleData>
          </SchemaData>
        </ExtendedData>
        <Polygon>
          <outerBoundaryIs>
            <LinearRing>
              <coordinates>
                93.358796516,51.2503918880001,0
                93.697087948,51.1098610870001,0
                94.0494159040001,51.0186575540001,0
                94.3594160370001,50.983765685,0
                94.6412377620001,50.9488437110001,0
                95.0005275340001,50.93513833,0
                95.1767630080001,50.8226128420001,0
                95.3318947800001,50.6818863660001,0
                95.529233957,50.5975618640001,0
                95.775855247,50.541468454,0
                95.9802691310001,50.4289730680001,0
                96.0861488930001,50.231837092,0
                96.0440054570001,50.1155559970001,0
                96.02303534,49.962313318,0
                95.9809370600001,49.803764609,0
                95.9176654610001,49.6821774850001,0
                95.806254638,49.5548819040001,0
                95.7587374380001,49.5231303940001,0
                95.6001548630001,49.5969293840001,0
                95.648175554,49.7135903280001,0
                95.6111180140001,49.7822356890001,0
                95.5476714360001,49.82443557,0
                95.4683914380001,49.8507681620001,0
                95.38910015,49.8876676570001,0
                95.2781081520001,49.9245332850001,0
                95.1724391160001,49.9244203960001,0
                95.1038163320001,49.866229048,0
                94.992914645,49.8185594490001,0
                94.8555844110001,49.78142853,0
                94.6865252430001,49.770681004,0
                94.5491442080001,49.78110115,0
                94.3958958850001,49.80735472,0
                94.2796430120001,49.8230808970001,0
                94.073571459,49.838711118,0
                93.8938607220001,49.90720408,0
                93.7300454940001,49.9334463600001,0
                93.6032031410001,49.9702950550001,0
                93.402431973,49.970080565,0
                93.2861791010001,49.9858067420001,0
                93.175277414,49.9381371420001,0
                93.1066207630001,49.9116465050001,0
                93.0115524980001,49.879844194,0
                92.9164447220001,49.8850260450001,0
                92.8688880110001,49.890258697,0
                92.789636235,49.89017403,0
                92.7262404580001,49.884822844,0
                92.684057511,49.8055259130001,0
                92.7422601480001,49.7263362250001,0
                92.9219200850001,49.7053943290001,0
                93.1702310300001,49.716226523,0
                93.349913546,49.6741508210001,0
                93.5665802240001,49.63211463,0
                93.7092898660001,49.579432513,0
                93.8678442200001,49.5320507810001,0
                94.005264766,49.4846464720001,0
                94.1110071790001,49.416074488,0
                94.2590002740001,49.3633980160001,0
                94.4597827300001,49.3530456010001,0
                94.7133884150001,49.3533165360001,0
                94.813779643,49.348140329,0
                94.9775158480001,49.395866374,0
                95.1465863050001,49.396046997,0
                95.289239502,49.396199397,0
                95.4318814110001,49.406918702,0
                95.5427548750001,49.48100556,0
                95.6907592590001,49.417762184,0
                95.6803842680001,49.2381135350001,0
                95.6223904760001,49.1218155070001,0
                95.5749579440001,49.0108122190001,0
                95.627956151,48.8576485630001,0
                95.7073998400001,48.6780958690001,0
                95.7815149210001,48.540805146,0
                95.9137931270001,48.3613088980001,0
                96.0671656280001,48.218819389,0
                96.2892060710001,48.0922536150001,0
                96.2841088860001,47.9178940620001,0
                96.3687626480001,47.8070318860001,0
                96.511506158,47.722649059,0
                96.6859278000001,47.6594339050001,0
                96.775853725,47.559144277,0
                96.8129789990001,47.4270974940001,0
                96.8870884350001,47.2950902220001,0
                96.9717139750001,47.2106453060001,0
                97.0510673520001,47.115627841,0
                97.2148825790001,47.08938556,0
                97.4051207100001,47.0578880510001,0
                97.5795649300001,46.97353909,0
                97.7011689870001,46.8944171360001,0
                97.81216663,46.8522680560001,0
                97.96540931,46.8312979390001,0
                98.065749737,46.873672798,0
                98.2611358520001,46.968983774,0
                98.477785597,46.9427979390001,0
                98.615098899,46.995779213,0
                98.7840903330001,47.0699281600001,0
                99.000593322,47.1811120720001,0
                99.1538134230001,47.1812757610001,0
                99.3915743970001,47.1762463100001,0
                99.6240462750001,47.176494667,0
                99.7510015180001,47.033976936,0
                99.920128419,46.9813230410001,0
                100.136812031,46.923436495,0
                100.305938932,46.8707826,0
                100.448688086,46.7811163210001,0
                100.612593625,46.6703388120001,0
                100.771232646,46.5437053040001,0
                100.972094124,46.459384566,0
                101.204667602,46.364530791,0
                101.3632784,46.264314541,0
                101.474355066,46.1481971360001,0
                101.55364071,46.116581093,0
                101.696299552,46.1114500410001,0
                101.765035225,46.063972354,0
                101.86020509,46.0006725330001,0
                102.034570288,45.9902918970001,0
                102.224729396,46.032762711,0
                102.409548607,46.1280624,0
                102.567978782,46.1969166060001,0
                102.747508898,46.297494102,0
                102.895377813,46.361053569,0
                102.926982567,46.4509061150001,0
                102.90574716,46.5459856700001,0
                103.011416196,46.546098559,0
                103.148780297,46.551528767,0
                103.307300784,46.5358477450001,0
                103.354925228,46.4672136730001,0
                103.407878279,46.35631763,0
                103.524227107,46.2507727730001,0
                103.693410454,46.1452843610001,0
                103.862633311,46.0028117860001,0
                104.00013288,45.8814391510001,0
                104.142898967,45.775922517,0
                104.248675248,45.6756498230001,0
                104.338476994,45.6915961340001,0
                104.454688473,45.7146152700001,0
                104.62375893,45.714795893,0
                104.745325358,45.670896951,0
                104.829967832,45.570601679,0
                104.919837311,45.5231465690001,0
                104.983250021,45.5126473990001,0
                105.101267808,45.493400803,0
                105.157387559,45.7153659840001,0
                105.284081275,45.817648186,0
                105.523537547,45.874260887,0
                105.763054028,45.8745167700001,0
                105.81927538,46.0013798200001,0
                105.931763239,46.212838306,0
                106.199382868,46.2835703160001,0
                106.50940558,46.227544639,0
                106.932262344,46.0589257410001,0
                107.312746132,45.988886119,0
                107.74952653,45.9752635230001,0
                108.16868037,45.975711318,0
                108.3905289,46.0287829040001,0
                108.601793592,46.097693555,0
                108.807780478,46.16131511,0
                109.140530695,46.262056295,0
                109.341262351,46.2992549480001,0
                109.557861296,46.3206201790001,0
                109.800843633,46.373714342,0
                109.922284001,46.4478124890001,0
                110.086003271,46.511388889,0
                110.281485342,46.516881186,0
                110.508668124,46.52240735,0
                110.67244384,46.533149232,0
                110.778062076,46.580813188,0
                110.968277628,46.570449485,0
                110.98956948,46.422535413,0
                110.994948888,46.332722377,0
                111.068973658,46.2799668820001,0
                111.174687849,46.2378121580001,0
                111.280385106,46.2115077880001,0
                111.364993713,46.1429132270001,0
                111.34922238,46.068927968,0
                111.296427374,46.0318873620001,0
                111.23304853,46.01068582,0
                111.17504345,45.9049546960001,0
                111.243801701,45.836343201,0
                111.407566128,45.8576519860001,0
                111.53431817,45.90533852,0
                111.671676627,45.9160521790001,0
                111.835378966,45.9954789340001,0
                111.977941852,46.0801665640001,0
                112.088832249,46.1384030660001,0
                112.199784737,46.138521601,0
                112.25271521,46.0487593650001,0
                112.147164709,45.9376939890001,0
                112.0204296,45.874157101,0
                111.935950816,45.821232271,0
                111.93605618,45.722607838,0
                112.062900415,45.6839979920001,0
                112.200270162,45.684144749,0
                112.316464708,45.7230142400001,0
                112.437906957,45.795351236,0
                112.527652259,45.8641320660001,0
                112.627981398,45.9170738290001,0
                112.738900018,45.9488930730001,0
                112.786535751,45.8696920960001,0
                112.754959219,45.7534222900001,0
                112.718076657,45.6582806480001,0
                112.760417649,45.58964093,0
                112.882032996,45.499952073,0
                112.98246938,45.452508252,0
                113.130451185,45.410398683,0
                113.320711893,45.3577673670001,0
                113.495122246,45.3051191160001,0
                113.637798022,45.28413771,0
                113.828053086,45.236789845,0
                114.028903276,45.1630360090001,0
                114.071289424,45.052128678,0
                114.097870373,44.8989367990001,0
                114.061032966,44.7615275420001,0
                114.003022242,44.661079869,0
                114.003135131,44.5554108330001,0
                114.061382923,44.433953532,0
                114.019284644,44.275404823,0
                113.992946407,44.2014082760001,0
                113.934851015,44.1802123800001,0
                113.818671521,44.127253684,0
                113.718359316,44.0584615660001,0
                113.697377909,43.91578579,0
                113.660506636,43.8100772430001,0
                113.517977617,43.6936889040001,0
                113.518050995,43.6250040310001,0
                113.428311337,43.5509397500001,0
                113.306882258,43.4662746990001,0
                113.307017725,43.339471857,0
                113.370571547,43.1968863920001,0
                113.402441592,43.0384167060001,0
                113.402548837,42.938031122,0
                113.28109718,42.874499879,0
                113.1437613,42.8426524120001,0
                113.091056605,42.721076576,0
                113.149298753,42.604902726,0
                113.19695142,42.5098513950001,0
                113.123112918,42.388252982,0
                113.03337326,42.314188701,0
                112.890804729,42.234784523,0
                112.748247488,42.144813443,0
                112.536943284,42.112886954,0
                112.378530042,42.028182391,0
                112.093201069,42.0490113970001,0
                111.860774346,42.0064954260001,0
                111.713029609,41.8267000210001,0
                111.575738886,41.7525849400001,0
                111.353856489,41.7312140650001,0
                111.142518419,41.7309882860001,0
                110.962926213,41.6885287600001,0
                110.719977744,41.603733886,0
                110.432108645,41.5294579380001,0
                110.19181319,41.4340989830001,0
                109.969930793,41.4127281080001,0
                109.737504071,41.3702121370001,0
                109.505156372,41.2537278410001,0
                109.283228819,41.2746245810001,0
                109.082626986,41.115906538,0
                108.959421704,41.045328811,0
                108.860616649,41.2142939030001,0
                108.740670259,41.3902810210001,0
                108.634963594,41.4253911440001,0
                108.46587056,41.4463443280001,0
                108.310889307,41.4461787560001,0
                108.043224522,41.417714361,0
                107.909437284,41.3612145490001,0
                107.712203471,41.346914617,0
                107.486783721,41.339629184,0
                107.317765946,41.2901363440001,0
                107.085414484,41.17717435,0
                106.845980789,41.0994278410001,0
                106.592525623,40.95826486,0
                106.45873086,40.9088096500001,0
                106.367278971,40.7889535730001,0
                106.177195122,40.676036734,0
                106.015297209,40.5561053970001,0
                105.797042478,40.4361138520001,0
                105.613980653,40.344338346,0
                105.423844124,40.2807337240001,0
                105.198522211,40.18186846,0
                105.008363103,40.139397645,0
                104.825218494,40.125112766,0
                104.705415098,40.167252438,0
                104.620834714,40.2094297410001,0
                104.508000661,40.322022964,0
                104.423314913,40.4628247000001,0
                104.324660377,40.490897745,0
                104.134448587,40.4977391470001,0
                103.958348579,40.4834617930001,0
                103.859821984,40.391776599,0
                103.747123398,40.3775669790001,0
                103.620252822,40.440832933,0
                103.493352142,40.5322772960001,0
                103.380548193,40.61669211,0
                103.32408601,40.715256335,0
                103.35215153,40.8209554740001,0
                103.471849564,40.8774402340001,0
                103.633837788,40.912836343,0
                103.795863642,40.9130094400001,0
                103.922719167,40.863832691,0
                104.134079815,40.842924662,0
                104.267972415,40.800800042,0
                104.444064896,40.8221219970001,0
                104.592001546,40.822280043,0
                104.690686187,40.766028588,0
                104.810557316,40.6604874930001,0
                104.916339241,40.554931347,0
                104.979815922,40.4845530580001,0
                105.064403832,40.4353311520001,0
                105.163028265,40.435436516,0
                105.261607543,40.4778094930001,0
                105.41652106,40.5413764850001,0
                105.52214494,40.5837569890001,0
                105.669998804,40.6614056600001,0
                105.789711889,40.7038012150001,0
                105.76845014,40.823536878,0
                105.71903256,40.922108629,0
                105.768254465,41.0066965390001,0
                105.986539301,41.0985096750001,0
                106.25064886,41.1577904430001,0
                106.41705219,41.1817437760001,0
                106.572866039,41.226819628,0
                106.723359748,41.306232272,0
                106.87651776,41.364513931,0
                107.079843164,41.4466247450001,0
                107.28054942,41.5075989310001,0
                107.428438091,41.5526663160001,0
                107.592199696,41.5766168280001,0
                107.740113768,41.59790868,0
                107.880108306,41.613908614,0
                107.967214705,41.680044895,0
                108.062237814,41.75411482,0
                108.149358324,41.807042472,0
                108.284029899,41.860020923,0
                108.44247983,41.9103830490001,0
                108.579815708,41.9422305160001,0
                108.754141395,41.968834042,0
                108.925797133,42.021852005,0
                109.115953419,42.0669645450001,0
                109.274394882,42.1252518490001,0
                109.440761524,42.1835476190001,0
                109.586005647,42.231253908,0
                109.71012443,42.271012441,0
                109.834178302,42.37153067,0
                109.897478123,42.4667005360001,0
                109.968680544,42.5830126750001,0
                110.018712468,42.7336446730001,0
                110.066142177,42.8472896860001,0
                110.166451561,42.9187235300001,0
                110.290463099,43.0588676470001,0
                110.366957438,43.1672602530001,0
                110.430271371,43.249221489,0
                110.416966785,43.3390260580001,0
                110.371984067,43.4076629530001,0
                110.324413245,43.426104234,0
                110.250436454,43.4339503890001,0
                110.200243662,43.4338967670001,0
                110.102496982,43.4364340700001,0
                109.991555784,43.4257486320001,0
                109.872678119,43.4256216320001,0
                109.759086728,43.4228585500001,0
                109.656048129,43.4333153870001,0
                109.566240739,43.422652527,0
                109.481759133,43.3723694230001,0
                109.365537305,43.359036616,0
                109.259907781,43.321939564,0
                109.130463212,43.3218012740001,0
                108.998362807,43.3348687920001,0
                108.897940535,43.369103984,0
                108.831849409,43.413942768,0
                108.805350305,43.490524597,0
                108.842280846,43.5407569000001,0
                108.932051547,43.585762195,0
                109.024486554,43.6096365070001,0
                109.130130189,43.633524929,0
                109.27014166,43.6336745070001,0
                109.418098066,43.615340471,0
                109.478863406,43.610121931,0
                109.624158329,43.6102771540001,0
                109.758906105,43.591929007,0
                109.8275684,43.6131361910001,0
                109.824856118,43.679176516,0
                109.777265541,43.716109879,0
                109.703266172,43.745089841,0
                109.695264794,43.816407973,0
                109.742750948,43.8772184690001,0
                109.808729184,43.93804872,0
                109.811291888,44.012019867,0
                109.84284302,44.152065206,0
                109.895573115,44.249865508,0
                109.987943209,44.3344995150001,0
                110.053946845,44.371554233,0
                110.122617607,44.38483624,0
                110.209836894,44.345303486,0
                110.286432834,44.3585939600001,0
                110.333958499,44.3824202930001,0
                110.333904877,44.432613014,0
                110.280980048,44.5170918680001,0
                110.230747745,44.554022409,0
                110.169962649,44.57773303,0
                110.088049392,44.5961376220001,0
                109.990268845,44.6303756360001,0
                109.9505724,44.6963764500001,0
                109.950510311,44.754494419,0
                109.924045075,44.7993755360001,0
                109.89232743,44.815192026,0
                109.815720203,44.812468455,0
                109.710065278,44.7991469360001,0
                109.625535694,44.793773173,0
                109.54100611,44.7883994090001,0
                109.464401704,44.783034113,0
                109.305915084,44.7670144240001,0
                109.194965419,44.764254163,0
                109.070801481,44.766763245,0
                108.933443023,44.756049584,0
                108.769656018,44.7558746060001,0
                108.558332059,44.7424401980001,0
                108.34437484,44.72107779,0
                108.175352361,44.675987827,0
                108.024827608,44.625634168,0
                107.8822619,44.543588265,0
                107.758176984,44.4721290210001,0
                107.605058483,44.3768631990001,0
                107.4730625,44.292186859,0
                107.341049584,44.223360875,0
                107.172103305,44.1069443120001,0
                107.066518937,44.027579646,0
                107.024372679,43.9139402770001,0
                107.02447428,43.818838145,0
                107.021936977,43.7210914660001,0
                107.04324294,43.5599687650001,0
                107.024917371,43.4040871820001,0
                107.003873875,43.319529376,0
                106.959043558,43.245513073,0
                106.853462011,43.1635066810001,0
                106.724144443,43.044490727,0
                106.602701253,42.973034306,0
                106.510269069,42.946518268,0
                106.401989353,42.917343572,0
                106.2752486,42.859090135,0
                106.166935016,42.861616149,0
                106.066549433,42.8615089050001,0
                105.942382671,42.8666597110001,0
                105.844644458,42.8612718370001,0
                105.818286466,42.8057673710001,0
                105.815712474,42.742363127,0
                105.844878703,42.6420085890001,0
                105.794756468,42.5759118190001,0
                105.715552669,42.5309178110001,0
                105.665317544,42.570490078,0
                105.599223596,42.6179705870001,0
                105.517279294,42.665434164,0
                105.424765265,42.7155281780001,0
                105.329601044,42.773544547,0
                105.234425534,42.842127819,0
                105.139300824,42.8631600260001,0
                105.012469759,42.8894418180001,0
                104.917336583,42.918399202,0
                104.814247184,42.976407104,0
                104.748139126,43.0370962430001,0
                104.682014134,43.1136357390001,0
                104.608017587,43.139973975,0
                104.555140736,43.179543418,0
                104.494282262,43.271938913,0
                104.433480233,43.3114998900001,0
                104.359511908,43.311420867,0
                104.214242385,43.2874901110001,0
                104.087414142,43.3111301770001,0
                103.926220886,43.355867361,0
                103.730608991,43.4718944540001,0
                103.622238963,43.527254987,0
                103.545564001,43.587932837,0
                103.553438379,43.6354923700001,0
                103.54276423,43.7358666650001,0
                103.508382282,43.7728141370001,0
                103.415916232,43.777998811,0
                103.299680293,43.7778746330001,0
                103.133271318,43.759204751,0
                103.120000599,43.8173086090001,0
                103.061843119,43.854230682,0
                103.040675445,43.8859088150001,0
                103.032657134,43.973077303,0
                103.032583755,44.0417621760001,0
                103.087975332,44.121073219,0
                103.114350257,44.16072733,0
                103.164500715,44.2004068410001,0
                103.227890848,44.211041478,0
                103.359979964,44.2085408630001,0
                103.505280532,44.2034126350001,0
                103.61885499,44.2220260720001,0
                103.703356351,44.2538170940001,0
                103.703277329,44.3277854190001,0
                103.663592173,44.383219329,0
                103.613354226,44.42543325,0
                103.52089382,44.425334472,0
                103.412602814,44.406726749,0
                103.296378164,44.396035667,0
                103.161655788,44.3906082820001,0
                103.050703301,44.390489748,0
                102.942389718,44.3930157620001,0
                102.783886165,44.392846429,0
                102.664974633,44.424420067,0
                102.556627183,44.4586468630001,0
                102.43505417,44.5087098330001,0
                102.302911431,44.561403238,0
                102.181355351,44.595615852,0
                102.04130719,44.6298087100001,0
                101.97794528,44.592756814,0
                101.978044058,44.5002964080001,0
                102.004529051,44.436923209,0
                102.023071932,44.389391899,0
                102.023136843,44.328632204,0
                102.023181999,44.2863645890001,0
                101.988864963,44.2625523670001,0
                101.943966912,44.251937486,0
                101.862033898,44.288834159,0
                101.735208478,44.309832499,0
                101.471024601,44.3201171790001,0
                101.333632277,44.34110423,0
                101.111738591,44.3303002580001,0
                100.826454773,44.30886165,0
                100.572894244,44.2663231010001,0
                100.266499197,44.223728108,0
                100.023460416,44.223468462,0
                99.727598405,44.212585469,0
                99.3155456120001,44.1593106820001,0
                98.9879828910001,44.1483938220001,0
                98.7238328810001,44.1269777910001,0
                98.4806247650001,44.285221699,0
                98.2691427610001,44.4197238690001,0
                98.0364761480001,44.60175467,0
                97.7405238270001,44.6754069040001,0
                97.5396397700001,44.78086145,0
                97.2224971970001,44.9073256240001,0
                96.979334237,45.023301917,0
                96.926364252,45.150048315,0
                96.855703739,45.350744223,0
                96.9578542360001,45.3473310480001,0
                97.067049335,45.3439253990001,0
                97.1621778080001,45.3193708920001,0
                97.2326501730001,45.294790043,0
                97.2749516530001,45.263134488,0
                97.359494408,45.256180197,0
                97.4158324110001,45.2738519110001,0
                97.4615621190001,45.330257648,0
                97.5214186620001,45.351455426,0
                97.6693590740001,45.34809117,0
                97.768032426,45.3024066180001,0
                97.9371630900001,45.2462304220001,0
                98.067540916,45.1970574360001,0
                98.1521062480001,45.1689693380001,0
                98.2613051100001,45.162041388,0
                98.356407242,45.1621429890001,0
                98.4021783430001,45.1798034130001,0
                98.4197296410001,45.2361790470001,0
                98.37036098,45.2889608830001,0
                98.27519864,45.3452161020001,0
                98.127156627,45.443682489,0
                98.028483275,45.489367041,0
                97.9121824250001,45.5500025580001,0
                97.785309026,45.615910238,0
                97.6761064010001,45.626360489,0
                97.584522807,45.6297849520001,0
                97.499998868,45.619127738,0
                97.394322307,45.6260594510001,0
                97.2921228910001,45.6752625410001,0
                97.1194398210001,45.759613383,0
                96.9749464500001,45.8334274260001,0
                96.8128302850001,45.917789557,0
                96.7529172980001,45.9494262970001,0
                96.6437334870001,45.9422650430001,0
                96.4887823390001,45.913921062,0
                96.3830944890001,45.9314196780001,0
                96.231541464,46.0193154,0
                96.1047085170001,46.0473583420001,0
                95.977905675,46.0472228740001,0
                95.76657513,46.039952493,0
                95.6864493640001,46.0337028590001,0
                95.525239173,46.0942903970001,0
                95.461809529,46.1206399230001,0
                95.4563934320001,46.244795395,0
                95.5382897570001,46.2422411590001,0
                95.6045653020001,46.2370285050001,0
                95.700770011,46.229206096,0
                95.7602201320001,46.2187026930001,0
                95.8156963750001,46.2187619600001,0
                95.871138752,46.2505219380001,0
                95.905407811,46.3192435,0
                95.8868536400001,46.3773417130001,0
                95.7890307600001,46.451205616,0
                95.7255587830001,46.517181029,0
                95.7862253440001,46.604422895,0
                95.8945135280001,46.6256724140001,0
                95.981780794,46.5412303190001,0
                96.045258415,46.469971453,0
                96.1166696810001,46.3907958780001,0
                96.2012811100001,46.31955959,0
                96.2673863460001,46.261512177,0
                96.3176017160001,46.240431992,0
                96.388933959,46.2352247410001,0
                96.454940417,46.269637732,0
                96.4998271800001,46.290819518,0
                96.6451531470001,46.2619157560001,0
                96.7798952790001,46.248851061,0
                96.9305159880001,46.209386039,0
                97.0520438460001,46.2015906840001,0
                97.1841611840001,46.172672811,0
                97.281930442,46.1490017020001,0
                97.3823555370001,46.1121247840001,0
                97.4695663580001,46.0805172070001,0
                97.5356264380001,46.064737408,0
                97.593727474,46.0806498520001,0
                97.5778122080001,46.141392614,0
                97.5513385040001,46.1941989090001,0
                97.482616943,46.2284679680001,0
                97.39274464,46.278564804,0
                97.263218226,46.355036565,0
                97.154887709,46.373412934,0
                97.078277659,46.373331089,0
                97.012223222,46.383827438,0
                96.943493194,46.426021673,0
                96.8245675510001,46.4708040130001,0
                96.7188731160001,46.494466657,0
                96.599950295,46.53660727,0
                96.4467189050001,46.5470104840001,0
                96.32245901,46.639338245,0
                96.216702485,46.7211188580001,0
                96.1823036040001,46.7739166870001,0
                96.1795997890001,46.8320318340001,0
                96.1768818630001,46.9033556110001,0
                96.1292376630001,46.990481765,0
                96.036729279,47.035292327,0
                95.928384652,47.0668773260001,0
                95.8147678600001,47.0878897760001,0
                95.7222256100001,47.1644010480001,0
                95.6508171660001,47.2409349000001,0
                95.611100966,47.3254277940001,0
                95.5792958330001,47.4231377850001,0
                95.523709522,47.526105828,0
                95.4365015230001,47.555071679,0
                95.354616487,47.547059011,0
                95.3044886070001,47.486245694,0
                95.2807610520001,47.441310953,0
                95.2041820460001,47.4121701240001,0
                95.1487255580001,47.393618776,0
                95.151435017,47.3302201770001,0
                95.1911145290001,47.280069719,0
                95.2545921500001,47.208810853,0
                95.2969105650001,47.1613049430001,0
                95.2943027050001,47.1296014100001,0
                95.244149425,47.092563625,0
                95.2019410770001,47.037042226,0
                95.1993727300001,46.968354531,0
                95.2152484850001,46.944595931,0
                95.254888485,46.931429635,0
                95.3183435280001,46.881304578,0
                95.392351364,46.844399438,0
                95.4478445410001,46.828608349,0
                95.532410815,46.799639676,0
                95.5958461020001,46.7680066980001,0
                95.648728598,46.723153804,0
                95.6778355610001,46.6782755080001,0
                95.6013101770001,46.5989418870001,0
                95.53260837,46.6147188640001,0
                95.426930869,46.6225311520001,0
                95.289575234,46.6091757660001,0
                95.1443085320001,46.5826032850001,0
                94.9198775440001,46.474052633,0
                94.859109382,46.4819129000001,0
                94.742887554,46.4685800920001,0
                94.6161129340001,46.442027366,0
                94.5527651350001,46.391766841,0
                94.5475748170001,46.304584242,0
                94.5898904090001,46.259720057,0
                94.6533313410001,46.2228036280001,0
                94.745797392,46.217618955,0
                94.8039153620001,46.2176810440001,0
                94.8990174940001,46.2177826450001,0
                94.9941055140001,46.2310928750001,0
                95.0971356460001,46.2285612160001,0
                95.2080824880001,46.2339632010001,0
                95.295250976,46.241981513,0
                95.3085922510001,46.1178345070001,0
                95.263744999,46.05966856,0
                95.131672816,46.0463188190001,0
                94.9731946630001,46.0223739520001,0
                94.822627577,46.0116461810001,0
                94.645612187,46.029949172,0
                94.4183560280001,46.093107882,0
                94.288852192,46.1484458350001,0
                94.1461030390001,46.238112115,0
                94.045638432,46.3119731950001,0
                93.9979942320001,46.399099349,0
                93.9424051000001,46.5047091170001,0
                93.95552624,46.586616731,0
                93.9713145060001,46.644751634,0
                94.013531319,46.692347855,0
                94.0822161930001,46.6924212340001,0
                94.153596414,46.6423046420001,0
                94.1853705020001,46.5736536360001,0
                94.2356648950001,46.478605127,0
                94.2753218270001,46.449588476,0
                94.3123257460001,46.4311359050001,0
                94.3651546190001,46.4364758020001,0
                94.404746641,46.4682188460001,0
                94.4707192320001,46.5343325490001,0
                94.5261672540001,46.5608090750001,0
                94.5736957410001,46.5819936820001,0
                94.6238800660001,46.5899724820001,0
                94.6740446360001,46.616443363,0
                94.6845607390001,46.6640057180001,0
                94.6475342430001,46.7035920960001,0
                94.5920297770001,46.7299500870001,0
                94.470482164,46.756237523,0
                94.377985069,46.7904811820001,0
                94.311882655,46.8458868700001,0
                94.2325772570001,46.895994994,0
                94.1268743530001,46.9275828150001,0
                94.026460548,46.953892829,0
                93.9472115940001,46.951166437,0
                93.9076506170001,46.890364407,0
                93.9024405430001,46.8216738900001,0
                93.831119588,46.8163142380001,0
                93.738616849,46.8558413480001,0
                93.6513890950001,46.903299281,0
                93.5483138070001,46.9480985530001,0
                93.474337016,46.9559447080001,0
                93.4347365280001,46.9321268420001,0
                93.4162924240001,46.887197746,0
                93.4322246240001,46.8106046290001,0
                93.5036782240001,46.6918031650001,0
                93.516954587,46.628415854,0
                93.4562118250001,46.612500588,0
                93.3426147900001,46.6150209580001,0
                93.2421642950001,46.6756734080001,0
                93.0967875270001,46.752128236,0
                93.0254411720001,46.770544117,0
                92.9487859650001,46.8127298860001,0
                92.8932786770001,46.841729603,0
                92.819234152,46.91297718,0
                92.763721219,46.947260349,0
                92.7055609170001,46.986824148,0
                92.7028599230001,47.0422975700001,0
                92.7477241080001,47.084613162,0
                92.803200352,47.0846724290001,0
                92.837554077,47.0741422140001,0
                92.8904139950001,47.0504231260001,0
                92.93797635,47.0399070220001,0
                92.9987755560001,47.002987772,0
                93.0621995560001,46.9819216980001,0
                93.1124149250001,46.960841514,0
                93.1731943760001,46.942414344,0
                93.2392431680001,46.9372014480001,0
                93.2815023150001,46.945171782,0
                93.2999351290001,47.0006677800001,0
                93.281383782,47.0561242690001,0
                93.162446849,47.111473511,0
                93.1095925770001,47.1299091480001,0
                93.03736868,47.1856948980001,0
                93.0855037750001,47.4231153210001,0
                93.156867063,47.3888490850001,0
                93.233482758,47.383647479,0
                93.275727794,47.4048264410001,0
                93.2756657050001,47.46294441,0
                93.275530238,47.589747253,0
                93.2490283120001,47.668970808,0
                93.217254224,47.737621813,0
                93.1537991800001,47.7877468720001,0
                93.106194492,47.837888863,0
                93.0401090110001,47.8774441950001,0
                92.966078597,47.9354831420001,0
                92.8841201830001,47.9961553480001,0
                92.8153732200001,48.05419994,0
                92.759848999,48.0990500130001,0
                92.7201779550001,48.1412752940001,0
                92.701620962,48.2020152330001,0
                92.690986325,48.265405366,0
                92.661870896,48.3182088390001,0
                92.5957854160001,48.357764172,0
                92.5429508970001,48.357707727,0
                92.4505356480001,48.315341334,0
                92.4083244780001,48.262461661,0
                92.3846307900001,48.1858262100001,0
                92.408527679,48.072257397,0
                92.456205745,47.9534305330001,0
                92.522392826,47.818773068,0
                92.580572885,47.7607171880001,0
                92.6995323950001,47.6842341380001,0
                92.842292838,47.5840009550001,0
                92.9454104590001,47.4995757940001,0
                92.918966256,47.249588594,0
                92.80297175,47.2986522260001,0
                92.7025720560001,47.31175361,0
                92.6153809900001,47.3248691060001,0
                92.5414380660001,47.30101455,0
                92.456936704,47.269223529,0
                92.3803548750001,47.2427244240001,0
                92.3010918100001,47.253206661,0
                92.213864056,47.3006645940001,0
                92.126650413,47.334913896,0
                92.065851206,47.3718331470001,0
                92.0393775030001,47.424639443,0
                92.0498484500001,47.5144694110001,0
                92.039188413,47.601635077,0
                91.999483502,47.675561068,0
                91.9307337170001,47.7362473860001,0
                91.8329305920001,47.7916192060001,0
                91.72986095,47.8311350270001,0
                91.605629277,47.8970455290001,0
                91.5316242640001,47.931308943,0
                91.462877301,47.9893535350001,0
                91.3624380950001,48.0394390820001,0
                91.309485044,48.150335124,0
                91.2697886000001,48.216335938,0
                91.2142418000001,48.2823198180001,0
                91.161348016,48.3377396170001,0
                91.119021134,48.3931707040001,0
                91.1400928520001,48.451311252,0
                91.1981713110001,48.4883575040001,0
                91.290595028,48.522798718,0
                91.3724264410001,48.5810041770001,0
                91.4304823210001,48.6391842360001,0
                91.4489094910001,48.699963686,0
                91.456738713,48.789790834,0
                91.4407924010001,48.8795925800001,0
                91.3984147200001,48.9825747340001,0
                91.3428989650001,49.01949963,0
                91.2688233950001,49.1198061900001,0
                91.1656916630001,49.217439981,0
                91.263271832,49.3707645050001,0
                91.3266704310001,49.373473964,0
                91.4349840130001,49.3709479500001,0
                91.5010751390001,49.326109166,0
                91.575077331,49.2944874780001,0
                91.670162529,49.3104394330001,0
                91.7123680540001,49.3686025590001,0
                91.7783773340001,49.400373825,0
                91.8496587770001,49.4427176400001,0
                91.8945257840001,49.4823915060001,0
                91.923517035,49.5458239720001,0
                91.9392742570001,49.6330178600001,0
                91.947086545,49.7386953610001,0
                91.9496182030001,49.8417254940001,0
                91.9072151220001,49.9684831800001,0
                91.864857197,50.0529732530001,0
                91.838343981,50.1427637100001,0
                91.8039112340001,50.2272622500001,0
                91.7668311150001,50.317041418,0
                91.7508735150001,50.417410069,0
                91.713821619,50.4807719780001,0
                91.602801399,50.5440548660001,0
                91.4944793480001,50.5545060580001,0
                91.3755988610001,50.557020783,0
                91.2778380700001,50.572766716,0
                91.1695273080001,50.5726510050001,0
                91.061233481,50.556684938,0
                90.9820212160001,50.519616108,0
                90.902825884,50.4666969240001,0
                90.855342551,50.4032447020001,0
                90.78674799,50.318636095,0
                90.75514888,50.2235000970001,0
                90.7790006130001,50.1521988980001,0
                90.8134277170001,50.072983811,0
                90.905953034,50.0123228940001,0
                90.9641189810001,49.9674756420001,0
                91.0275570920001,49.9332009390001,0
                91.096287121,49.8910067030001,0
                91.1174830160001,49.8329113120001,0
                91.088514343,49.7483450390001,0
                91.0806681880001,49.6743682480001,0
                91.099242114,49.5977779520001,0
                91.125735573,49.526479576,0
                91.1522064550001,49.476315007,0
                91.051990205,49.3177042080001,0
                90.925164785,49.3387025490001,0
                90.8459130090001,49.3386178810001,0
                90.740269373,49.314729458,0
                90.6266977380001,49.2934742960001,0
                90.5368959910001,49.2775279850001,0
                90.4233046000001,49.2747649020001,0
                90.3096934540001,49.290493902,0
                90.240943669,49.3511802190001,0
                90.137803471,49.456739187,0
                90.0822736040001,49.5068727120001,0
                90.0636611080001,49.619566595,0
                90.1341071320001,49.6196418530001,0
                90.1338663010001,49.8450691290001,0
                90.126648602,50.0070874580001,0
                90.1124916630001,50.0704738270001,0
                90.027888702,50.133784936,0
                89.9362035070001,50.232311533,0
                89.844555943,50.2956151160001,0
                89.6472017130001,50.3940288220001,0
                89.6188727850001,50.5348907650001,0
                89.7526750740001,50.5773013730001,0
                89.9076939560001,50.5422439330001,0
                89.9851319000001,50.5916389340001,0
                89.9709373320001,50.6902483150001,0
                89.921534804,50.7747308620001,0
                90.0764709000001,50.8171640470001,0
                90.2737498700001,50.7891963640001,0
                90.5484893620001,50.7894898770001,0
                90.696365803,50.8460047410001,0
                90.9288151040001,50.867386905,0
                91.182420789,50.86765784,0
                91.485255904,50.945472082,0
                91.766934635,51.0443975530001,0
                92.055567657,51.2278657790001,0
                92.4077300420001,51.291643498,0
                92.7106554690001,51.284922512,0
                93.0346996520001,51.2923133080001,0
                93.358796516,51.2503918880001,0
              </coordinates>
            </LinearRing>
          </outerBoundaryIs>
        </Polygon>
      </Placemark>
    </Document>
  </Document>
</kml>
