<?xml version="1.0" encoding="UTF-8"?>
<kml xmlns="http://www.opengis.net/kml/2.2">
  <Document id="root_doc">
    <Schema id="Bioregions_PA44.schema">
      <SimpleField name="OBJECTID" type="float"/>
      <SimpleField name="Shape_Leng" type="float"/>
      <SimpleField name="Shape_Area" type="float"/>
      <SimpleField name="Bioregions" type="string"/>
    </Schema>
    <Document id="Bioregions_PA44">
      <name>Bioregions_PA44</name>
      <Placemark id="Bioregions_PA44.1">
        <ExtendedData>
          <SchemaData schemaUrl="#Bioregions_PA44.schema">
            <SimpleData name="OBJECTID">156</SimpleData>
            <SimpleData name="Shape_Leng">158.76871735300</SimpleData>
            <SimpleData name="Shape_Area">165.48230430500</SimpleData>
            <SimpleData name="Bioregions">PA44</SimpleData>
          </SchemaData>
        </ExtendedData>
        <Polygon>
          <outerBoundaryIs>
            <LinearRing>
              <coordinates>
                116.631983948,53.3146700390001,0
                116.660211277,53.268910227,0
                116.660297825,53.1878973,0
                116.695573519,53.1386227140001,0
                116.759023858,53.092900532,0
                116.868260351,53.0507495700001,0
                116.973936912,53.043817856,0
                117.079605948,53.0439307460001,0
                117.188797284,53.044047398,0
                117.276854813,53.0441414730001,0
                117.357886556,53.0266165150001,0
                117.357999445,52.9209474800001,0
                117.220727536,52.8292208930001,0
                117.118671114,52.744576538,0
                116.970824776,52.6598832650001,0
                116.85116061,52.571697794,0
                116.742067111,52.4800013110001,0
                116.622417997,52.377726635,0
                116.453464193,52.2683546760001,0
                116.333800028,52.180169205,0
                116.193028395,52.067305048,0
                116.083946185,51.965041662,0
                115.992467955,51.8698416930001,0
                115.932652806,51.809898602,0
                115.915124086,51.7323891610001,0
                115.936303048,51.6901441250001,0
                115.989175195,51.6549775570001,0
                116.094851757,51.6480458450001,0
                116.203967834,51.71860852,0
                116.274368702,51.7609513940001,0
                116.411757263,51.7434866450001,0
                116.478696037,51.729468936,0
                116.55268694,51.708414152,0
                116.612626267,51.652121304,0
                116.69018839,51.5852803670001,0
                116.760694621,51.5289988070001,0
                116.838192773,51.522036991,0
                116.929765078,51.529179431,0
                117.045948335,51.578615825,0
                117.144489982,51.6562118150001,0
                117.243024104,51.740852407,0
                117.324029505,51.7479835570001,0
                117.436746906,51.744581672,0
                117.567102154,51.716542492,0
                117.686882971,51.695536626,0
                117.824245192,51.7027279850001,0
                117.950976538,51.769787175,0
                118.109397305,51.847447135,0
                118.2396359,51.928599293,0
                118.391072273,51.949894908,0
                118.517875115,51.9500303740001,0
                118.64469301,51.936076637,0
                118.75391445,51.9080148800001,0
                118.894802734,51.9116877010001,0
                119.032157429,51.9259236610001,0
                119.187112339,51.9507453410001,0
                119.338533661,51.9861301600001,0
                119.479357974,52.049682101,0
                119.577877044,52.1484118970001,0
                119.62712529,52.2083437000001,0
                119.764528903,52.1767897450001,0
                119.845583222,52.1381309810001,0
                119.902022827,52.0607005620001,0
                119.940828347,52.0043851360001,0
                119.972593029,51.9445398830001,0
                120.004402866,51.842427016,0
                120.025638273,51.7473474610001,0
                120.078502895,51.719225496,0
                120.148945156,51.722823057,0
                120.240464779,51.7792777130001,0
                120.296795257,51.8039940300001,0
                120.346145103,51.7688237,0
                120.346246703,51.6737215680001,0
                120.346397222,51.5328295210001,0
                120.346480008,51.4553388940001,0
                120.34657032,51.370803666,0
                120.420640245,51.2757805570001,0
                120.477068561,51.2089170420001,0
                120.540515137,51.1667171620001,0
                120.632143887,51.1210250840001,0
                120.744887628,51.0929670900001,0
                120.854082727,51.0895614410001,0
                120.949192386,51.082618439,0
                121.019638409,51.0826936990001,0
                121.068965678,51.068657176,0
                121.139468146,51.0158979170001,0
                121.209970614,50.96313866,0
                121.248761083,50.9209124380001,0
                121.276980885,50.882197229,0
                121.301738594,50.787121438,0
                121.30181009,50.720197715,0
                121.280751543,50.6497291140001,0
                121.301971899,50.568738765,0
                121.326695741,50.505363684,0
                121.379567888,50.470197118,0
                121.46059963,50.4526721600001,0
                121.48884201,50.392823144,0
                121.503025289,50.3047806660001,0
                121.503149467,50.1885447270001,0
                121.559566494,50.132248115,0
                121.68644836,50.0584152580001,0
                121.721701475,50.0302744790001,0
                121.806255518,50.012753284,0
                121.922465116,50.037533571,0
                122.010507593,50.05171685,0
                122.084457103,50.069407379,0
                122.183077774,50.0730350430001,0
                122.239479748,50.030827636,0
                122.239592637,49.9251586010001,0
                122.183348708,49.819429358,0
                122.144667366,49.759508845,0
                122.095434172,49.6854878390001,0
                122.081416464,49.6185490650001,0
                122.134360108,49.516458775,0
                122.204941599,49.3897311920001,0
                122.205013095,49.3228074690001,0
                122.205141037,49.203049229,0
                122.131251734,49.1290018820001,0
                122.039713296,49.090158731,0
                121.916436518,49.086504727,0
                121.821368253,49.0547024150001,0
                121.698140393,49.005258494,0
                121.60306084,48.984023087,0
                121.476276812,48.966276114,0
                121.374194049,48.906287868,0
                121.279174702,48.8286956410001,0
                121.163047889,48.726424728,0
                121.10676633,48.6559184970001,0
                121.047000099,48.550185491,0
                120.994285998,48.437415408,0
                120.959179638,48.328186443,0
                120.818389191,48.2329337910001,0
                120.716310191,48.169423244,0
                120.596646024,48.0812377730001,0
                120.536894846,47.9614155620001,0
                120.48415064,47.876823889,0
                120.40676914,47.7745943690001,0
                120.31179495,47.6547345290001,0
                120.220312956,47.5630568610001,0
                120.213369955,47.4679472020001,0
                120.139473126,47.400944458,0
                120.07263219,47.3233823350001,0
                120.05863706,47.2353097530001,0
                120.072842916,47.1261334690001,0
                120.083518946,47.023998024,0
                120.101224527,46.9359593090001,0
                120.129451855,46.8901994980001,0
                120.133075757,46.795101129,0
                120.231722768,46.7740726850001,0
                120.355010835,46.767159787,0
                120.453642793,46.7602205480001,0
                120.566401587,46.7180733490001,0
                120.679164143,46.672403849,0
                120.802501129,46.619701036,0
                120.95749367,46.6092997040001,0
                121.098423347,46.5742272100001,0
                121.239345498,46.5461993210001,0
                121.383752321,46.5533982050001,0
                121.53519622,46.567649218,0
                121.665495023,46.592444556,0
                121.785196818,46.645407015,0
                121.922480015,46.7265666980001,0
                121.999872804,46.8182293150001,0
                122.020950167,46.87108641,0
                122.020833514,46.9802777470001,0
                122.094628742,47.142382624,0
                122.161435812,47.2516454570001,0
                122.207094023,47.374974917,0
                122.24215899,47.5229491960001,0
                122.294891907,47.6181077730001,0
                122.372280932,47.7132926900001,0
                122.484847814,47.8507828520001,0
                122.551692514,47.9248226730001,0
                122.618525925,48.0094293980001,0
                122.720601163,48.0764622470001,0
                122.857937041,48.108309713,0
                122.960053672,48.1365972500001,0
                123.086785018,48.203656439,0
                123.167696344,48.2988451190001,0
                123.262681824,48.408138057,0
                123.336586178,48.4680961990001,0
                123.442221347,48.4999097990001,0
                123.554919932,48.5141194190001,0
                123.674640543,48.549470372,0
                123.794323523,48.6200443370001,0
                123.892850119,48.711729532,0
                123.927960241,48.8174361970001,0
                124.019457286,48.89502466,0
                124.139162845,48.944464818,0
                124.287061865,48.9798458750001,0
                124.420931888,48.9588550610001,0
                124.533653051,48.951930874,0
                124.618128072,49.0083780040001,0
                124.73076645,49.0789444440001,0
                124.808166764,49.1635624570001,0
                124.899671335,49.234106318,0
                125.005287689,49.283531424,0
                125.075635876,49.3751865140001,0
                125.145953957,49.495020014,0
                125.23747358,49.5514746710001,0
                125.350119484,49.6149965070001,0
                125.491026584,49.601057821,0
                125.589696172,49.5588955700001,0
                125.589801536,49.4602711380001,0
                125.589942648,49.328184843,0
                125.590083759,49.1960985490001,0
                125.590191005,49.0957129650001,0
                125.653637581,49.0535130850001,0
                125.732895002,49.0483143000001,0
                125.812141134,49.053682419,0
                125.88609817,49.064328345,0
                125.949556036,49.0115615610001,0
                125.923229089,48.9269981100001,0
                125.886318305,48.858273726,0
                125.981443014,48.837241519,0
                126.092339057,48.8901945710001,0
                126.171500522,48.974814467,0
                126.261319202,48.9749104220001,0
                126.335281883,48.980272896,0
                126.467311732,49.0332485260001,0
                126.551807449,49.070323,0
                126.67857078,49.107442629,0
                126.741989135,49.0916600080001,0
                126.779086187,48.986030484,0
                126.821455402,48.8909735080001,0
                126.793344726,48.8275419830001,0
                126.830366518,48.7923584820001,0
                126.87972389,48.7501435500001,0
                126.927325756,48.702643284,0
                126.900940482,48.6726755020001,0
                126.835794844,48.656755531,0
                126.756565645,48.6355370570001,0
                126.686159133,48.5984776350001,0
                126.629838063,48.564955566,0
                126.58410271,48.51383328,0
                126.619384048,48.459275242,0
                126.681056304,48.4294015340001,0
                126.740986224,48.3819144390001,0
                126.811441656,48.373183946,0
                126.869570914,48.362679131,0
                126.881938479,48.325708139,0
                126.881979872,48.286962826,0
                126.843275952,48.24817612,0
                126.797518022,48.218187642,0
                126.748252842,48.174106195,0
                126.744785104,48.123029065,0
                126.817016738,48.1002112480001,0
                126.891017048,48.0703507110001,0
                126.984391896,48.0387497190001,0
                127.077781796,47.9930595230001,0
                127.151789632,47.9561543830001,0
                127.209962165,47.905143105,0
                127.23471423,47.8153507660001,0
                127.234830882,47.7061594290001,0
                127.203218601,47.6233514840001,0
                127.173324197,47.5810518860001,0
                127.076432692,47.6073656620001,0
                126.9513402,47.654783143,0
                126.833267851,47.7251031060001,0
                126.764515244,47.7884311490001,0
                126.695781453,47.8341476860001,0
                126.584736773,47.9203255310001,0
                126.519557267,47.9361062720001,0
                126.440281031,47.9589165630001,0
                126.40678154,47.9941038260001,0
                126.392611431,48.06981825,0
                126.381937283,48.170192544,0
                126.34485152,48.265255165,0
                126.295499792,48.3021866460001,0
                126.203901146,48.319700314,0
                126.122846827,48.3583590790001,0
                126.040048289,48.3811656060001,0
                125.98542628,48.405763388,0
                125.934307758,48.4479764390001,0
                125.897284084,48.4849210900001,0
                125.826781616,48.537680348,0
                125.754551863,48.558737014,0
                125.670016635,48.5586467030001,0
                125.567884953,48.544448371,0
                125.486905893,48.512661112,0
                125.414743875,48.4703163570001,0
                125.326720211,48.4385215720001,0
                125.233431912,48.389109637,0
                125.161251079,48.364376387,0
                125.062630409,48.360748723,0
                125.002771985,48.341312095,0
                124.942938021,48.29898051,0
                124.891906046,48.260180635,0
                124.883143568,48.2196647640001,0
                124.906066748,48.1932719640001,0
                124.955392135,48.1809965910001,0
                125.041692276,48.1775664840001,0
                125.122695796,48.1864587850001,0
                125.219536501,48.2076960730001,0
                125.30579525,48.243011278,0
                125.376216814,48.2659814960001,0
                125.451923711,48.2871962070001,0
                125.504739415,48.304864158,0
                125.591028267,48.3120009520001,0
                125.650914913,48.305020321,0
                125.702025911,48.2698518720001,0
                125.717917659,48.231123493,0
                125.698588276,48.190596333,0
                125.658117561,48.157091198,0
                125.571866338,48.1147313910001,0
                125.494418986,48.074142141,0
                125.432790004,48.0635093860001,0
                125.302478031,48.0510421010001,0
                125.212676284,48.0350957900001,0
                125.084144277,48.0050188810001,0
                124.950326935,47.9766974790001,0
                124.874636971,47.939632412,0
                124.786618953,47.902554175,0
                124.716225612,47.853166699,0
                124.677536743,47.800290788,0
                124.656487603,47.721016434,0
                124.633650972,47.6663963070001,0
                124.58267356,47.5765230630001,0
                124.540468036,47.5183599380001,0
                124.505312757,47.4549208870001,0
                124.49482864,47.377418972,0
                124.514285963,47.298187892,0
                124.553059498,47.2718120260001,0
                124.625315591,47.2260992510001,0
                124.695778548,47.2103241560001,0
                124.757430108,47.1998231040001,0
                124.817286649,47.2210208820001,0
                124.859516635,47.2562890500001,0
                124.887631073,47.316198274,0
                124.931605274,47.3673186780001,0
                124.959712187,47.4342725050001,0
                124.912099032,47.4923396730001,0
                124.862736016,47.539838058,0
                124.846838623,47.5838498900001,0
                124.859129047,47.619086071,0
                124.892573976,47.634972175,0
                124.941878665,47.642069459,0
                125.005276324,47.645659493,0
                125.086262911,47.6704021510001,0
                125.151399141,47.695127874,0
                125.249965248,47.7498289060001,0
                125.341505567,47.7869109050001,0
                125.418958563,47.822216703,0
                125.496404034,47.8645671020001,0
                125.561544028,47.8857705250001,0
                125.644312461,47.8911424070001,0
                125.734131141,47.8912383630001,0
                125.788756914,47.863118279,0
                125.797613467,47.815576621,0
                125.746592781,47.766209841,0
                125.677938012,47.737958054,0
                125.616324082,47.713236093,0
                125.524764948,47.6937655990001,0
                125.461406801,47.6531914020001,0
                125.401550259,47.6319936240001,0
                125.329386358,47.5914100200001,0
                125.278352503,47.5543712940001,0
                125.229085442,47.5120509980001,0
                125.183331275,47.4785402190001,0
                125.153431227,47.4415240700001,0
                125.148194812,47.3974896610001,0
                125.162323528,47.360520551,0
                125.20812285,47.351763717,0
                125.26270723,47.3623889460001,0
                125.304956029,47.380045608,0
                125.356006819,47.4012339780001,0
                125.40708583,47.3960050900001,0
                125.456443202,47.353790158,0
                125.507557962,47.315099408,0
                125.549844391,47.2975330570001,0
                125.634471813,47.21132699,0
                125.685592217,47.1673527890001,0
                125.722606483,47.1392138910001,0
                125.782500655,47.1251886570001,0
                125.835309773,47.1490206340001,0
                125.877529409,47.1939751300001,0
                125.930293371,47.2600747210001,0
                125.996265962,47.3261884240001,0
                126.059630694,47.3605985950001,0
                126.122967204,47.421426024,0
                126.180986395,47.5139485190001,0
                126.228449972,47.5958928220001,0
                126.275950238,47.643494688,0
                126.331367214,47.6990301980001,0
                126.389425917,47.7545685310001,0
                126.447555175,47.744063716,0
                126.468768005,47.670117969,0
                126.434496124,47.6040381330001,0
                126.394949258,47.5300274750001,0
                126.363327571,47.456025283,0
                126.310586186,47.3687918840001,0
                126.273681047,47.2947840480001,0
                126.228842262,47.228692923,0
                126.168158768,47.157301413,0
                126.088954969,47.1123074060001,0
                126.012378785,47.0805248510001,0
                125.935799779,47.051384021,0
                125.869796143,47.0143293030001,0
                125.827568041,46.9772999840001,0
                125.782706678,46.9323426670001,0
                125.743128768,46.8873909930001,0
                125.729954005,46.855676171,0
                125.719423791,46.8213224460001,0
                125.724738287,46.792269106,0
                125.759106124,46.7685302610001,0
                125.804021109,46.7632947880001,0
                125.838340967,46.7844652840001,0
                125.885841232,46.8320671500001,0
                125.922785884,46.8690908240001,0
                125.967650068,46.911406416,0
                126.017823104,46.9299521190001,0
                126.04424883,46.922055164,0
                126.054852423,46.887724017,0
                126.060189497,46.8375368700001,0
                126.044392764,46.7873271440001,0
                126.018029127,46.73710613,0
                125.978445573,46.697437908,0
                125.944137003,46.665700509,0
                125.931007396,46.591718073,0
                125.923158419,46.5203830070001,0
                125.904714316,46.475453911,0
                125.851936243,46.4225629490001,0
                125.780654799,46.3802191350001,0
                125.690850231,46.3669145490001,0
                125.566700402,46.3562150010001,0
                125.479523449,46.3561218670001,0
                125.389687835,46.3718762660001,0
                125.331555754,46.385022807,0
                125.273401096,46.419303154,0
                125.236397178,46.4377557240001,0
                125.14398475,46.3927476050001,0
                125.07269484,46.3583289690001,0
                125.011983123,46.313354717,0
                124.967147161,46.244621866,0
                124.943450651,46.1706281410001,0
                124.962016109,46.101963024,0
                124.917163215,46.049080528,0
                124.819447579,46.022558847,0
                124.716445669,45.9986732460001,0
                124.658370034,45.958985269,0
                124.595013768,45.916649921,0
                124.550166517,45.8584839740001,0
                124.497402555,45.7923843820001,0
                124.471050208,45.7315964640001,0
                124.460542571,45.676108932,0
                124.479085452,45.6285776220001,0
                124.510851075,45.567851793,0
                124.542605408,45.517692868,0
                124.558531963,45.446383202,0
                124.587698193,45.346028663,0
                124.519021787,45.3380301080001,0
                124.458270558,45.3300400190001,0
                124.376385522,45.3220273520001,0
                124.368525256,45.26125919,0
                124.392337478,45.226942153,0
                124.445186107,45.2137899680001,0
                124.468995507,45.182114658,0
                124.461121129,45.1345551250001,0
                124.487592011,45.0843905560001,0
                124.53252675,45.0606630010001,0
                124.519394322,44.9893222910001,0
                124.485119619,44.92588418,0
                124.445544531,44.878290781,0
                124.419203472,44.80693596,0
                124.406082332,44.725028346,0
                124.39292168,44.6801048950001,0
                124.390358977,44.606133748,0
                124.348122408,44.577029607,0
                124.282087727,44.5690338740001,0
                124.282175217,44.4871403710001,0
                124.276934098,44.4475088390001,0
                124.24526161,44.421057713,0
                124.181860189,44.4209899790001,0
                124.131641997,44.4447118900001,0
                124.097265693,44.476375912,0
                124.060236375,44.5186040150001,0
                124.010012539,44.547609376,0
                123.954530651,44.552833562,0
                123.893787889,44.5369182950001,0
                123.90706143,44.4761727110001,0
                123.915028941,44.4365552890001,0
                123.928268615,44.407510416,0
                123.962681607,44.341503958,0
                124.002355473,44.296636951,0
                124.063160325,44.2544342480001,0
                124.139809886,44.2175319310001,0
                124.150475568,44.1250828130001,0
                124.145237272,44.082809555,0
                124.124162732,44.027310734,0
                124.084598933,43.9691504300001,0
                124.042382119,43.921554208,0
                123.994881854,43.873952343,0
                123.994941121,43.8184760990001,0
                123.989745158,43.7365769520001,0
                123.987171166,43.673172709,0
                123.910586515,43.649315331,0
                123.815464628,43.6677058120001,0
                123.709744792,43.7151439880001,0
                123.641031696,43.741487869,0
                123.601388875,43.7572958910001,0
                123.556462602,43.7730982680001,0
                123.533972654,43.806095853,0
                123.540536046,43.8444079330001,0
                123.57617959,43.8629381150001,0
                123.607866189,43.8761806110001,0
                123.644844707,43.8815035740001,0
                123.673903692,43.881534618,0
                123.69631885,43.91854277,0
                123.687024832,43.9634422330001,0
                123.652645706,43.99774798,0
                123.612987363,44.028085494,0
                123.586530592,44.0650414340001,0
                123.585149051,44.121837129,0
                123.606247581,44.154881281,0
                123.653788769,44.1641781210001,0
                123.688126972,44.1681773990001,0
                123.713220545,44.1708459370001,0
                123.752825267,44.1907012140001,0
                123.772600111,44.2263856810001,0
                123.743486093,44.2778682910001,0
                123.68796046,44.3240392270001,0
                123.629783224,44.3794533810001,0
                123.579553743,44.4137421950001,0
                123.524021054,44.4665174460001,0
                123.451305859,44.5298412560001,0
                123.390484075,44.587894314,0
                123.338949253,44.607652224,0
                123.291395365,44.61024315,0
                123.258400603,44.5851114760001,0
                123.246565047,44.5362268470001,0
                123.246625725,44.4794297400001,0
                123.238748525,44.4345119340001,0
                123.209731874,44.3948550010001,0
                123.178048097,44.378970779,0
                123.12786095,44.373633705,0
                123.069734514,44.381496794,0
                123.01291624,44.4012490600001,0
                122.986466526,44.431600685,0
                122.981135096,44.476504381,0
                122.974464459,44.5385778830001,0
                122.953285496,44.5808229200001,0
                122.921570675,44.5939976820001,0
                122.876662745,44.5926288410001,0
                122.837062257,44.5688109750001,0
                122.798793921,44.5344276160001,0
                122.76448394,44.5040110790001,0
                122.723565411,44.4775500760001,0
                122.664140689,44.464277946,0
                122.600761847,44.4430764050001,0
                122.532096729,44.4245109450001,0
                122.463421734,44.415191527,0
                122.403982901,44.415128027,0
                122.345864932,44.4150659380001,0
                122.26793543,44.413661819,0
                122.195285145,44.4162259330001,0
                122.126603094,44.4135108290001,0
                122.06188081,44.4134416840001,0
                122.011688019,44.4133880620001,0
                121.954892324,44.4120065210001,0
                121.899437247,44.3921343100001,0
                121.817577611,44.3603461100001,0
                121.763451864,44.332550133,0
                121.696120309,44.302098318,0
                121.635381781,44.2822204620001,0
                121.562768186,44.2504421410001,0
                121.491481098,44.213381778,0
                121.438680448,44.1816246220001,0
                121.384557522,44.1511869190001,0
                121.339680638,44.1207590930001,0
                121.290843987,44.0876853080001,0
                121.252578473,44.0506602230001,0
                121.227525821,44.009686661,0
                121.224922196,43.97402054,0
                121.238159048,43.9476173910001,0
                121.271197555,43.931802314,0
                121.316129473,43.9107164850001,0
                121.375596527,43.8843627260001,0
                121.411289461,43.8566627050001,0
                121.420577834,43.8170466940001,0
                121.416650524,43.784020888,0
                121.381016858,43.756244666,0
                121.321578025,43.756181165,0
                121.251575111,43.7534646510001,0
                121.172327568,43.7494173950001,0
                121.094393832,43.751975864,0
                121.032324563,43.741342638,0
                120.971574745,43.7320316870001,0
                120.904210735,43.731959719,0
                120.86458767,43.72927566,0
                120.826303811,43.709421793,0
                120.793323159,43.6710814900001,0
                120.78149466,43.6155925470001,0
                120.781542638,43.5706832070001,0
                120.760462453,43.5204678360001,0
                120.735418269,43.471569097,0
                120.719614481,43.4279636860001,0
                120.726279473,43.371173635,0
                120.759356081,43.3196952580001,0
                120.769983662,43.262909441,0
                120.767395558,43.212713826,0
                120.746333718,43.145327239,0
                120.723929849,43.0977521840001,0
                120.680387938,43.0541171400001,0
                120.613083195,42.998568929,0
                120.552370066,42.954915541,0
                120.485031457,42.9310680410001,0
                120.419003832,42.916467993,0
                120.359577699,42.9045167260001,0
                120.305432196,42.8952128290001,0
                120.272421912,42.884610648,0
                120.240743779,42.8634429740001,0
                120.220966113,42.8304002340001,0
                120.223638883,42.8013440710001,0
                120.246133065,42.7643838980001,0
                120.258068809,42.7194872580001,0
                120.256805802,42.6653304660001,0
                120.225150247,42.6230289850001,0
                120.194807089,42.5886540930001,0
                120.179887168,42.541967609,0
                120.179956783,42.4768050380001,0
                120.180018873,42.4186870680001,0
                120.171260157,42.374648897,0
                120.141393975,42.305932038,0
                120.097416011,42.2583339350001,0
                120.03934696,42.2124819300001,0
                119.974233307,42.1666224000001,0
                119.921421367,42.1454321480001,0
                119.859805555,42.122471338,0
                119.778796391,42.118862488,0
                119.718909745,42.1258431200001,0
                119.67133422,42.1486872780001,0
                119.60969583,42.1468602750001,0
                119.558650686,42.120388453,0
                119.512902164,42.081594221,0
                119.465383083,42.051603861,0
                119.414339819,42.023370889,0
                119.365042655,42.009229002,0
                119.306926567,42.0074057620001,0
                119.299782245,42.1007392170001,0
                119.301441796,42.19584323,0
                119.303133332,42.261007684,0
                119.320645118,42.3543674800001,0
                119.320556688,42.4371415580001,0
                119.353973394,42.479444921,0
                119.397977699,42.502386916,0
                119.459617969,42.5024527670001,0
                119.521262003,42.4989963190001,0
                119.572327845,42.5060954840001,0
                119.614580406,42.520229844,0
                119.651532583,42.550208916,0
                119.681423225,42.5960308160001,0
                119.695435289,42.668253043,0
                119.728855757,42.7070341030001,0
                119.783415677,42.7405542910001,0
                119.815082521,42.7722888690001,0
                119.793854639,42.8603238200001,0
                119.758567657,42.9201653100001,0
                119.735599322,42.988825724,0
                119.709148195,43.0204982130001,0
                119.666869292,43.031019961,0
                119.615810978,43.016876192,0
                119.589416296,42.9957141630001,0
                119.575379773,42.9463868940001,0
                119.545496658,42.893520392,0
                119.508535073,42.8723470730001,0
                119.436346714,42.8546584260001,0
                119.41702862,42.803564362,0
                119.406495584,42.7718523630001,0
                119.374847555,42.7225062800001,0
                119.314996657,42.6960250500001,0
                119.24807858,42.6906701010001,0
                119.177630675,42.692355993,0
                119.101874858,42.7169311970001,0
                119.045469121,42.7626609050001,0
                118.985527911,42.8207149030001,0
                118.922085097,42.859392482,0
                118.828719656,42.882187722,0
                118.751206452,42.903238743,0
                118.670169066,42.9260471520001,0
                118.606743186,42.948874376,0
                118.525722733,42.955832431,0
                118.427090774,42.9627716690001,0
                118.328451289,42.97675551,0
                118.219235493,42.9995338150001,0
                118.146996333,43.029396235,0
                118.067703164,43.0680568810001,0
                117.98840435,43.112000978,0
                117.942565516,43.1577419750001,0
                117.90904721,43.2105407440001,0
                117.854395097,43.2633169360001,0
                117.812084209,43.3037782430001,0
                117.759225232,43.3266167570001,0
                117.699342349,43.3300750870001,0
                117.586636237,43.32291007,0
                117.567210899,43.372201589,0
                117.59886269,43.4180253710001,0
                117.656935504,43.4603550750001,0
                117.764343112,43.481603653,0
                117.852376183,43.504592685,0
                117.926342626,43.506432858,0
                118.026726328,43.5083012540001,0
                118.097172351,43.508376513,0
                118.164088548,43.5154926120001,0
                118.167539352,43.5824200980001,0
                118.119939368,43.6281592130001,0
                118.061766836,43.679170491,0
                118.007135419,43.712574026,0
                117.91553301,43.733609996,0
                117.822178858,43.74583833,0
                117.746436213,43.7580854810001,0
                117.688288139,43.7862018010001,0
                117.624832155,43.837207434,0
                117.582506215,43.891757947,0
                117.52260828,43.909305483,0
                117.466204424,43.9532740390001,0
                117.441469293,44.0272160230001,0
                117.404426804,44.08177218,0
                117.353317688,44.1151794780001,0
                117.275847759,44.095724036,0
                117.214237592,44.067479775,0
                117.182566985,44.0392674980001,0
                117.147389129,43.996962254,0
                117.124535565,43.9581924820001,0
                117.122817688,43.917684137,0
                117.15636798,43.8349458070001,0
                117.170547496,43.750425631,0
                117.158294701,43.6799664370001,0
                117.153092153,43.6042313180001,0
                117.149671452,43.5091254230001,0
                117.132137088,43.4368994330001,0
                117.118117498,43.3717218100001,0
                117.114659168,43.3118389270001,0
                117.188676411,43.2661280340001,0
                117.234487023,43.2468042960001,0
                117.269770242,43.190485107,0
                117.276925853,43.0865847490001,0
                117.277006757,43.0108552730001,0
                117.277087661,42.9351257980001,0
                117.308848579,42.8788028450001,0
                117.328298376,42.806616368,0
                117.328360466,42.748498398,0
                117.328407503,42.704469633,0
                117.277418803,42.6251632940001,0
                117.233435193,42.582848642,0
                117.192975768,42.538776603,0
                117.143718114,42.487650554,0
                117.080376901,42.4312260020001,0
                117.015282063,42.3677549650001,0
                116.973082182,42.304308389,0
                116.922080312,42.237330103,0
                116.858735335,42.1844278510001,0
                116.77250669,42.120934237,0
                116.672183195,42.062709023,0
                116.596502638,42.0168382030001,0
                116.496184788,41.9533295370001,0
                116.406409382,41.912727117,0
                116.330749523,41.847483642,0
                116.214601072,41.7654659620001,0
                116.130111,41.7231080350001,0
                116.037707039,41.6701747390001,0
                115.929461189,41.609299332,0
                115.831768131,41.5616438440001,0
                115.755186303,41.5351447400001,0
                115.665415601,41.4901394440001,0
                115.580939639,41.434572889,0
                115.475335516,41.3737003040001,0
                115.404065362,41.320789587,0
                115.316973074,41.2414446760001,0
                115.229852565,41.1885170250001,0
                115.145382248,41.1276670180001,0
                115.066220783,41.0430471230001,0
                114.960602548,40.9953831670001,0
                114.852331298,40.9582832930001,0
                114.773110566,40.9291396420001,0
                114.693898301,40.892070812,0
                114.651684309,40.8418328650001,0
                114.696641627,40.7969715030001,0
                114.73894593,40.762674222,0
                114.797106233,40.723110422,0
                114.82619344,40.696724208,0
                114.86587295,40.6465737500001,0
                114.934557824,40.646647128,0
                114.995317519,40.6467120400001,0
                115.050819163,40.6229957730001,0
                115.082573496,40.5728368490001,0
                115.069415666,40.525271672,0
                115.016612194,40.496156242,0
                114.942694669,40.448526153,0
                114.87136807,40.4484499530001,0
                114.813278323,40.4219706050001,0
                114.757830302,40.3954940790001,0
                114.712853228,40.458847522,0
                114.636229066,40.471974308,0
                114.593992497,40.4428701670001,0
                114.533272313,40.405821093,0
                114.475193854,40.3687748420001,0
                114.398614848,40.339634012,0
                114.324612657,40.3712557000001,0
                114.226863155,40.376434729,0
                114.174073792,40.3341106710001,0
                114.166221993,40.26541733,0
                114.147817401,40.1835040730001,0
                114.113522942,40.138558043,0
                114.050177966,40.0856557920001,0
                113.989440848,40.064457073,0
                113.881152665,40.043207555,0
                113.75700566,40.0298662800001,0
                113.67511498,40.027137065,0
                113.590579751,40.027046754,0
                113.503385864,40.042803975,0
                113.408249865,40.0744030860001,0
                113.326345073,40.0848825,0
                113.265602312,40.0689672330001,0
                113.189026128,40.0371846780001,0
                113.117736218,40.002766041,0
                113.070261352,39.9313886420001,0
                113.033350568,39.8626642570001,0
                112.996431317,39.801865051,0
                112.954217325,39.7516271040001,0
                112.917289608,39.6987530750001,0
                112.86453129,39.6273700300001,0
                112.806483877,39.5612647940001,0
                112.761622515,39.5163074760001,0
                112.714150471,39.442288352,0
                112.685145109,39.3920645150001,0
                112.61122194,39.349717878,0
                112.529418749,39.265095161,0
                112.46344898,39.1963397310001,0
                112.413338033,39.119676059,0
                112.365871634,39.0403734820001,0
                112.302523835,38.9901129560001,0
                112.218078918,38.905487416,0
                112.117693335,38.905380171,0
                112.012021477,38.907909008,0
                111.92485299,38.899890697,0
                111.816553518,38.889208081,0
                111.800655184,38.9341004890001,0
                111.742525926,38.9446053030001,0
                111.681785986,38.9260483100001,0
                111.615776705,38.894277043,0
                111.570904055,38.8598866290001,0
                111.504891952,38.830757088,0
                111.436240946,38.7989830000001,0
                111.354333333,38.81210414,0
                111.319931628,38.8675436950001,0
                111.346292443,38.920406434,0
                111.372681479,38.9468519160001,0
                111.430743004,38.9997485230001,0
                111.515151232,39.1187164990001,0
                111.586398808,39.192761024,0
                111.636467422,39.3090505850001,0
                111.586221008,39.3591897540001,0
                111.535991527,39.393478568,0
                111.469906046,39.433033901,0
                111.472474394,39.501721597,0
                111.556961644,39.546721248,0
                111.63084248,39.6286937730001,0
                111.691517508,39.7080104610001,0
                111.7178755,39.7635149270001,0
                111.717782366,39.850691881,0
                111.72823638,39.956372205,0
                111.775716891,40.022466153,0
                111.796825298,40.0462642640001,0
                111.854903755,40.0833105150001,0
                111.949924043,40.160022166,0
                112.023827456,40.220860884,0
                112.087180899,40.2658379580001,0
                112.116191906,40.310778343,0
                112.116152395,40.347762505,0
                112.071209188,40.379415237,0
                112.010457959,40.3714251480001,0
                111.928575745,40.3607707560001,0
                111.801815237,40.3210094,0
                111.677668231,40.3076681260001,0
                111.572013307,40.2943466070001,0
                111.418793206,40.294182918,0
                111.26818943,40.3177975830001,0
                111.154566995,40.344093485,0
                111.025091382,40.373014181,0
                110.819014185,40.393927853,0
                110.668416054,40.412259067,0
                110.496644605,40.4675518660001,0
                110.271993482,40.5650558340001,0
                110.126653402,40.6071682250001,0
                109.960187982,40.6413328610001,0
                109.772614155,40.6516993860001,0
                109.585062907,40.6409321030001,0
                109.44239842,40.6513466060001,0
                109.228384756,40.682818716,0
                109.024912597,40.7380776480001,0
                108.890156354,40.764350973,0
                108.778757036,40.807611261,0
                108.83985914,40.8620412080001,0
                108.853812877,40.988859102,0
                108.959421704,41.045328811,0
                109.082626986,41.115906538,0
                109.283228819,41.2746245810001,0
                109.505156372,41.2537278410001,0
                109.737504071,41.3702121370001,0
                109.969930793,41.4127281080001,0
                110.19181319,41.4340989830001,0
                110.432108645,41.5294579380001,0
                110.719977744,41.603733886,0
                110.962926213,41.6885287600001,0
                111.142518419,41.7309882860001,0
                111.353856489,41.7312140650001,0
                111.575738886,41.7525849400001,0
                111.713029609,41.8267000210001,0
                111.860774346,42.0064954260001,0
                112.093201069,42.0490113970001,0
                112.378530042,42.028182391,0
                112.536943284,42.112886954,0
                112.748247488,42.144813443,0
                112.890804729,42.234784523,0
                113.03337326,42.314188701,0
                113.123112918,42.388252982,0
                113.19695142,42.5098513950001,0
                113.149298753,42.604902726,0
                113.091056605,42.721076576,0
                113.1437613,42.8426524120001,0
                113.28109718,42.874499879,0
                113.402548837,42.938031122,0
                113.402441592,43.0384167060001,0
                113.370571547,43.1968863920001,0
                113.307017725,43.339471857,0
                113.306882258,43.4662746990001,0
                113.428311337,43.5509397500001,0
                113.518050995,43.6250040310001,0
                113.517977617,43.6936889040001,0
                113.660506636,43.8100772430001,0
                113.697377909,43.91578579,0
                113.718359316,44.0584615660001,0
                113.818671521,44.127253684,0
                113.934851015,44.1802123800001,0
                113.992946407,44.2014082760001,0
                114.019284644,44.275404823,0
                114.061382923,44.433953532,0
                114.003135131,44.5554108330001,0
                114.003022242,44.661079869,0
                114.061032966,44.7615275420001,0
                114.097870373,44.8989367990001,0
                114.071289424,45.052128678,0
                114.028903276,45.1630360090001,0
                113.828053086,45.236789845,0
                113.637798022,45.28413771,0
                113.495122246,45.3051191160001,0
                113.320711893,45.3577673670001,0
                113.130451185,45.410398683,0
                112.98246938,45.452508252,0
                112.882032996,45.499952073,0
                112.760417649,45.58964093,0
                112.718076657,45.6582806480001,0
                112.754959219,45.7534222900001,0
                112.786535751,45.8696920960001,0
                112.738900018,45.9488930730001,0
                112.627981398,45.9170738290001,0
                112.527652259,45.8641320660001,0
                112.437906957,45.795351236,0
                112.316464708,45.7230142400001,0
                112.200270162,45.684144749,0
                112.062900415,45.6839979920001,0
                111.93605618,45.722607838,0
                111.935950816,45.821232271,0
                112.0204296,45.874157101,0
                112.147164709,45.9376939890001,0
                112.25271521,46.0487593650001,0
                112.199784737,46.138521601,0
                112.088832249,46.1384030660001,0
                111.977941852,46.0801665640001,0
                111.835378966,45.9954789340001,0
                111.671676627,45.9160521790001,0
                111.53431817,45.90533852,0
                111.407566128,45.8576519860001,0
                111.243801701,45.836343201,0
                111.17504345,45.9049546960001,0
                111.23304853,46.01068582,0
                111.296427374,46.0318873620001,0
                111.34922238,46.068927968,0
                111.364993713,46.1429132270001,0
                111.280385106,46.2115077880001,0
                111.174687849,46.2378121580001,0
                111.068973658,46.2799668820001,0
                110.994948888,46.332722377,0
                110.98956948,46.422535413,0
                110.968277628,46.570449485,0
                110.778062076,46.580813188,0
                110.67244384,46.533149232,0
                110.508668124,46.52240735,0
                110.281485342,46.516881186,0
                110.086003271,46.511388889,0
                109.922284001,46.4478124890001,0
                109.800843633,46.373714342,0
                109.557861296,46.3206201790001,0
                109.341262351,46.2992549480001,0
                109.140530695,46.262056295,0
                108.807780478,46.16131511,0
                108.601793592,46.097693555,0
                108.3905289,46.0287829040001,0
                108.16868037,45.975711318,0
                107.74952653,45.9752635230001,0
                107.312746132,45.988886119,0
                106.932262344,46.0589257410001,0
                106.50940558,46.227544639,0
                106.199382868,46.2835703160001,0
                105.931763239,46.212838306,0
                105.81927538,46.0013798200001,0
                105.763054028,45.8745167700001,0
                105.523537547,45.874260887,0
                105.284081275,45.817648186,0
                105.157387559,45.7153659840001,0
                105.101267808,45.493400803,0
                104.983250021,45.5126473990001,0
                104.919837311,45.5231465690001,0
                104.829967832,45.570601679,0
                104.745325358,45.670896951,0
                104.62375893,45.714795893,0
                104.454688473,45.7146152700001,0
                104.338476994,45.6915961340001,0
                104.248675248,45.6756498230001,0
                104.142898967,45.775922517,0
                104.00013288,45.8814391510001,0
                103.862633311,46.0028117860001,0
                103.693410454,46.1452843610001,0
                103.524227107,46.2507727730001,0
                103.407878279,46.35631763,0
                103.354925228,46.4672136730001,0
                103.307300784,46.5358477450001,0
                103.148780297,46.551528767,0
                103.011416196,46.546098559,0
                102.90574716,46.5459856700001,0
                102.926982567,46.4509061150001,0
                102.895377813,46.361053569,0
                102.747508898,46.297494102,0
                102.567978782,46.1969166060001,0
                102.409548607,46.1280624,0
                102.224729396,46.032762711,0
                102.034570288,45.9902918970001,0
                101.86020509,46.0006725330001,0
                101.765035225,46.063972354,0
                101.696299552,46.1114500410001,0
                101.55364071,46.116581093,0
                101.474355066,46.1481971360001,0
                101.3632784,46.264314541,0
                101.204667602,46.364530791,0
                100.972094124,46.459384566,0
                100.771232646,46.5437053040001,0
                100.612593625,46.6703388120001,0
                100.448688086,46.7811163210001,0
                100.305938932,46.8707826,0
                100.136812031,46.923436495,0
                99.920128419,46.9813230410001,0
                99.7510015180001,47.033976936,0
                99.6240462750001,47.176494667,0
                99.3915743970001,47.1762463100001,0
                99.1538134230001,47.1812757610001,0
                99.000593322,47.1811120720001,0
                98.7840903330001,47.0699281600001,0
                98.615098899,46.995779213,0
                98.477785597,46.9427979390001,0
                98.2611358520001,46.968983774,0
                98.065749737,46.873672798,0
                97.96540931,46.8312979390001,0
                97.81216663,46.8522680560001,0
                97.7011689870001,46.8944171360001,0
                97.5795649300001,46.97353909,0
                97.4051207100001,47.0578880510001,0
                97.2148825790001,47.08938556,0
                97.0510673520001,47.115627841,0
                96.9717139750001,47.2106453060001,0
                96.8870884350001,47.2950902220001,0
                96.8129789990001,47.4270974940001,0
                96.775853725,47.559144277,0
                96.6859278000001,47.6594339050001,0
                96.511506158,47.722649059,0
                96.3687626480001,47.8070318860001,0
                96.2841088860001,47.9178940620001,0
                96.2892060710001,48.0922536150001,0
                96.0671656280001,48.218819389,0
                95.9137931270001,48.3613088980001,0
                95.7815149210001,48.540805146,0
                95.7073998400001,48.6780958690001,0
                95.627956151,48.8576485630001,0
                95.5749579440001,49.0108122190001,0
                95.6223904760001,49.1218155070001,0
                95.6803842680001,49.2381135350001,0
                95.6907592590001,49.417762184,0
                95.5427548750001,49.48100556,0
                95.4318814110001,49.406918702,0
                95.289239502,49.396199397,0
                95.1465863050001,49.396046997,0
                94.9775158480001,49.395866374,0
                94.813779643,49.348140329,0
                94.7133884150001,49.3533165360001,0
                94.4597827300001,49.3530456010001,0
                94.2590002740001,49.3633980160001,0
                94.1110071790001,49.416074488,0
                94.005264766,49.4846464720001,0
                93.8678442200001,49.5320507810001,0
                93.7092898660001,49.579432513,0
                93.5665802240001,49.63211463,0
                93.349913546,49.6741508210001,0
                93.1702310300001,49.716226523,0
                92.9219200850001,49.7053943290001,0
                92.7422601480001,49.7263362250001,0
                92.684057511,49.8055259130001,0
                92.7262404580001,49.884822844,0
                92.789636235,49.89017403,0
                92.8688880110001,49.890258697,0
                92.9164447220001,49.8850260450001,0
                93.0115524980001,49.879844194,0
                93.1066207630001,49.9116465050001,0
                93.175277414,49.9381371420001,0
                93.2861791010001,49.9858067420001,0
                93.402431973,49.970080565,0
                93.6032031410001,49.9702950550001,0
                93.7300454940001,49.9334463600001,0
                93.8938607220001,49.90720408,0
                94.073571459,49.838711118,0
                94.2796430120001,49.8230808970001,0
                94.3958958850001,49.80735472,0
                94.5491442080001,49.78110115,0
                94.6865252430001,49.770681004,0
                94.8555844110001,49.78142853,0
                94.992914645,49.8185594490001,0
                95.1038163320001,49.866229048,0
                95.1724391160001,49.9244203960001,0
                95.2781081520001,49.9245332850001,0
                95.38910015,49.8876676570001,0
                95.4683914380001,49.8507681620001,0
                95.5476714360001,49.82443557,0
                95.6111180140001,49.7822356890001,0
                95.648175554,49.7135903280001,0
                95.6001548630001,49.5969293840001,0
                95.7587374380001,49.5231303940001,0
                95.806254638,49.5548819040001,0
                95.9176654610001,49.6821774850001,0
                95.9809370600001,49.803764609,0
                96.02303534,49.962313318,0
                96.0440054570001,50.1155559970001,0
                96.0861488930001,50.231837092,0
                96.2200791240001,50.154489459,0
                96.431432246,50.140626033,0
                96.6286886380001,50.1337921580001,0
                96.7907144930001,50.1339652550001,0
                97.0443352290001,50.1201469850001,0
                97.1359903200001,50.049798798,0
                97.248831899,49.930160974,0
                97.3897239460001,49.930311492,0
                97.5022795390001,50.0783685580001,0
                97.6570575900001,50.268738392,0
                97.8682075120001,50.44507923,0
                97.966734107,50.5367644250001,0
                98.1286696500001,50.6214727500001,0
                98.2766288770001,50.600496988,0
                98.502071205,50.5866486130001,0
                98.8402949040001,50.509519234,0
                99.2842102160001,50.411368936,0
                99.5308315060001,50.3552755260001,0
                99.7281180020001,50.32026324,0
                100.009962304,50.2642074600001,0
                100.369259602,50.243457477,0
                100.679237158,50.229699414,0
                100.932850369,50.222925747,0
                101.228723668,50.223241837,0
                101.418927932,50.2234450380001,0
                101.679563167,50.237812703,0
                101.848671253,50.2027703140001,0
                102.102314568,50.1678182370001,0
                102.320719819,50.1469177340001,0
                102.503887007,50.140068807,0
                102.574333031,50.1401440670001,0
                102.771491585,50.2248900210001,0
                102.947584066,50.2462119780001,0
                103.102565318,50.246377549,0
                103.35623121,50.190291664,0
                103.581771375,50.0848634600001,0
                103.72276126,49.9934341490001,0
                103.722911779,49.852542101,0
                103.807499689,49.8033201960001,0
                103.948391736,49.8034707150001,0
                104.061105374,49.8035911310001,0
                104.166721728,49.8530162370001,0
                104.251309638,49.8037943320001,0
                104.385111927,49.8462049390001,0
                104.518914217,49.888615546,0
                104.624470362,49.9943974710001,0
                104.77224144,50.1495367680001,0
                104.927094751,50.2694605790001,0
                105.074873355,50.4175552740001,0
                105.102953928,50.5091652090001,0
                105.141592936,50.6087116100001,0
                105.173203336,50.6932807050001,0
                105.188966202,50.7751911400001,0
                105.20735386,50.872954754,0
                105.225800785,50.915242124,0
                105.299675976,51.0024981010001,0
                105.362970153,51.102951418,0
                105.43687921,51.158506684,0
                105.537191416,51.2272988020001,0
                105.634867541,51.290804646,0
                105.748396843,51.3516856970001,0
                105.861928966,51.409925023,0
                105.959630491,51.4496553340001,0
                106.091663162,51.4999892380001,0
                106.170881072,51.5317746150001,0
                106.265957803,51.555651749,0
                106.363653683,51.600665511,0
                106.450777015,51.6509514360001,0
                106.548453139,51.71445728,0
                106.675134626,51.828186961,0
                106.799182852,51.933988642,0
                106.925869984,52.0424348700001,0
                107.078977195,52.148267595,0
                107.210970356,52.2355856610001,0
                107.366736227,52.325570853,0
                107.504021306,52.4049693850001,0
                107.638647726,52.500215451,0
                107.773291079,52.579611162,0
                107.944935528,52.643196028,0
                108.119238636,52.6909333620001,0
                108.230165723,52.714827428,0
                108.346370618,52.7440105920001,0
                108.454661623,52.7626183840001,0
                108.581416487,52.8076631910001,0
                108.729316449,52.8421636730001,0
                108.943259556,52.876734711,0
                109.101746176,52.8927544000001,0
                109.236474196,52.8928983340001,0
                109.387052571,52.893059201,0
                109.521780591,52.8932031360001,0
                109.68292587,52.893375292,0
                109.815012164,52.8935164040001,0
                109.907503615,52.8645561970001,0
                109.973574984,52.8382094940001,0
                110.050235835,52.7907402720001,0
                110.132137804,52.782902585,0
                110.256298921,52.7830352290001,0
                110.398938007,52.7963962600001,0
                110.488736933,52.8149842970001,0
                110.623453664,52.8256951340001,0
                110.702725196,52.80728772,0
                110.752968788,52.759790277,0
                110.813810327,52.683245137,0
                110.750468174,52.6277011600001,0
                110.621094161,52.5615197230001,0
                110.570932414,52.5324071160001,0
                110.481178645,52.4715514650001,0
                110.38085515,52.4133262510001,0
                110.225063879,52.3471165920001,0
                110.111514822,52.304727622,0
                110.00324075,52.270269473,0
                109.887024566,52.251653214,0
                109.762866272,52.2488788430001,0
                109.659819207,52.2672608570001,0
                109.588455919,52.3015270930001,0
                109.511795068,52.348996314,0
                109.414020165,52.3779508760001,0
                109.273980471,52.404218557,0
                109.152458259,52.4067304590001,0
                109.015102623,52.3933750750001,0
                108.901536633,52.3668364600001,0
                108.751014702,52.313841074,0
                108.605745178,52.2899103180001,0
                108.465770395,52.255418304,0
                108.296745095,52.2129700660001,0
                108.159431794,52.1599887930001,0
                108.037966025,52.1096661780001,0
                107.905936176,52.0566905480001,0
                107.765969859,52.014273356,0
                107.631298284,51.9612949040001,0
                107.496632353,51.9030330000001,0
                107.427981347,51.871258912,0
                107.385770178,51.8183792390001,0
                107.362079312,51.739102061,0
                107.446631474,51.723342018,0
                107.568150864,51.723471841,0
                107.673822722,51.720943005,0
                107.811198112,51.7158063090001,0
                107.908950436,51.7079855540001,0
                108.030467005,51.7107571020001,0
                108.146700122,51.713523007,0
                108.175838129,51.6395857260001,0
                108.033261132,51.568106727,0
                107.895942185,51.5204089050001,0
                107.729578366,51.4594714090001,0
                107.605462406,51.41707115,0
                107.476065816,51.37202352,0
                107.370444758,51.3270012900001,0
                107.293877041,51.2872935570001,0
                107.280719211,51.23972838,0
                107.293987108,51.184266248,0
                107.354763736,51.1684808040001,0
                107.418165158,51.168548537,0
                107.500069949,51.1580691230001,0
                107.603071858,51.181954723,0
                107.721912834,51.2164241610001,0
                107.811680714,51.2640711820001,0
                107.901488106,51.274734042,0
                108.015062562,51.293347479,0
                108.091672613,51.293429324,0
                108.157724227,51.2855747020001,0
                108.213234337,51.2539332580001,0
                108.242352589,51.1984880590001,0
                108.229194761,51.150922882,0
                108.123590636,51.0900502980001,0
                108.010041579,51.0476613270001,0
                107.864811567,50.986746409,0
                107.714278347,50.944317928,0
                107.582245675,50.8939840240001,0
                107.468707907,50.8410281500001,0
                107.371009205,50.798656114,0
                107.320872858,50.7457679730001,0
                107.262836733,50.669095833,0
                107.302513421,50.621587101,0
                107.373882354,50.5820374130001,0
                107.455778679,50.579483177,0
                107.529766759,50.561070118,0
                107.632819468,50.5374046520001,0
                107.720041579,50.495230172,0
                107.836317029,50.4583701870001,0
                107.955245494,50.410946122,0
                108.047770811,50.350285205,0
                108.074236048,50.305404088,0
                108.111285122,50.2446839040001,0
                108.10872524,50.1680710300001,0
                108.095606922,50.0835216900001,0
                108.053415509,50.0121499360001,0
                107.97685908,49.9618753,0
                107.865943282,49.927414329,0
                107.6942565,49.903455351,0
                107.533111221,49.903283195,0
                107.369327038,49.90046649,0
                107.231957293,49.900319734,0
                107.115763687,49.860569668,0
                107.03919597,49.820861935,0
                106.946763786,49.794345897,0
                106.8437647,49.7678185710001,0
                106.727537227,49.7597692150001,0
                106.608665206,49.7543587640001,0
                106.508316312,49.719909081,0
                106.418551254,49.6696203340001,0
                106.371067922,49.6061681130001,0
                106.342073848,49.5453773720001,0
                106.347427856,49.47933987,0
                106.34220085,49.4264997080001,0
                106.292064502,49.3736115680001,0
                106.276279058,49.312834939,0
                106.318589005,49.273254206,0
                106.395235746,49.238993614,0
                106.474527033,49.202094119,0
                106.551154018,49.1863256080001,0
                106.627772534,49.1784822760001,0
                106.709682971,49.1627194100001,0
                106.773146481,49.104669174,0
                106.770609178,49.006922494,0
                106.76804083,48.938234799,0
                106.773383549,48.8827641990001,0
                106.79720706,48.8378802600001,0
                106.821064438,48.7612956090001,0
                106.895069451,48.727032195,0
                106.984896598,48.719202974,0
                107.058876212,48.708715092,0
                107.085364027,48.642700168,0
                107.093379516,48.558173406,0
                107.067018701,48.5053106660001,0
                107.040669176,48.4418810230001,0
                107.06979025,48.3837940980001,0
                107.135855975,48.3627308470001,0
                107.233653456,48.312642478,0
                107.339362002,48.2757712040001,0
                107.431822408,48.2758699820001,0
                107.537468866,48.2971166790001,0
                107.608767242,48.323610138,0
                107.688004908,48.3369034340001,0
                107.796335424,48.3185270650001,0
                107.899396601,48.2869364220001,0
                108.015643828,48.276493696,0
                108.086978894,48.2686447190001,0
                108.195247322,48.3083863190001,0
                108.300862735,48.3586920000001,0
                108.395919711,48.401061215,0
                108.490965398,48.4539973330001,0
                108.570188952,48.4804992580001,0
                108.678443269,48.533449488,0
                108.794634052,48.5758412810001,0
                108.902922236,48.5970907990001,0
                108.974226257,48.618300806,0
                109.045518989,48.650077718,0
                109.135337669,48.650173673,0
                109.193500794,48.6079681480001,0
                109.217335594,48.552517305,0
                109.238534312,48.4917801880001,0
                109.278219468,48.436346277,0
                109.346929741,48.4126441220001,0
                109.428823243,48.4127316120001,0
                109.537091671,48.452473212,0
                109.616250314,48.5397348330001,0
                109.700712164,48.6085100180001,0
                109.777234726,48.690485365,0
                109.856413124,48.759254905,0
                109.906495849,48.8623358360001,0
                109.967165232,48.9469359770001,0
                109.996125439,49.0394274270001,0
                110.003949016,49.134538025,0
                110.054059963,49.2112016990001,0
                110.143793976,49.290549432,0
                110.24153219,49.295937306,0
                110.312819277,49.3329976690001,0
                110.442232801,49.362194942,0
                110.526748274,49.3807773350001,0
                110.627131035,49.3835263060001,0
                110.746005878,49.3862950330001,0
                110.84906141,49.35998784,0
                110.946839134,49.3283915530001,0
                111.044630969,49.2835866360001,0
                111.097555798,49.1991078520001,0
                111.113482355,49.1277981870001,0
                111.044836992,49.090740646,0
                110.997322616,49.0563474090001,0
                110.963008402,49.029893461,0
                110.928711121,48.987589158,0
                110.915556114,48.937382255,0
                110.926162529,48.9004093820001,0
                110.963163625,48.884598537,0
                111.037131949,48.8846775600001,0
                111.10843597,48.905887568,0
                111.169158977,48.940294915,0
                111.243093435,48.972074649,0
                111.290610634,49.0038261600001,0
                111.380418025,49.0144890190001,0
                111.454383527,49.017209768,0
                111.554681622,49.099210515,0
                111.649676508,49.1996976990001,0
                111.736743396,49.302818142,0
                111.807971216,49.395354748,0
                111.857069218,49.4691724950001,0
                112.277241649,49.467182764,0
                112.25439561,49.4213683890001,0
                112.201636351,49.350865922,0
                112.15941013,49.312075453,0
                112.106650872,49.2415729840001,0
                112.071473015,49.19926774,0
                112.06800716,49.146429459,0
                112.092738528,49.0760097770001,0
                112.145595623,49.0549324150001,0
                112.237175453,49.0550302520001,0
                112.328710128,49.0973957040001,0
                112.399103471,49.1467831800001,0
                112.451840151,49.238419455,0
                112.501103448,49.284262052,0
                112.603167397,49.361861805,0
                112.705246397,49.4253723520001,0
                112.800250692,49.5170537830001,0
                112.86711797,49.5699597970001,0
                112.937500023,49.629914177,0
                113.004352248,49.6969093960001,0
                113.064174924,49.7498078850001,0
                113.032421532,49.7990862340001,0
                112.979571962,49.8131189950001,0
                112.873902926,49.8130061050001,0
                112.750611096,49.823441304,0
                112.651997953,49.8127690370001,0
                112.518195663,49.77035843,0
                112.430190815,49.7209521390001,0
                112.36686089,49.653960682,0
                112.324655366,49.5957975580001,0
                111.912546128,49.595357289,0
                111.922968157,49.730977174,0
                111.92640391,49.811993864,0
                111.979155642,49.8895409340001,0
                112.049518879,49.96710682,0
                112.11992351,50.005927392,0
                112.190346956,50.0271364590001,0
                112.274840792,50.0659720840001,0
                112.352301313,50.094233279,0
                112.457932719,50.12956918,0
                112.56001172,50.1930797270001,0
                112.623337882,50.2635934840001,0
                112.700711855,50.372867607,0
                112.728807479,50.4503883360001,0
                112.746287281,50.5736876930001,0
                112.746219546,50.637089114,0
                112.788426953,50.6934910890001,0
                112.848264681,50.7323003720001,0
                112.943344235,50.7535357790001,0
                113.052509231,50.7783085400001,0
                113.140547945,50.7960141200001,0
                113.253235242,50.8207906440001,0
                113.316599034,50.8560813890001,0
                113.379932721,50.919550545,0
                113.43972153,51.004149743,0
                113.474865519,51.078155698,0
                113.52412129,51.131042898,0
                113.598033171,51.1839564380001,0
                113.668434039,51.226299311,0
                113.749413099,51.258086571,0
                113.830422263,51.2616954200001,0
                113.911431427,51.2653042700001,0
                113.978347624,51.272420369,0
                114.034693154,51.2830474800001,0
                114.119209567,51.300749297,0
                114.203699639,51.3431072240001,0
                114.27407793,51.4065839040001,0
                114.330378304,51.459478629,0
                114.347884447,51.5581218780001,0
                114.34770006,51.730714635,0
                114.347568355,51.8539951770001,0
                114.326314133,51.966686237,0
                114.319164168,52.0653031430001,0
                114.400060442,52.174581028,0
                114.480994347,52.248635902,0
                114.540835837,52.283922884,0
                114.688764961,52.2911255320001,0
                114.790911695,52.2912346590001,0
                114.903617807,52.298399676,0
                115.02687577,52.3196651870001,0
                115.181830681,52.3444868670001,0
                115.319155272,52.3869012370001,0
                115.435342292,52.43281533,0
                115.558558863,52.492826155,0
                115.674681913,52.5986193690001,0
                115.755604528,52.6832411450001,0
                115.850563666,52.8171901910001,0
                115.934970953,52.9370387430001,0
                116.012337401,53.0533574670001,0
                116.089700085,53.173198492,0
                116.174171343,53.233167924,0
                116.286821011,53.2931674600001,0
                116.371288506,53.3566591920001,0
                116.462868336,53.35675703,0
                116.550925866,53.356851104,0
                116.631983948,53.3146700390001,0
              </coordinates>
            </LinearRing>
          </outerBoundaryIs>
        </Polygon>
      </Placemark>
    </Document>
  </Document>
</kml>
