<?xml version="1.0" encoding="UTF-8"?>
<kml xmlns="http://www.opengis.net/kml/2.2">
  <Document id="root_doc">
    <Schema id="Bioregions_PA45.schema">
      <SimpleField name="OBJECTID" type="float"/>
      <SimpleField name="Shape_Leng" type="float"/>
      <SimpleField name="Shape_Area" type="float"/>
      <SimpleField name="Bioregions" type="string"/>
    </Schema>
    <Document id="Bioregions_PA45">
      <name>Bioregions_PA45</name>
      <Placemark id="Bioregions_PA45.1">
        <ExtendedData>
          <SchemaData schemaUrl="#Bioregions_PA45.schema">
            <SimpleData name="OBJECTID">159</SimpleData>
            <SimpleData name="Shape_Leng">40.78052808940</SimpleData>
            <SimpleData name="Shape_Area">32.58149465890</SimpleData>
            <SimpleData name="Bioregions">PA45</SimpleData>
          </SchemaData>
        </ExtendedData>
        <Polygon>
          <outerBoundaryIs>
            <LinearRing>
              <coordinates>
                123.893523997,54.6749929550001,0
                124.027390257,54.6575244420001,0
                124.133066818,54.650592729,0
                124.242265681,54.6436647800001,0
                124.365565037,54.626184978,0
                124.520557578,54.6157836450001,0
                124.619182011,54.6158890090001,0
                124.731906938,54.605442521,0
                124.819964467,54.605536595,0
                124.9185889,54.6056419590001,0
                125.041876967,54.598729061,0
                125.161654023,54.5812454960001,0
                125.28494209,54.5743325980001,0
                125.39413719,54.5709269490001,0
                125.485747124,54.542846377,0
                125.577357058,54.5147658050001,0
                125.661937442,54.4725885020001,0
                125.764114281,54.444519219,0
                125.859269094,54.395308603,0
                125.933259997,54.3742538180001,0
                126.028362129,54.374355419,0
                126.119938196,54.3779755570001,0
                126.253763063,54.3992523580001,0
                126.341805541,54.4134356370001,0
                126.436900147,54.4205818400001,0
                126.549598732,54.43479146,0
                126.648196825,54.4595529320001,0
                126.718631559,54.4701950950001,0
                126.785555282,54.470266591,0
                126.852512871,54.4386373770001,0
                126.933593532,54.3753225040001,0
                126.997058924,54.3155111190001,0
                127.085176661,54.259248374,0
                127.187364788,54.2206121880001,0
                127.282512076,54.178446174,0
                127.381181665,54.1362839230001,0
                127.472810414,54.0905918450001,0
                127.536211835,54.090659578,0
                127.631321492,54.083716576,0
                127.711451963,54.0855633350001,0
                127.747106796,54.0935266130001,0
                127.77482234,54.1146900530001,0
                127.806494828,54.141141179,0
                127.848739865,54.1623201420001,0
                127.904214697,54.163700272,0
                127.963654941,54.162442909,0
                127.999311185,54.169085324,0
                128.008510658,54.2126836790001,0
                128.008468325,54.2523095670001,0
                128.025609909,54.2800660340001,0
                128.062587016,54.28670986,0
                128.114117605,54.2709145380001,0
                128.156395096,54.2617136530001,0
                128.194709999,54.2525085340001,0
                128.233044658,54.224811335,0
                128.277556515,54.1847926670001,0
                128.346288425,54.1408372810001,0
                128.415018453,54.098643044,0
                128.499621416,54.0353319340001,0
                128.58422814,53.968498524,0
                128.641505986,53.9306949350001,0
                128.704952564,53.888495053,0
                128.773676948,53.8515842690001,0
                128.829187058,53.819942826,0
                128.903203361,53.7751125080001,0
                128.981170964,53.7408533280001,0
                129.052504618,53.734325213,0
                129.148934669,53.727823911,0
                129.2242295,53.7226208920001,0
                129.308771785,53.7161068890001,0
                129.377462302,53.7108968150001,0
                129.458039175,53.7070203050001,0
                129.534649226,53.707102149,0
                129.591446332,53.707162827,0
                129.633713946,53.707207983,0
                129.699761327,53.70331595,0
                129.773733885,53.699432384,0
                129.858281813,53.6876349290001,0
                129.941508879,53.6758360630001,0
                129.998321507,53.6613672490001,0
                130.056462054,53.640295531,0
                130.121209739,53.6165891430001,0
                130.189910134,53.602133028,0
                130.26786786,53.577119888,0
                130.335260091,53.5507745960001,0
                130.410584558,53.5178334570001,0
                130.491185419,53.4915022760001,0
                130.569141733,53.4678099990001,0
                130.649741184,53.4427996810001,0
                130.709204005,53.4204085110001,0
                130.789794989,53.4033233710001,0
                130.851885425,53.3941436530001,0
                130.916617588,53.384966757,0
                130.990590145,53.3810831910001,0
                131.0539958,53.3771883360001,0
                131.110792907,53.377249013,0
                131.16626915,53.3773082800001,0
                131.244204297,53.373428948,0
                131.3062905,53.3682118190001,0
                131.367054429,53.3643141410001,0
                131.42385859,53.3577705050001,0
                131.484626752,53.3499102380001,0
                131.542756011,53.3394054240001,0
                131.612778681,53.3236298570001,0
                131.692055857,53.299938991,0
                131.75283813,53.278870096,0
                131.799086678,53.261748267,0
                131.853261814,53.2433140410001,0
                131.91404832,53.2182825570001,0
                131.978853391,53.1408610760001,0
                131.978986503,53.0162596230001,0
                131.964966071,53.0038056970001,0
                131.920923402,52.964684194,0
                131.904575242,52.947390393,0
                131.873426261,52.914440196,0
                131.816671358,52.8747536450001,0
                131.759916454,52.8350670940001,0
                131.693927051,52.784803804,0
                131.66662708,52.7608648340001,0
                131.630584787,52.7292599620001,0
                131.603897466,52.711090868,0
                131.560629994,52.6816339550001,0
                131.541466439,52.6643989900001,0
                131.509165327,52.635348922,0
                131.47856612,52.6123479820001,0
                131.445815209,52.5877299360001,0
                131.371896283,52.5414208240001,0
                131.311186209,52.4856502810001,0
                131.272244202,52.4498770390001,0
                131.259080838,52.4377849520001,0
                131.230909686,52.41190572,0
                131.181878189,52.3668635540001,0
                131.107255591,52.294903344,0
                131.088632967,52.2769452200001,0
                131.011138733,52.2803847690001,0
                130.93015591,52.2521198110001,0
                130.820968336,52.2484808570001,0
                130.73644816,52.234301341,0
                130.641353553,52.2271551380001,0
                130.521591551,52.2305494980001,0
                130.43001172,52.2304516610001,0
                130.31728303,52.2444204500001,0
                130.201009462,52.2795192830001,0
                130.091784258,52.3111033420001,0
                129.975503164,52.353246777,0
                129.880359639,52.39189049,0
                129.792260717,52.430541728,0
                129.697098377,52.486796946,0
                129.573783968,52.5183659530001,0
                129.432869344,52.5393492410001,0
                129.295507124,52.5321578830001,0
                129.200404992,52.532056282,0
                129.087695117,52.528413566,0
                128.978500017,52.5318192140001,0
                128.858745541,52.5281689720001,0
                128.770676721,52.538641801,0
                128.672029711,52.5596702450001,0
                128.587441801,52.608892149,0
                128.509875915,52.6792553880001,0
                128.439350869,52.7531484530001,0
                128.389989734,52.7988856870001,0
                128.312423848,52.869248924,0
                128.224302348,52.92903397,0
                128.100976652,52.97116988,0
                127.984714371,52.9957018100001,0
                127.836751381,53.0201998730001,0
                127.71347084,53.0200681690001,0
                127.569052728,53.0234361880001,0
                127.424619565,53.0408934110001,0
                127.301327735,53.051328611,0
                127.170995065,53.058233983,0
                127.037128806,53.0757024960001,0
                126.934963256,53.0932048760001,0
                126.808119021,53.1318147210001,0
                126.653085087,53.1809613670001,0
                126.547374659,53.21959379,0
                126.452216083,53.272326707,0
                126.318285853,53.34967434,0
                126.18088224,53.381228294,0
                126.039963851,53.405733884,0
                125.895534451,53.4196688060001,0
                125.768727845,53.42305564,0
                125.652491907,53.4229314620001,0
                125.564464481,53.3946589780001,0
                125.437729372,53.3311220900001,0
                125.349750865,53.2570596900001,0
                125.258257583,53.1759489250001,0
                125.216065229,53.1054577460001,0
                125.17741399,53.017358824,0
                125.12114372,52.936285689,0
                125.061332333,52.872820297,0
                125.047310862,52.8094038240001,0
                125.026278655,52.7142791140001,0
                125.012287288,52.6226842310001,0
                125.00537439,52.4993961640001,0
                124.966772071,52.3655073260001,0
                124.938729128,52.2386743810001,0
                124.931789889,52.140042421,0
                124.928365425,52.048458828,0
                124.928444448,51.974490503,0
                124.925046325,51.8582508010001,0
                124.939244656,51.7561191190001,0
                124.967547244,51.6399132830001,0
                124.985267877,51.5377853640001,0
                124.985369477,51.4426832330001,0
                124.978415186,51.3581404780001,0
                124.946819838,51.259482178,0
                124.901157865,51.13967502,0
                124.85546955,51.0445239690001,0
                124.813326114,50.928242874,0
                124.757108526,50.7978575230001,0
                124.679753367,50.670971895,0
                124.598826988,50.5898724190001,0
                124.542579296,50.4876654770001,0
                124.46873515,50.3713505160001,0
                124.401882924,50.304355296,0
                124.345612653,50.223282162,0
                124.306968941,50.1281386370001,0
                124.278918472,50.008350293,0
                124.236786325,49.8815022950001,0
                124.226321022,49.7863888750001,0
                124.208829932,49.6736564220001,0
                124.191312501,49.585580077,0
                124.142113173,49.47985836,0
                124.092876217,49.4093596550001,0
                124.018990677,49.3317900060001,0
                123.916900388,49.2788463620001,0
                123.786594059,49.261095626,0
                123.652750377,49.2574303320001,0
                123.550592353,49.2678881090001,0
                123.451960395,49.274827348,0
                123.381514371,49.2747520880001,0
                123.311079637,49.2641099250001,0
                123.237141415,49.235852493,0
                123.19138913,49.2005805630001,0
                123.142163462,49.1195149540001,0
                123.099971107,49.049023774,0
                123.071837854,49.006726057,0
                123.004951761,48.9714315480001,0
                122.931017304,48.9396518140001,0
                122.857082846,48.907872082,0
                122.790185464,48.883144477,0
                122.733888853,48.8267274500001,0
                122.684640607,48.766795648,0
                122.635414939,48.6857300400001,0
                122.60376691,48.636383956,0
                122.533358516,48.601085685,0
                122.441789974,48.5904209440001,0
                122.325599191,48.548029151,0
                122.212934472,48.5021188210001,0
                122.131962938,48.4632869590001,0
                122.043969378,48.4033137650001,0
                121.991195069,48.3469005010001,0
                121.956024738,48.2975506550001,0
                121.942033371,48.205955772,0
                121.942116157,48.1284651460001,0
                121.942183891,48.0650637250001,0
                121.942281728,47.9734838950001,0
                121.935319911,47.895985743,0
                121.907209236,47.8325542170001,0
                121.868527893,47.772633705,0
                121.808735321,47.691556807,0
                121.741868044,47.6386507930001,0
                121.682075473,47.5575738950001,0
                121.622267849,47.490586201,0
                121.583575217,47.4412325920001,0
                121.583661766,47.360219665,0
                121.583744552,47.2827290390001,0
                121.601404977,47.236957938,0
                121.604987485,47.1806048830001,0
                121.605051456,47.1207257630001,0
                121.569918756,47.0361529040001,0
                121.492488337,46.9797133000001,0
                121.386860695,46.940855098,0
                121.270624756,46.940730919,0
                121.136762259,46.954677131,0
                120.978258705,46.9545077970001,0
                120.854955586,46.9755099000001,0
                120.731663756,46.985945099,0
                120.597823838,46.9787575030001,0
                120.485102674,46.98568169,0
                120.340722192,46.9538266980001,0
                120.235098313,46.9114461940001,0
                120.129451855,46.8901994980001,0
                120.101224527,46.9359593090001,0
                120.083518946,47.023998024,0
                120.072842916,47.1261334690001,0
                120.05863706,47.2353097530001,0
                120.07263219,47.3233823350001,0
                120.139473126,47.400944458,0
                120.213369955,47.4679472020001,0
                120.220312956,47.5630568610001,0
                120.31179495,47.6547345290001,0
                120.40676914,47.7745943690001,0
                120.48415064,47.876823889,0
                120.536894846,47.9614155620001,0
                120.596646024,48.0812377730001,0
                120.716310191,48.169423244,0
                120.818389191,48.2329337910001,0
                120.959179638,48.328186443,0
                120.994285998,48.437415408,0
                121.047000099,48.550185491,0
                121.10676633,48.6559184970001,0
                121.163047889,48.726424728,0
                121.279174702,48.8286956410001,0
                121.374194049,48.906287868,0
                121.476276812,48.966276114,0
                121.60306084,48.984023087,0
                121.698140393,49.005258494,0
                121.821368253,49.0547024150001,0
                121.916436518,49.086504727,0
                122.039713296,49.090158731,0
                122.131251734,49.1290018820001,0
                122.205141037,49.203049229,0
                122.205013095,49.3228074690001,0
                122.204941599,49.3897311920001,0
                122.134360108,49.516458775,0
                122.081416464,49.6185490650001,0
                122.095434172,49.6854878390001,0
                122.144667366,49.759508845,0
                122.183348708,49.819429358,0
                122.239592637,49.9251586010001,0
                122.239479748,50.030827636,0
                122.183077774,50.0730350430001,0
                122.084457103,50.069407379,0
                122.010507593,50.05171685,0
                121.922465116,50.037533571,0
                121.806255518,50.012753284,0
                121.721701475,50.0302744790001,0
                121.68644836,50.0584152580001,0
                121.559566494,50.132248115,0
                121.503149467,50.1885447270001,0
                121.503025289,50.3047806660001,0
                121.48884201,50.392823144,0
                121.46059963,50.4526721600001,0
                121.379567888,50.470197118,0
                121.326695741,50.505363684,0
                121.301971899,50.568738765,0
                121.280751543,50.6497291140001,0
                121.30181009,50.720197715,0
                121.301738594,50.787121438,0
                121.276980885,50.882197229,0
                121.248761083,50.9209124380001,0
                121.209970614,50.96313866,0
                121.139468146,51.0158979170001,0
                121.068965678,51.068657176,0
                121.019638409,51.0826936990001,0
                120.949192386,51.082618439,0
                120.854082727,51.0895614410001,0
                120.744887628,51.0929670900001,0
                120.632143887,51.1210250840001,0
                120.540515137,51.1667171620001,0
                120.477068561,51.2089170420001,0
                120.420640245,51.2757805570001,0
                120.34657032,51.370803666,0
                120.346480008,51.4553388940001,0
                120.346397222,51.5328295210001,0
                120.346246703,51.6737215680001,0
                120.346145103,51.7688237,0
                120.296795257,51.8039940300001,0
                120.240464779,51.7792777130001,0
                120.148945156,51.722823057,0
                120.078502895,51.719225496,0
                120.025638273,51.7473474610001,0
                120.004402866,51.842427016,0
                119.972593029,51.9445398830001,0
                119.940828347,52.0043851360001,0
                119.902022827,52.0607005620001,0
                119.845583222,52.1381309810001,0
                119.764528903,52.1767897450001,0
                119.62712529,52.2083437000001,0
                119.700971317,52.3228975100001,0
                119.785444457,52.381105791,0
                119.869928885,52.4287471690001,0
                119.970269313,52.4711220280001,0
                120.065303711,52.5346250490001,0
                120.170921946,52.5822890050001,0
                120.292339736,52.677520959,0
                120.347779291,52.7119226630001,0
                120.405866216,52.741043737,0
                120.452307186,52.7787808800001,0
                120.503525407,52.8203999360001,0
                120.508772169,52.8547480170001,0
                120.495484518,52.928702231,0
                120.445277614,52.9418572370001,0
                120.403012823,52.939170356,0
                120.363417979,52.9100690380001,0
                120.284191603,52.8862088380001,0
                120.186459034,52.8755375110001,0
                120.117757227,52.891314488,0
                120.072828131,52.9097585920001,0
                120.022584539,52.957256036,0
                119.985535466,53.01797622,0
                119.964328281,53.0866385140001,0
                119.953690821,53.152670372,0
                119.958906539,53.2160774380001,0
                119.990531049,53.2874379040001,0
                120.0353783,53.3456038520001,0
                120.098737388,53.385297473,0
                120.164741024,53.4223521920001,0
                120.233386386,53.459409732,0
                120.29410657,53.4964588060001,0
                120.333692946,53.533485302,0
                120.378537375,53.594292975,0
                120.423376159,53.6603841,0
                120.428558011,53.7554918770001,0
                120.428486515,53.8224155990001,0
                120.428403728,53.8999062250001,0
                120.44241391,53.973889602,0
                120.477603056,54.005627942,0
                120.572626165,54.079697868,0
                120.639485917,54.1396484840001,0
                120.709860444,54.206647466,0
                120.780253786,54.256034942,0
                120.861221558,54.2983891050001,0
                120.966852963,54.3337250060001,0
                121.05840269,54.362001252,0
                121.156978204,54.4078965320001,0
                121.237927161,54.4678622010001,0
                121.329458072,54.5137499530001,0
                121.417451631,54.5737231480001,0
                121.498400587,54.6336888160001,0
                121.586412961,54.676050505,0
                121.688537118,54.6972934390001,0
                121.81181766,54.697425143,0
                121.921008996,54.6975417950001,0
                122.040786051,54.68005823,0
                122.153537318,54.644955634,0
                122.234557771,54.63799758,0
                122.375498737,54.592358183,0
                122.526991555,54.5608192810001,0
                122.636186654,54.5574136320001,0
                122.710147453,54.564537257,0
                122.833416706,54.5752358650001,0
                122.928503786,54.5894266710001,0
                123.030635468,54.6036250010001,0
                123.150374893,54.6213644490001,0
                123.248984274,54.635559017,0
                123.386312628,54.674451086,0
                123.51661143,54.6992464240001,0
                123.632847369,54.699370603,0
                123.752605609,54.6994985440001,0
                123.893523997,54.6749929550001,0
              </coordinates>
            </LinearRing>
          </outerBoundaryIs>
        </Polygon>
      </Placemark>
    </Document>
  </Document>
</kml>
