<?xml version="1.0" encoding="UTF-8"?>
<kml xmlns="http://www.opengis.net/kml/2.2">
  <Document id="root_doc">
    <Schema id="Bioregions_PA46.schema">
      <SimpleField name="OBJECTID" type="float"/>
      <SimpleField name="Shape_Leng" type="float"/>
      <SimpleField name="Shape_Area" type="float"/>
      <SimpleField name="Bioregions" type="string"/>
    </Schema>
    <Document id="Bioregions_PA46">
      <name>Bioregions_PA46</name>
      <Placemark id="Bioregions_PA46.1">
        <ExtendedData>
          <SchemaData schemaUrl="#Bioregions_PA46.schema">
            <SimpleData name="OBJECTID">157</SimpleData>
            <SimpleData name="Shape_Leng">139.82895380100</SimpleData>
            <SimpleData name="Shape_Area">178.80928218900</SimpleData>
            <SimpleData name="Bioregions">PA46</SimpleData>
          </SchemaData>
        </ExtendedData>
        <Polygon>
          <outerBoundaryIs>
            <LinearRing>
              <coordinates>
                127.569052728,53.0234361880001,0
                127.71347084,53.0200681690001,0
                127.836751381,53.0201998730001,0
                127.984714371,52.9957018100001,0
                128.100976652,52.97116988,0
                128.224302348,52.92903397,0
                128.312423848,52.869248924,0
                128.389989734,52.7988856870001,0
                128.439350869,52.7531484530001,0
                128.509875915,52.6792553880001,0
                128.587441801,52.608892149,0
                128.672029711,52.5596702450001,0
                128.770676721,52.538641801,0
                128.858745541,52.5281689720001,0
                128.978500017,52.5318192140001,0
                129.087695117,52.528413566,0
                129.200404992,52.532056282,0
                129.295507124,52.5321578830001,0
                129.432869344,52.5393492410001,0
                129.573783968,52.5183659530001,0
                129.697098377,52.486796946,0
                129.792260717,52.430541728,0
                129.880359639,52.39189049,0
                129.975503164,52.353246777,0
                130.091784258,52.3111033420001,0
                130.201009462,52.2795192830001,0
                130.31728303,52.2444204500001,0
                130.43001172,52.2304516610001,0
                130.521591551,52.2305494980001,0
                130.641353553,52.2271551380001,0
                130.73644816,52.234301341,0
                130.820968336,52.2484808570001,0
                130.93015591,52.2521198110001,0
                131.011138733,52.2803847690001,0
                131.088632967,52.2769452200001,0
                131.106715812,52.2738203370001,0
                131.169661097,52.262942724,0
                131.220990337,52.2476035780001,0
                131.240129988,52.2418838240001,0
                131.321183622,52.2032252380001,0
                131.378623755,52.1683460150001,0
                131.402249555,52.1539997040001,0
                131.425845445,52.13830546,0
                131.465696077,52.111799644,0
                131.527786267,52.056364795,0
                131.532683514,52.051992463,0
                131.549193843,52.0293418530001,0
                131.589123637,51.974561641,0
                131.601208084,51.902528863,0
                131.603302959,51.8900415140001,0
                131.603400797,51.798461638,0
                131.601423034,51.795157316,0
                131.571756699,51.7455932120001,0
                131.519004897,51.6680462570001,0
                131.469752986,51.611636794,0
                131.431276126,51.5565447930001,0
                131.420515742,51.541137915,0
                131.364230524,51.474154216,0
                131.354399485,51.458668743,0
                131.315001228,51.3966106620001,0
                131.272804971,51.3296418240001,0
                131.270924724,51.325871244,0
                131.23062786,51.2450615280001,0
                131.198983448,51.192193026,0
                131.223752507,51.1541758560001,0
                131.244848617,51.1217961510001,0
                131.33299282,51.04087724,0
                131.383722214,51.008913261,0
                131.399961687,50.9986808840001,0
                131.449314991,50.9599884310001,0
                131.505728151,50.907213896,0
                131.576234681,50.8509324410001,0
                131.589767382,50.8428326010001,0
                131.646725967,50.80874034,0
                131.703537807,50.7790588820001,0
                131.720735849,50.7700736240001,0
                131.787727074,50.7067436020001,0
                131.847696072,50.6222725000001,0
                131.819615552,50.5306625200001,0
                131.780983307,50.4249525020001,0
                131.735298733,50.3262789020001,0
                131.715553174,50.2965917230001,0
                131.686065772,50.2522579870001,0
                131.647384488,50.1923376190001,0
                131.637421324,50.178357657,0
                131.594628961,50.118313105,0
                131.541877006,50.0407655330001,0
                131.533803829,50.0313263830001,0
                131.499662349,49.9914083510001,0
                131.479371966,49.9451600830001,0
                131.461010661,49.9033091700001,0
                131.422340786,49.8328223140001,0
                131.37664124,49.748237616,0
                131.374691359,49.744779226,0
                131.33093777,49.6671763050001,0
                131.319894514,49.640274547,0
                131.30634596,49.6072704740001,0
                131.303881452,49.5594744580001,0
                131.302894881,49.540343163,0
                131.324103694,49.4699194180001,0
                131.359394588,49.4065555280001,0
                131.408756149,49.360818393,0
                131.472176611,49.3432744260001,0
                131.539012111,49.331724686,0
                131.553204095,49.329272152,0
                131.575296189,49.328605365,0
                131.665921955,49.325869809,0
                131.782157358,49.3259939870001,0
                131.905442185,49.322603719,0
                131.989452111,49.3362459570001,0
                132.014614226,49.340331963,0
                132.127309387,49.358063939,0
                132.243514922,49.386366481,0
                132.338598528,49.404079643,0
                132.349803566,49.407990483,0
                132.419581026,49.4323445520001,0
                132.518156623,49.478239838,0
                132.613213504,49.5206091700001,0
                132.680153138,49.560870053,0
                132.701214684,49.5735373950001,0
                132.80330113,49.630003237,0
                132.905380048,49.6935138810001,0
                132.929224848,49.709141206,0
                132.996896062,49.753491142,0
                133.091930742,49.816994261,0
                133.138733408,49.856492599,0
                133.15879409,49.8734224770001,0
                133.173408777,49.884534086,0
                133.260858079,49.9510219910001,0
                133.333301737,50.0028846710001,0
                133.334769908,50.0039357370001,0
                133.415734141,50.049812241,0
                133.489683448,50.0675027500001,0
                133.511589195,50.066530432,0
                133.567177623,50.0640628,0
                133.623545627,50.0535562310001,0
                133.686969723,50.032490411,0
                133.732786003,50.0078829450001,0
                133.768058083,49.962130637,0
                133.78923679,49.9198861080001,0
                133.789327102,49.8353510360001,0
                133.789443755,49.7261595780001,0
                133.807134444,49.652209971,0
                133.817308122,49.6374456660001,0
                133.845939809,49.595894688,0
                133.869736024,49.5780871010001,0
                133.888241532,49.564238743,0
                133.951669392,49.539650092,0
                133.984315282,49.5310967020001,0
                134.018611776,49.522110599,0
                134.080027913,49.5195059330001,0
                134.099628561,49.5186745830001,0
                134.170063165,49.52931662,0
                134.229930993,49.5399473670001,0
                134.317962127,49.564697827,0
                134.332301765,49.57029205,0
                134.381337328,49.589421831,0
                134.437656483,49.6247051,0
                134.501009017,49.670562757,0
                134.515303509,49.696357576,0
                134.536164346,49.7340015130001,0
                134.511421597,49.814988198,0
                134.487087067,49.8726107190001,0
                134.483171748,49.8818820060001,0
                134.518315747,49.955887971,0
                134.588671416,50.040498407,0
                134.622181815,50.0800077600001,0
                134.648475209,50.111007972,0
                134.696638593,50.167793848,0
                134.708279135,50.1815183080001,0
                134.754012613,50.2344018200001,0
                134.772187026,50.26476589,0
                134.806753227,50.322515416,0
                134.848956739,50.382440042,0
                134.922868619,50.435353665,0
                134.996776727,50.4917894720001,0
                135.019906789,50.50643245,0
                135.063655497,50.534128224,0
                135.120553333,50.5555346350001,0
                135.148156669,50.5659195960001,0
                135.260828844,50.604785264,0
                135.300766388,50.6181451800001,0
                135.345334136,50.633053943,0
                135.400916615,50.6516475130001,0
                135.450965472,50.668389919,0
                135.553093365,50.686110576,0
                135.641139586,50.6967715120001,0
                135.743286293,50.696880637,0
                135.754166702,50.695079165,0
                135.827836791,50.6828813820001,0
                135.898305263,50.6618230870001,0
                135.961733122,50.6372344370001,0
                136.014601304,50.605590555,0
                135.997072506,50.528081468,0
                135.933002495,50.50054141,0
                135.92313814,50.4963013280001,0
                135.880802164,50.4887836560001,0
                135.86327025,50.485670509,0
                135.848853446,50.480246578,0
                135.750601898,50.4432823480001,0
                135.702808758,50.4331674200001,0
                135.683693106,50.4291218830001,0
                135.660570523,50.4244715290001,0
                135.613262233,50.414957201,0
                135.553420744,50.3796701690001,0
                135.511785709,50.3538346870001,0
                135.479501401,50.333801781,0
                135.433767908,50.2809181210001,0
                135.406918057,50.257854024,0
                135.384500767,50.238597585,0
                135.379011343,50.230038414,0
                135.352852646,50.1892516950001,0
                135.352905328,50.1399389260001,0
                135.368239155,50.113717378,0
                135.37760676,50.0976980980001,0
                135.399941995,50.082842316,0
                135.441053114,50.0554979290001,0
                135.48039953,50.0440677940001,0
                135.525614886,50.030932498,0
                135.606627727,50.031019046,0
                135.673551516,50.0310905430001,0
                135.800225951,50.034744609,0
                135.813626257,50.0383840850001,0
                135.877818512,50.0559645380001,0
                135.916066594,50.0697802380001,0
                135.965842234,50.0877596540001,0
                136.020621493,50.1102376000001,0
                136.043298951,50.1195429160001,0
                136.110211582,50.13018119,0
                136.157354326,50.160026406,0
                136.177090006,50.17252061,0
                136.268594592,50.2430645700001,0
                136.310962841,50.2855232920001,0
                136.349521086,50.3241636010001,0
                136.427741321,50.3752963680001,0
                136.43047737,50.377084923,0
                136.439845154,50.3848403540001,0
                136.511418914,50.444094932,0
                136.576780895,50.4667987870001,0
                136.602964892,50.47589386,0
                136.71210735,50.521800435,0
                136.821257191,50.5606623410001,0
                136.909288361,50.585412616,0
                136.951712213,50.5989609310001,0
                136.986752587,50.610151106,0
                137.05352457,50.612309447,0
                137.099462619,50.613794209,0
                137.155766355,50.6065902780001,0
                137.208668762,50.599821397,0
                137.32844624,50.5823377580001,0
                137.430622998,50.554268527,0
                137.486302592,50.5395936210001,0
                137.550415016,50.522696024,0
                137.620902389,50.4840260300001,0
                137.6643061,50.4573798280001,0
                137.712542468,50.4277665270001,0
                137.753242321,50.3912156550001,0
                137.783056156,50.364440889,0
                137.8132071,50.3396646160001,0
                137.842987893,50.3151923280001,0
                137.885308111,50.2659255730001,0
                137.885420972,50.1602562100001,0
                137.836157921,50.1144137110001,0
                137.807046437,50.087063363,0
                137.779857309,50.0615193780001,0
                137.702446063,49.9874682970001,0
                137.646145363,49.934573346,0
                137.623229952,49.9079820740001,0
                137.579304612,49.8570110060001,0
                137.519496989,49.790023391,0
                137.496852913,49.746888008,0
                137.484345373,49.7230621400001,0
                137.470338979,49.6455568200001,0
                137.470410476,49.5786324690001,0
                137.516260623,49.5223246730001,0
                137.586766723,49.466043218,0
                137.607308802,49.450893992,0
                137.667843784,49.406250808,0
                137.720727166,49.3605172810001,0
                137.722262251,49.3572369880001,0
                137.745439797,49.3077090780001,0
                137.742464074,49.2982508160001,0
                137.724377368,49.240763116,0
                137.689886928,49.19006032,0
                137.671625765,49.1632156160001,0
                137.611440181,49.1330424650001,0
                137.594176536,49.1243876240001,0
                137.495630878,49.050313965,0
                137.400581711,49.000900454,0
                137.337368733,48.956315847,0
                137.305550975,48.933874652,0
                137.217561197,48.8703791240001,0
                137.172494833,48.8369947990001,0
                137.13661206,48.8104136740001,0
                137.073263585,48.7610337950001,0
                137.061820181,48.7196663220001,0
                137.055719781,48.6976135890001,0
                137.034668608,48.6200999920001,0
                137.038270029,48.5461355250001,0
                137.044685865,48.5333381460001,0
                137.073568355,48.4757273530001,0
                137.119426012,48.412374818,0
                137.130694126,48.378690197,0
                137.137093722,48.359559097,0
                137.137165218,48.292635606,0
                137.120346487,48.2589074250001,0
                137.116076774,48.250345086,0
                137.045687239,48.1974352330001,0
                136.966887298,48.1349150250001,0
                136.961223367,48.1304212570001,0
                136.887315278,48.0739855190001,0
                136.870501487,48.0638726970001,0
                136.816914484,48.031642478,0
                136.750050903,47.9752141980001,0
                136.741833804,47.966979543,0
                136.690235681,47.915271424,0
                136.655073147,47.858877008,0
                136.655155829,47.781386044,0
                136.655231089,47.7109402080001,0
                136.665861921,47.651072234,0
                136.681378143,47.61668991,0
                136.697637969,47.5806597760001,0
                136.739965713,47.5243482170001,0
                136.789334498,47.471566157,0
                136.805483496,47.452522533,0
                136.828128428,47.4258183100001,0
                136.81188596,47.3932458470001,0
                136.800010393,47.36943102,0
                136.77289402,47.3386329890001,0
                136.747239629,47.309495661,0
                136.687379327,47.2918201100001,0
                136.666791529,47.2857913830001,0
                136.602870632,47.267073586,0
                136.540078097,47.2434499170001,0
                136.51836939,47.2352827720001,0
                136.501582268,47.2272028030001,0
                136.430356967,47.1929208860001,0
                136.404783587,47.165462217,0
                136.381101176,47.1400341670001,0
                136.321289793,47.0765686770001,0
                136.272037661,47.0201592810001,0
                136.261529103,47.0008439630001,0
                136.250945389,46.9813908900001,0
                136.233401591,46.9179706200001,0
                136.236995423,46.851050738,0
                136.279334508,46.7841722480001,0
                136.291665937,46.77626345,0
                136.328680362,46.7525238040001,0
                136.368001496,46.7329161980001,0
                136.399164242,46.717376545,0
                136.466114132,46.6927918750001,0
                136.434507519,46.6047002880001,0
                136.40940306,46.5795421560001,0
                136.364136828,46.5341793790001,0
                136.265602889,46.449538944,0
                136.215705797,46.420955253,0
                136.167038488,46.393076249,0
                136.0543776,46.3436437190001,0
                135.94876882,46.2871740730001,0
                135.94474477,46.284485171,0
                135.822056094,46.202503537,0
                135.716454774,46.138989129,0
                135.596764273,46.0754596680001,0
                135.554579523,45.997924245,0
                135.505334916,45.9344700440001,0
                135.505417702,45.8569789160001,0
                135.521851344,45.807853741,0
                135.533686663,45.772474001,0
                135.573906941,45.727323369,0
                135.590111249,45.709132638,0
                135.688735499,45.7092380010001,0
                135.791034424,45.7157415770001,0
                135.801441759,45.7164032150001,0
                135.88589412,45.7939838,0
                135.920955102,45.8185826610001,0
                135.956287428,45.8433716810001,0
                136.040687281,45.9702649010001,0
                136.049941579,45.990372264,0
                136.082857065,46.061889352,0
                136.132101671,46.1253435530001,0
                136.224550329,46.1932916590001,0
                136.237687811,46.2029474340001,0
                136.260835771,46.2211751300001,0
                136.336229405,46.2805432000001,0
                136.419532566,46.3066733150001,0
                136.448905337,46.31588678,0
                136.53023163,46.3911182200001,0
                136.540394831,46.4005197550001,0
                136.624832434,46.4921898740001,0
                136.695150386,46.6120233670001,0
                136.814855938,46.661463219,0
                136.906435815,46.661561057,0
                136.973091106,46.6759192660001,0
                137.005037588,46.682800715,0
                137.047642865,46.702519846,0
                137.096572208,46.725165776,0
                137.146525733,46.7462619830001,0
                137.230359505,46.7816660610001,0
                137.350034957,46.8592845090001,0
                137.386609574,46.8844870880001,0
                137.462665935,46.9368952360001,0
                137.596415509,47.0286181060001,0
                137.648377782,47.090457568,0
                137.708986055,47.162586263,0
                137.800430434,47.289487007,0
                137.911998343,47.4385756120001,0
                137.927052769,47.45869285,0
                138.018542334,47.5433257600001,0
                138.095912616,47.6561219750001,0
                138.159138118,47.7285362040001,0
                138.194416444,47.768941414,0
                138.242327808,47.805877744,0
                138.285921069,47.839484928,0
                138.39853666,47.931185219,0
                138.511130105,48.0440190640001,0
                138.623768271,48.114585807,0
                138.645997878,48.1257303400001,0
                138.76458521,48.1851825140001,0
                138.799146142,48.2000380050001,0
                138.863164541,48.227555115,0
                138.996981849,48.255876465,0
                139.151917887,48.2983100020001,0
                139.299854498,48.2984680500001,0
                139.461887975,48.2915963410001,0
                139.609862197,48.2565312240001,0
                139.735056883,48.2459962360001,0
                139.83472729,48.2376089860001,0
                139.907755098,48.231463815,0
                139.963309859,48.2267889020001,0
                140.030790731,48.22111033,0
                140.130281975,48.2127379560001,0
                140.337551952,48.195296195,0
                140.569709363,48.175759957,0
                140.641516035,48.16971762,0
                140.685565941,48.1660108520001,0
                140.839035827,48.1530963280001,0
                141.092176723,48.1317944910001,0
                141.176893393,48.1246654600001,0
                141.261831748,48.1175175770001,0
                141.426924653,48.103625256,0
                141.504481033,48.097098911,0
                141.667548775,48.0833767670001,0
                141.742593272,48.0770616510001,0
                141.763314994,48.0753178300001,0
                141.919647639,48.062162437,0
                141.85088065,48.007270308,0
                141.761871018,47.936219792,0
                141.623868228,47.8260612730001,0
                141.480720898,47.711796206,0
                141.289838598,47.5594274630001,0
                141.092496623,47.401902389,0
                140.953836722,47.291219341,0
                140.839044273,47.199588104,0
                140.684292062,47.0760596270001,0
                140.585592423,46.9972742190001,0
                140.477917015,46.9113240460001,0
                140.308987217,46.776478538,0
                140.179359651,46.6730054070001,0
                140.071027591,46.5865310730001,0
                139.873685414,46.429005837,0
                139.712956442,46.3007065050001,0
                139.672933175,46.2423363840001,0
                139.604917943,46.1431426500001,0
                139.512781182,46.0087699630001,0
                139.450313048,45.883235153,0
                139.393467893,45.769000179,0
                139.346102901,45.673816361,0
                139.303995287,45.5891976780001,0
                139.246147804,45.4729484420001,0
                139.229559509,45.3658785630001,0
                139.218679394,45.307214324,0
                139.208552114,45.257754597,0
                139.190740053,45.180175617,0
                139.173405091,45.1140364120001,0
                139.149829276,45.0361685330001,0
                139.122959946,44.96158568,0
                139.103093742,44.9147572890001,0
                139.081567344,44.8710547330001,0
                139.051847058,44.821481385,0
                139.019334573,44.7800032690001,0
                138.965112694,44.737577587,0
                138.919616626,44.7019793800001,0
                138.867080279,44.6608725350001,0
                138.814007316,44.6193458160001,0
                138.747124507,44.5670136430001,0
                138.689198308,44.5216895300001,0
                138.610634375,44.4602175100001,0
                138.525961153,44.393965301,0
                138.480931447,44.342422594,0
                138.407686973,44.2585841980001,0
                138.309800588,44.1465397380001,0
                138.243746944,44.0709322370001,0
                138.163520517,43.9791020330001,0
                138.084169757,43.88827415,0
                137.995659637,43.786962116,0
                137.918069633,43.698149662,0
                137.859740783,43.645384897,0
                137.789079251,43.5814638860001,0
                137.729861706,43.527895202,0
                137.649964206,43.4556192590001,0
                137.593748308,43.375650519,0
                137.490364937,43.2285846890001,0
                137.425143757,43.1358056760001,0
                137.321760746,42.988740357,0
                137.230834563,42.8593952350001,0
                137.149844371,42.744184348,0
                137.068364866,42.6282773990001,0
                136.975594655,42.496309094,0
                136.880679382,42.361289378,0
                136.778952254,42.2165795990001,0
                136.673047007,42.065926328,0
                136.557583485,41.901676132,0
                136.479227086,41.7902118920001,0
                136.406892995,41.687314558,0
                136.312278783,41.5527231080001,0
                136.23510354,41.4429390970001,0
                136.19342546,41.3615079640001,0
                136.146045428,41.2689362890001,0
                136.102253814,41.183375708,0
                136.053446102,41.0880146150001,0
                136.013280315,41.009538218,0
                135.970991598,40.9269140160001,0
                135.93507171,40.8567333070001,0
                135.903135073,40.7943351210001,0
                135.778877334,40.7421676980001,0
                135.63396422,40.6813284790001,0
                135.475603589,40.614843556,0
                135.342185935,40.558830503,0
                135.226533585,40.5102759000001,0
                135.113599168,40.4628623740001,0
                134.991188885,40.411470572,0
                134.890515924,40.3692048010001,0
                134.824816617,40.3416221040001,0
                134.67265785,40.277740926,0
                134.523773388,40.215234406,0
                134.389867473,40.159016364,0
                134.273449291,40.1101402410001,0
                134.171521973,40.0673478510001,0
                134.07133673,40.025286841,0
                134.003439612,39.996781432,0
                133.880450723,40.007202281,0
                133.792428288,40.0146604230001,0
                133.68432562,40.0238199630001,0
                133.58171619,40.032514061,0
                133.454628287,40.04328222,0
                133.291971463,40.057064133,0
                133.210942949,40.0639296800001,0
                133.137016154,40.070193499,0
                133.051687111,40.03999257,0
                132.965670776,40.0095483860001,0
                132.865842797,39.974215778,0
                132.791065127,39.94774935,0
                132.667109214,39.9038770240001,0
                132.561339567,39.866441453,0
                132.420123025,39.8306858830001,0
                132.326554187,39.806994558,0
                132.221354926,39.780358447,0
                132.122832394,39.7554128630001,0
                132.018467618,39.728988041,0
                131.848718193,39.6860080390001,0
                131.702118246,39.648889409,0
                131.587012878,39.619745105,0
                131.471074198,39.5903898080001,0
                131.37002046,39.5648033300001,0
                131.232546556,39.5299953850001,0
                131.095907087,39.4953987160001,0
                130.971676272,39.4639438780001,0
                130.840850886,39.4308193160001,0
                130.729030543,39.4025067690001,0
                130.579980364,39.3647677490001,0
                130.478093263,39.338970266,0
                130.406460374,39.3208330520001,0
                130.325987547,39.383546182,0
                130.241698674,39.4492331880001,0
                130.173691105,39.5022320410001,0
                130.102536835,39.5576831440001,0
                130.028715403,39.6152127870001,0
                129.989716115,39.6456052510001,0
                129.911245215,39.7067582620001,0
                129.865949635,39.7420574770001,0
                129.769207679,39.817449272,0
                129.694634996,39.875564372,0
                129.609112382,39.942212843,0
                129.536997266,39.99841274,0
                129.472416774,40.0487408440001,0
                129.373966289,40.1254641090001,0
                129.301100004,40.1822494,0
                129.259705282,40.214508644,0
                129.194368535,40.265426103,0
                129.140527079,40.3073851880001,0
                129.051940711,40.3764212670001,0
                128.984329158,40.4291115020001,0
                128.918783884,40.480191468,0
                128.84205399,40.539987701,0
                128.785200017,40.5927592310001,0
                128.727031247,40.6402482070001,0
                128.651309298,40.633122701,0
                128.559772742,40.5925184000001,0
                128.496397661,40.5677945580001,0
                128.431257667,40.5465911360001,0
                128.369641855,40.523630326,0
                128.297459141,40.500658227,0
                128.209427952,40.475908045,0
                128.107292507,40.465232015,0
                128.031579965,40.449300755,0
                127.948824702,40.431600819,0
                127.855521351,40.3962780890001,0
                127.744608375,40.3591753920001,0
                127.667147852,40.3309141980001,0
                127.556240521,40.28852805,0
                127.480546794,40.254985284,0
                127.411929654,40.191510485,0
                127.352110742,40.135089695,0
                127.290532561,40.076905874,0
                127.23598393,40.032818782,0
                127.188494953,39.974650013,0
                127.144520751,39.9235296090001,0
                127.08647616,39.854782646,0
                127.044268754,39.7983806710001,0
                126.996779777,39.7402119020001,0
                126.958117249,39.6626798830001,0
                126.9757852,39.609864181,0
                127.039252474,39.5482916440001,0
                127.097434414,39.4884746130001,0
                127.143282655,39.4339278630001,0
                127.17506427,39.358232254,0
                127.20858822,39.3001500340001,0
                127.247371163,39.2649684140001,0
                127.28790773,39.2368332790001,0
                127.33547573,39.2210337240001,0
                127.404177536,39.2052567470001,0
                127.474634848,39.1947651030001,0
                127.575037366,39.1790219920001,0
                127.643729764,39.1720507680001,0
                127.705370035,39.172116621,0
                127.742374894,39.152783476,0
                127.793484009,39.119376177,0
                127.835789253,39.084198321,0
                127.89218182,39.050796667,0
                127.948568743,39.0226784660001,0
                128.010250407,38.983999005,0
                128.066654263,38.9400304480001,0
                128.133626904,38.894312029,0
                128.177691417,38.8608972060001,0
                128.234100918,38.811645196,0
                128.2746563,38.765898555,0
                128.30992823,38.72014627,0
                128.327592418,38.6708528680001,0
                128.348812773,38.5898625180001,0
                128.38763711,38.5159355870001,0
                128.419420606,38.438478828,0
                128.462641232,38.370720626,0
                128.487781372,38.3298006860001,0
                128.516895391,38.2783180770001,0
                128.546002354,38.2334397810001,0
                128.575109317,38.188561485,0
                128.610822005,38.142369382,0
                128.655782145,38.094866294,0
                128.70206597,38.044722892,0
                128.745715126,37.987972352,0
                128.791996129,37.940470675,0
                128.834314544,37.892964765,0
                128.880606836,37.834896185,0
                128.924250346,37.7834290970001,0
                128.959958801,37.741199583,0
                129.010215094,37.6818143730001,0
                129.04988896,37.6369473660001,0
                129.093526826,37.59076373,0
                129.126587911,37.5538148460001,0
                129.151723818,37.5168574950001,0
                129.188763014,37.4653833510001,0
                129.211248728,37.4363483560001,0
                129.220546981,37.387486304,0
                129.220586492,37.350502142,0
                129.215336907,37.3187957870001,0
                129.198216489,37.2712263770001,0
                129.171814752,37.256668662,0
                129.088590509,37.2658258020001,0
                129.07534378,37.30147499,0
                129.043634602,37.3093663010001,0
                128.997402988,37.310637775,0
                128.951160085,37.322476153,0
                128.906264856,37.3092195450001,0
                128.853435983,37.3038796490001,0
                128.787414002,37.2839961490001,0
                128.742504662,37.2839481710001,0
                128.706807497,37.315610781,0
                128.714697396,37.3486408210001,0
                128.735784636,37.392251877,0
                128.811041368,37.422712158,0
                128.844289668,37.442681771,0
                128.837403593,37.4742540350001,0
                128.828098286,37.5297204010001,0
                128.837293526,37.577281344,0
                128.827968463,37.6512397910001,0
                128.797513826,37.7212130710001,0
                128.760471808,37.7753289410001,0
                128.704919365,37.846596273,0
                128.649369743,37.9152218790001,0
                128.596498634,37.9628739550001,0
                128.574042454,37.950804745,0
                128.550303611,37.916436908,0
                128.546381944,37.8781276500001,0
                128.546436978,37.8266139940001,0
                128.531944174,37.792256036,0
                128.49628652,37.786934484,0
                128.447403302,37.797449176,0
                128.409078521,37.815900335,0
                128.350911162,37.862068449,0
                128.304649915,37.891078044,0
                128.274255956,37.9042542180001,0
                128.23198693,37.9055299250001,0
                128.188421031,37.8843495520001,0
                128.143551203,37.8473174100001,0
                128.109268033,37.7918044780001,0
                128.061762123,37.7494860640001,0
                128.022167279,37.720384746,0
                127.987861532,37.6860056200001,0
                127.956186221,37.6621962200001,0
                127.903365814,37.6489311460001,0
                127.850517186,37.6620833310001,0
                127.81349069,37.7016697080001,0
                127.808156437,37.749215129,0
                127.808094348,37.8073330990001,0
                127.831827548,37.8469843870001,0
                127.871411102,37.8866526090001,0
                127.903066658,37.92895409,0
                127.955853198,37.973919874,0
                127.97957699,38.022376916,0
                127.953101405,38.0769443620001,0
                127.947774679,38.1174451810001,0
                127.986503058,38.1333369290001,0
                128.03580963,38.1386730630001,0
                128.086892405,38.1299218730001,0
                128.159124038,38.107104056,0
                128.210219983,38.0860248130001,0
                128.256038121,38.059656472,0
                128.293035453,38.0473679290001,0
                128.333556969,38.0333219990001,0
                128.372300401,38.0351245420001,0
                128.414551081,38.051020054,0
                128.440926947,38.0897935890001,0
                128.437340676,38.149668945,0
                128.396775886,38.2042213400001,0
                128.354453709,38.2552495520001,0
                128.317435679,38.2869107510001,0
                128.276887823,38.325612789,0
                128.227536096,38.3625442700001,0
                128.176453321,38.3712954590001,0
                128.128906018,38.367722359,0
                128.074319757,38.3588582790001,0
                128.021505936,38.339429178,0
                127.97575365,38.304157247,0
                127.937027152,38.286504349,0
                127.880668451,38.288205292,0
                127.836607702,38.318097815,0
                127.824238254,38.3568299570001,0
                127.824185573,38.406142173,0
                127.829420106,38.4519377330001,0
                127.83112293,38.5065352830001,0
                127.816958466,38.5769662550001,0
                127.794016471,38.62097056,0
                127.781652668,38.654419251,0
                127.758701267,38.7072293090001,0
                127.756874263,38.7688676980001,0
                127.777947863,38.8252470950001,0
                127.772598559,38.8868817210001,0
                127.732045058,38.9308672120001,0
                127.695036436,38.9537226590001,0
                127.66857214,38.997723201,0
                127.613935079,39.0364101870001,0
                127.554040907,39.050435421,0
                127.520590335,39.03983277,0
                127.494218232,38.997536934,0
                127.496009487,38.969360405,0
                127.524227407,38.932406347,0
                127.548909856,38.9077765800001,0
                127.578877639,38.8813913060001,0
                127.607086152,38.8532430000001,0
                127.62121675,38.8145127390001,0
                127.614222947,38.766954147,0
                127.573727773,38.75634397,0
                127.527934095,38.759817352,0
                127.490951814,38.75801669,0
                127.489247107,38.705180291,0
                127.512194746,38.655892534,0
                127.533375591,38.6118863470001,0
                127.552806573,38.557311375,0
                127.568719018,38.4992103390001,0
                127.57406644,38.4393368630001,0
                127.547699982,38.391757575,0
                127.503688151,38.375860183,0
                127.442053525,38.3705108780001,0
                127.380411373,38.3722061770001,0
                127.339889857,38.3862521080001,0
                127.320462637,38.4373047780001,0
                127.323892745,38.52360492,0
                127.336130488,38.6081533190001,0
                127.339601989,38.655708147,0
                127.339551189,38.703259213,0
                127.325399894,38.7613621310001,0
                127.293657791,38.800073577,0
                127.247826484,38.838769971,0
                127.196754997,38.836954258,0
                127.14745407,38.8263346730001,0
                127.096410807,38.7981017000001,0
                127.050645351,38.7751578240001,0
                127.001344423,38.7645382380001,0
                126.95907869,38.7627319320001,0
                126.922081358,38.7750204750001,0
                126.870985413,38.7960997180001,0
                126.840993171,38.8453799500001,0
                126.819804801,38.896430739,0
                126.791584999,38.9351459490001,0
                126.759859828,38.9580070390001,0
                126.72110699,38.9650102480001,0
                126.677078225,38.9649632110001,0
                126.645401974,38.942034387,0
                126.636647021,38.8944739140001,0
                126.636731688,38.815222137,0
                126.620920844,38.7782210410001,0
                126.596276025,38.767627797,0
                126.55576768,38.7693456740001,0
                126.522277596,38.7957271830001,0
                126.494048387,38.8432481460001,0
                126.465826703,38.883724505,0
                126.41297337,38.9012795670001,0
                126.372466907,38.9012362920001,0
                126.312572735,38.9152615260001,0
                126.252669155,38.9380925130001,0
                126.198043383,38.966212597,0
                126.131063216,39.0189756180001,0
                126.062314372,39.0787813600001,0
                125.993556121,39.1473928550001,0
                125.944189341,39.19841354,0
                125.857842162,39.245872413,0
                125.790899625,39.263412422,0
                125.723964614,39.2739078290001,0
                125.628862482,39.2738062290001,0
                125.544340423,39.261387863,0
                125.45629042,39.254249187,0
                125.38584816,39.250651625,0
                125.320685588,39.2505820110001,0
                125.242945055,39.2378033250001,0
                125.172695083,39.226255909,0
                125.092154282,39.2130169260001,0
                125.030409918,39.202867629,0
                124.922357604,39.1851064100001,0
                124.812729574,39.167086183,0
                124.715912945,39.151171843,0
                124.633586138,39.137639284,0
                124.547900486,39.12355461,0
                124.427877688,39.103825731,0
                124.333579992,39.088325443,0
                124.264170447,39.076916173,0
                124.204210921,39.0670602600001,0
                124.126189907,39.05423547,0
                124.058097887,39.0430427690001,0
                124.028645719,38.9856964370001,0
                124.001724956,38.9332790060001,0
                123.963881968,38.8595949040001,0
                123.934815326,38.8029992310001,0
                123.898077468,38.7314669300001,0
                123.863485392,38.6641126820001,0
                123.823035705,38.6251288660001,0
                123.780004023,38.5836566240001,0
                123.718250563,38.524141071,0
                123.676379217,38.483787115,0
                123.642838965,38.451462341,0
                123.590314928,38.40084174,0
                123.546121748,38.358250093,0
                123.478795849,38.2933640420001,0
                123.379906655,38.3001014760001,0
                123.297851633,38.305691978,0
                123.223865863,38.310732713,0
                123.155503871,38.3153902940001,0
                123.059938296,38.3219012860001,0
                122.978792899,38.327429814,0
                122.915142704,38.331766375,0
                122.838528533,38.336986186,0
                122.751396854,38.3429225670001,0
                122.638154061,38.350637928,0
                122.511036336,38.3592986030001,0
                122.37077185,38.3688549830001,0
                122.304129018,38.3733954350001,0
                122.209290958,38.3798568610001,0
                122.121977381,38.3858056340001,0
                122.040468506,38.3913589270001,0
                121.948259482,38.3976412330001,0
                121.889868611,38.401619469,0
                121.773268254,38.409563586,0
                121.7022768,38.414400314,0
                121.623214704,38.4197869050001,0
                121.541523821,38.4253525980001,0
                121.466992553,38.4304304980001,0
                121.382489866,38.4361877630001,0
                121.279946551,38.4431741560001,0
                121.177038799,38.4501853790001,0
                121.076032466,38.457067056,0
                120.99959946,38.4622745230001,0
                120.912103871,38.4682356980001,0
                120.846370981,38.4727141550001,0
                120.77293204,38.477717634,0
                120.677002504,38.484253423,0
                120.595129586,38.4898315180001,0
                120.524319083,38.494655919,0
                120.468921251,38.498430237,0
                120.417939098,38.501903709,0
                120.387519587,38.5810689460001,0
                120.356021203,38.663041897,0
                120.334181316,38.7198790960001,0
                120.313772346,38.7729924060001,0
                120.279959218,38.860989364,0
                120.235603076,38.9764239740001,0
                120.211522236,39.0390931410001,0
                120.186011394,39.1054838200001,0
                120.166488112,39.15629217,0
                120.14287926,39.2177330120001,0
                120.115598121,39.2887307980001,0
                120.079884638,39.3816733260001,0
                120.044979384,39.472512484,0
                120.020220099,39.536947271,0
                119.992262685,39.609705025,0
                119.969745957,39.6683036700001,0
                119.943687621,39.7361191680001,0
                119.921849309,39.792952271,0
                119.885587776,39.887321077,0
                119.860832227,39.9517461390001,0
                119.839330954,40.0077021130001,0
                119.809056436,40.086490015,0
                119.788315824,40.140466406,0
                119.795818876,40.197463188,0
                119.795753965,40.258222882,0
                119.787746943,40.334824467,0
                119.848489704,40.3507397330001,0
                119.906562518,40.3930694370001,0
                119.943512814,40.4248096590001,0
                119.975151435,40.482961495,0
                120.038538745,40.496237858,0
                120.088731537,40.49629148,0
                120.144213425,40.491067296,0
                120.18646975,40.5016793550001,0
                120.220772676,40.538700206,0
                120.202218505,40.5967984210001,0
                120.154636395,40.625806604,0
                120.112343381,40.649536982,0
                120.064766914,40.6732617150001,0
                120.019829352,40.6996309950001,0
                120.0144697,40.77095195,0
                119.987993174,40.8263999710001,0
                119.948310842,40.879192156,0
                119.90598396,40.934623243,0
                119.895366256,40.98216302,0
                119.927030278,41.0165393240001,0
                119.977200492,41.0377267530001,0
                120.032617469,41.093262264,0
                120.08544352,41.1012438860001,0
                120.133008697,41.0880860570001,0
                120.15680963,41.064335924,0
                120.177977304,41.0326577910001,0
                120.193864348,40.998332288,0
                120.201837504,40.9534314150001,0
                120.215094112,40.908536186,0
                120.233634171,40.8636466020001,0
                120.252168585,40.8240404690001,0
                120.289183791,40.7950209960001,0
                120.326179243,40.784493603,0
                120.368452502,40.779255307,0
                120.405428198,40.787219996,0
                120.455587122,40.8189743290001,0
                120.484620707,40.8427809070001,0
                120.548005195,40.858698996,0
                120.600800202,40.895739602,0
                120.645647452,40.9539055500001,0
                120.703714622,41.0015187050001,0
                120.751234643,41.03062849,0
                120.777618035,41.062357423,0
                120.774928331,41.107263941,0
                120.71942951,41.1283384810001,0
                120.66393351,41.1467712950001,0
                120.621632029,41.1784268500001,0
                120.663829087,41.2445151530001,0
                120.711374509,41.2498494050001,0
                120.782698285,41.2525673310001,0
                120.843426937,41.2816912270001,0
                120.885649395,41.324003997,0
                120.956947771,41.3504974570001,0
                120.999181519,41.3822433220001,0
                121.044048525,41.4219171890001,0
                121.094196161,41.4642384250001,0
                121.115248124,41.540871055,0
                121.13633113,41.588444698,0
                121.178536656,41.6466078230001,0
                121.215470018,41.6941984000001,0
                121.233911299,41.7417692220001,0
                121.233835099,41.813095821,0
                121.281335364,41.860697687,0
                121.318277193,41.9003630870001,0
                121.373685703,41.963823775,0
                121.410593665,42.0351898850001,0
                121.428984146,42.130311772,0
                121.439483316,42.1937244820001,0
                121.439435338,42.2386338220001,0
                121.423517248,42.302018311,0
                121.412908012,42.34163291,0
                121.452500034,42.373375954,0
                121.500042632,42.381351932,0
                121.526482469,42.360246347,0
                121.589917757,42.32861337,0
                121.626932964,42.2995938970001,0
                121.682423319,42.2864445340001,0
                121.737899562,42.286503801,0
                121.782797614,42.2971186830001,0
                121.82504265,42.318297645,0
                121.854076234,42.342104223,0
                121.861956257,42.384380304,0
                121.864550004,42.429292466,0
                121.814314879,42.468864732,0
                121.74561025,42.4872834350001,0
                121.684830799,42.505710605,0
                121.655706903,42.5664392560001,0
                121.616041504,42.603381084,0
                121.544712083,42.60594661,0
                121.470740936,42.6085093140001,0
                121.417912062,42.6031694170001,0
                121.367719271,42.6031157940001,0
                121.330701241,42.6347769930001,0
                121.333300633,42.674405704,0
                121.375531559,42.7087932970001,0
                121.438910402,42.729994837,0
                121.512847682,42.7591328450001,0
                121.568309815,42.7724007410001,0
                121.629046932,42.7935994590001,0
                121.668667176,42.7989252450001,0
                121.724126486,42.8148348670001,0
                121.779577329,42.838669667,0
                121.827119929,42.8466456450001,0
                121.866754284,42.838762801,0
                121.882635684,42.8097207500001,0
                121.877386099,42.778014394,0
                121.856291803,42.741007654,0
                121.853686767,42.7066623960001,0
                121.85902384,42.656475248,0
                121.885483432,42.616877582,0
                121.917209544,42.5931359160001,0
                121.96743338,42.564130553,0
                122.014981623,42.5668230790001,0
                122.065112326,42.6249946720001,0
                122.139080651,42.625073694,0
                122.184018213,42.5987044130001,0
                122.239511391,42.582913325,0
                122.308201908,42.5777032510001,0
                122.374236588,42.5856989850001,0
                122.416487269,42.6015944960001,0
                122.448151291,42.6359707990001,0
                122.445461587,42.6808773170001,0
                122.408443558,42.7125385160001,0
                122.329157914,42.74415456,0
                122.286879011,42.7546763070001,0
                122.249858159,42.7889792330001,0
                122.249818649,42.825963395,0
                122.273565959,42.852406054,0
                122.321088803,42.8788741130001,0
                122.365981209,42.894772447,0
                122.392370245,42.921217928,0
                122.39760572,42.966132912,0
                122.368518512,42.992519127,0
                122.313025336,43.0083102150001,0
                122.254907366,43.0082481250001,0
                122.18623096,43.0002495700001,0
                122.12811299,43.0001874800001,0
                122.040938858,42.997452621,0
                121.951128645,42.989431488,0
                121.848098513,42.991963146,0
                121.758279833,42.9918671900001,0
                121.663177701,42.9917655900001,0
                121.557511488,42.989010975,0
                121.457125904,42.9889037300001,0
                121.404288564,42.9914890110001,0
                121.354095773,42.9914353890001,0
                121.280127447,42.991356366,0
                121.214106879,42.9701520030001,0
                121.158650391,42.9516006540001,0
                121.087374592,42.903973389,0
                121.016101616,42.8537043960001,0
                120.979154142,42.819322449,0
                120.944848395,42.784943323,0
                120.878867337,42.7267547980001,0
                120.836653345,42.67651685,0
                120.818206419,42.634229481,0
                120.828824123,42.586689703,0
                120.873781442,42.541828341,0
                120.921383307,42.4943280750001,0
                120.953123529,42.4573777800001,0
                120.974310959,42.4072075660001,0
                120.974387159,42.335880968,0
                120.977116375,42.2539902870001,0
                120.97984559,42.1720996070001,0
                120.979918968,42.1034147340001,0
                120.966795005,42.0241488460001,0
                120.927225562,41.9712719950001,0
                120.877049704,41.9553680170001,0
                120.808364831,41.955294639,0
                120.723849358,41.9367122460001,0
                120.681624077,41.8970412030001,0
                120.657921922,41.8283309290001,0
                120.620991383,41.778098626,0
                120.578768924,41.7357858570001,0
                120.52600214,41.672327991,0
                120.470565407,41.635284561,0
                120.430998786,41.5797659840001,0
                120.383481587,41.5480144730001,0
                120.335972855,41.508337785,0
                120.280553055,41.4554440000001,0
                120.190776709,41.4157221560001,0
                120.10099754,41.3786420370001,0
                120.008571001,41.346842548,0
                119.913491447,41.325607141,0
                119.863318411,41.3070614370001,0
                119.818454227,41.264745845,0
                119.77623459,41.219791349,0
                119.747234872,41.164284061,0
                119.715584962,41.116699129,0
                119.668067763,41.0849476180001,0
                119.604660697,41.090163336,0
                119.578203928,41.127119276,0
                119.493668699,41.127028964,0
                119.398558101,41.134852541,0
                119.38528456,41.195598126,0
                119.387855729,41.2616440950001,0
                119.382439632,41.385799567,0
                119.456393847,41.3990872190001,0
                119.530362171,41.399166241,0
                119.588480141,41.3992283310001,0
                119.62804394,41.457388634,0
                119.596267029,41.5286813660001,0
                119.518693617,41.606089206,0
                119.469283563,41.697616355,0
                119.469185726,41.789196186,0
                119.479669844,41.8666981010001,0
                119.426812748,41.887775463,0
                119.342305742,41.861267893,0
                119.240159009,41.8611587660001,0
                119.162655212,41.8734040350001,0
                119.09573149,41.8733325380001,0
                119.056963599,41.8944249520001,0
                119.025213969,41.940181001,0
                118.986397159,42.007063331,0
                118.954617427,42.080997789,0
                118.922852745,42.140843042,0
                118.894625417,42.1866028540001,0
                118.869931679,42.2217995240001,0
                118.859315857,42.2675781510001,0
                118.831069713,42.3309494690001,0
                118.778193803,42.369638336,0
                118.711281369,42.3589999370001,0
                118.654977233,42.3096275120001,0
                118.616299653,42.246184698,0
                118.556507081,42.1651078,0
                118.507240021,42.1227875050001,0
                118.457927804,42.122734823,0
                118.40859301,42.1438159480001,0
                118.387410284,42.1895832860001,0
                118.387331261,42.263551611,0
                118.387237187,42.3516091400001,0
                118.366046935,42.4044210800001,0
                118.330790057,42.4360841610001,0
                118.249777129,42.4359976120001,0
                118.189894247,42.439455943,0
                118.158193536,42.439422076,0
                118.077150504,42.467513937,0
                118.055937676,42.5414596840001,0
                117.996051029,42.5484403150001,0
                117.957294427,42.5589658260001,0
                117.911493223,42.5694838110001,0
                117.865665678,42.6046579040001,0
                117.89027663,42.6469518590001,0
                117.967725863,42.6857799580001,0
                118.055760815,42.7070078400001,0
                118.143818345,42.7071019140001,0
                118.284725443,42.6931632280001,0
                118.425640069,42.67217994,0
                118.541876008,42.672304119,0
                118.68632046,42.6442799910001,0
                118.751479269,42.6478719080001,0
                118.791966917,42.6655266880001,0
                118.791917999,42.7113166030001,0
                118.788361831,42.743013551,0
                118.751294883,42.8204646660001,0
                118.751206452,42.903238743,0
                118.828719656,42.882187722,0
                118.922085097,42.859392482,0
                118.985527911,42.8207149030001,0
                119.045469121,42.7626609050001,0
                119.101874858,42.7169311970001,0
                119.177630675,42.692355993,0
                119.24807858,42.6906701010001,0
                119.314996657,42.6960250500001,0
                119.374847555,42.7225062800001,0
                119.406495584,42.7718523630001,0
                119.41702862,42.803564362,0
                119.436346714,42.8546584260001,0
                119.508535073,42.8723470730001,0
                119.545496658,42.893520392,0
                119.575379773,42.9463868940001,0
                119.589416296,42.9957141630001,0
                119.615810978,43.016876192,0
                119.666869292,43.031019961,0
                119.709148195,43.0204982130001,0
                119.735599322,42.988825724,0
                119.758567657,42.9201653100001,0
                119.793854639,42.8603238200001,0
                119.815082521,42.7722888690001,0
                119.783415677,42.7405542910001,0
                119.728855757,42.7070341030001,0
                119.695435289,42.668253043,0
                119.681423225,42.5960308160001,0
                119.651532583,42.550208916,0
                119.614580406,42.520229844,0
                119.572327845,42.5060954840001,0
                119.521262003,42.4989963190001,0
                119.459617969,42.5024527670001,0
                119.397977699,42.502386916,0
                119.353973394,42.479444921,0
                119.320556688,42.4371415580001,0
                119.320645118,42.3543674800001,0
                119.303133332,42.261007684,0
                119.301441796,42.19584323,0
                119.299782245,42.1007392170001,0
                119.306926567,42.0074057620001,0
                119.365042655,42.009229002,0
                119.414339819,42.023370889,0
                119.465383083,42.051603861,0
                119.512902164,42.081594221,0
                119.558650686,42.120388453,0
                119.60969583,42.1468602750001,0
                119.67133422,42.1486872780001,0
                119.718909745,42.1258431200001,0
                119.778796391,42.118862488,0
                119.859805555,42.122471338,0
                119.849308267,42.0572974770001,0
                119.828261008,41.9762619730001,0
                119.796628031,41.912826684,0
                119.74740989,41.8247164730001,0
                119.687575925,41.7823848880001,0
                119.648887057,41.7295089780001,0
                119.670071664,41.6819804900001,0
                119.749379885,41.6292306390001,0
                119.849697735,41.692739305,0
                119.918351564,41.7218716680001,0
                120.01868917,41.766888253,0
                120.100582672,41.766975743,0
                120.174539707,41.777621669,0
                120.237901617,41.814673564,0
                120.306527223,41.870223186,0
                120.359313764,41.9151889710001,0
                120.398863452,41.9865579030001,0
                120.433163554,42.0262204800001,0
                120.493863983,42.0817616350001,0
                120.551922685,42.137299969,0
                120.625834566,42.190213509,0
                120.660151602,42.214025731,0
                120.749911015,42.26959793,0
                120.784194185,42.3251108630001,0
                120.784132095,42.383228833,0
                120.765583569,42.4360435950001,0
                120.702105948,42.5073024600001,0
                120.633367452,42.5574218730001,0
                120.556706602,42.604891095,0
                120.482718521,42.623304153,0
                120.43784587,42.588913738,0
                120.374506538,42.530728035,0
                120.334937095,42.477851184,0
                120.263683874,42.4090901110001,0
                120.216141275,42.4011141330001,0
                120.171260157,42.374648897,0
                120.180018873,42.4186870680001,0
                120.179956783,42.4768050380001,0
                120.179887168,42.541967609,0
                120.194807089,42.5886540930001,0
                120.225150247,42.6230289850001,0
                120.256805802,42.6653304660001,0
                120.258068809,42.7194872580001,0
                120.246133065,42.7643838980001,0
                120.223638883,42.8013440710001,0
                120.220966113,42.8304002340001,0
                120.240743779,42.8634429740001,0
                120.272421912,42.884610648,0
                120.305432196,42.8952128290001,0
                120.359577699,42.9045167260001,0
                120.419003832,42.916467993,0
                120.485031457,42.9310680410001,0
                120.552370066,42.954915541,0
                120.613083195,42.998568929,0
                120.680387938,43.0541171400001,0
                120.723929849,43.0977521840001,0
                120.746333718,43.145327239,0
                120.767395558,43.212713826,0
                120.769983662,43.262909441,0
                120.759356081,43.3196952580001,0
                120.726279473,43.371173635,0
                120.719614481,43.4279636860001,0
                120.735418269,43.471569097,0
                120.760462453,43.5204678360001,0
                120.781542638,43.5706832070001,0
                120.78149466,43.6155925470001,0
                120.793323159,43.6710814900001,0
                120.826303811,43.709421793,0
                120.86458767,43.72927566,0
                120.904210735,43.731959719,0
                120.971574745,43.7320316870001,0
                121.032324563,43.741342638,0
                121.094393832,43.751975864,0
                121.172327568,43.7494173950001,0
                121.251575111,43.7534646510001,0
                121.321578025,43.756181165,0
                121.381016858,43.756244666,0
                121.416650524,43.784020888,0
                121.420577834,43.8170466940001,0
                121.411289461,43.8566627050001,0
                121.375596527,43.8843627260001,0
                121.316129473,43.9107164850001,0
                121.271197555,43.931802314,0
                121.238159048,43.9476173910001,0
                121.224922196,43.97402054,0
                121.227525821,44.009686661,0
                121.252578473,44.0506602230001,0
                121.290843987,44.0876853080001,0
                121.339680638,44.1207590930001,0
                121.384557522,44.1511869190001,0
                121.438680448,44.1816246220001,0
                121.491481098,44.213381778,0
                121.562768186,44.2504421410001,0
                121.635381781,44.2822204620001,0
                121.696120309,44.302098318,0
                121.763451864,44.332550133,0
                121.817577611,44.3603461100001,0
                121.899437247,44.3921343100001,0
                121.954892324,44.4120065210001,0
                122.011688019,44.4133880620001,0
                122.06188081,44.4134416840001,0
                122.126603094,44.4135108290001,0
                122.195285145,44.4162259330001,0
                122.26793543,44.413661819,0
                122.345864932,44.4150659380001,0
                122.403982901,44.415128027,0
                122.463421734,44.415191527,0
                122.532096729,44.4245109450001,0
                122.600761847,44.4430764050001,0
                122.664140689,44.464277946,0
                122.723565411,44.4775500760001,0
                122.76448394,44.5040110790001,0
                122.798793921,44.5344276160001,0
                122.837062257,44.5688109750001,0
                122.876662745,44.5926288410001,0
                122.921570675,44.5939976820001,0
                122.953285496,44.5808229200001,0
                122.974464459,44.5385778830001,0
                122.981135096,44.476504381,0
                122.986466526,44.431600685,0
                123.01291624,44.4012490600001,0
                123.069734514,44.381496794,0
                123.12786095,44.373633705,0
                123.178048097,44.378970779,0
                123.209731874,44.3948550010001,0
                123.238748525,44.4345119340001,0
                123.246625725,44.4794297400001,0
                123.246565047,44.5362268470001,0
                123.258400603,44.5851114760001,0
                123.291395365,44.61024315,0
                123.338949253,44.607652224,0
                123.390484075,44.587894314,0
                123.451305859,44.5298412560001,0
                123.524021054,44.4665174460001,0
                123.579553743,44.4137421950001,0
                123.629783224,44.3794533810001,0
                123.68796046,44.3240392270001,0
                123.743486093,44.2778682910001,0
                123.772600111,44.2263856810001,0
                123.752825267,44.1907012140001,0
                123.713220545,44.1708459370001,0
                123.688126972,44.1681773990001,0
                123.653788769,44.1641781210001,0
                123.606247581,44.154881281,0
                123.585149051,44.121837129,0
                123.586530592,44.0650414340001,0
                123.612987363,44.028085494,0
                123.652645706,43.99774798,0
                123.687024832,43.9634422330001,0
                123.69631885,43.91854277,0
                123.673903692,43.881534618,0
                123.644844707,43.8815035740001,0
                123.607866189,43.8761806110001,0
                123.57617959,43.8629381150001,0
                123.540536046,43.8444079330001,0
                123.533972654,43.806095853,0
                123.556462602,43.7730982680001,0
                123.601388875,43.7572958910001,0
                123.641031696,43.741487869,0
                123.709744792,43.7151439880001,0
                123.815464628,43.6677058120001,0
                123.910586515,43.649315331,0
                123.987171166,43.673172709,0
                123.989745158,43.7365769520001,0
                123.994941121,43.8184760990001,0
                123.994881854,43.873952343,0
                124.042382119,43.921554208,0
                124.084598933,43.9691504300001,0
                124.124162732,44.027310734,0
                124.145237272,44.082809555,0
                124.150475568,44.1250828130001,0
                124.139809886,44.2175319310001,0
                124.063160325,44.2544342480001,0
                124.002355473,44.296636951,0
                123.962681607,44.341503958,0
                123.928268615,44.407510416,0
                123.915028941,44.4365552890001,0
                123.90706143,44.4761727110001,0
                123.893787889,44.5369182950001,0
                123.954530651,44.552833562,0
                124.010012539,44.547609376,0
                124.060236375,44.5186040150001,0
                124.097265693,44.476375912,0
                124.131641997,44.4447118900001,0
                124.181860189,44.4209899790001,0
                124.24526161,44.421057713,0
                124.276934098,44.4475088390001,0
                124.282175217,44.4871403710001,0
                124.282087727,44.5690338740001,0
                124.348122408,44.577029607,0
                124.390358977,44.606133748,0
                124.39292168,44.6801048950001,0
                124.406082332,44.725028346,0
                124.419203472,44.80693596,0
                124.445544531,44.878290781,0
                124.485119619,44.92588418,0
                124.519394322,44.9893222910001,0
                124.53252675,45.0606630010001,0
                124.487592011,45.0843905560001,0
                124.461121129,45.1345551250001,0
                124.468995507,45.182114658,0
                124.445186107,45.2137899680001,0
                124.392337478,45.226942153,0
                124.368525256,45.26125919,0
                124.376385522,45.3220273520001,0
                124.458270558,45.3300400190001,0
                124.519021787,45.3380301080001,0
                124.587698193,45.346028663,0
                124.558531963,45.446383202,0
                124.542605408,45.517692868,0
                124.510851075,45.567851793,0
                124.479085452,45.6285776220001,0
                124.460542571,45.676108932,0
                124.471050208,45.7315964640001,0
                124.497402555,45.7923843820001,0
                124.550166517,45.8584839740001,0
                124.595013768,45.916649921,0
                124.658370034,45.958985269,0
                124.716445669,45.9986732460001,0
                124.819447579,46.022558847,0
                124.917163215,46.049080528,0
                124.962016109,46.101963024,0
                124.943450651,46.1706281410001,0
                124.967147161,46.244621866,0
                125.011983123,46.313354717,0
                125.07269484,46.3583289690001,0
                125.14398475,46.3927476050001,0
                125.236397178,46.4377557240001,0
                125.273401096,46.419303154,0
                125.331555754,46.385022807,0
                125.389687835,46.3718762660001,0
                125.479523449,46.3561218670001,0
                125.566700402,46.3562150010001,0
                125.690850231,46.3669145490001,0
                125.780654799,46.3802191350001,0
                125.851936243,46.4225629490001,0
                125.904714316,46.475453911,0
                125.923158419,46.5203830070001,0
                125.931007396,46.591718073,0
                125.944137003,46.665700509,0
                125.978445573,46.697437908,0
                126.018029127,46.73710613,0
                126.044392764,46.7873271440001,0
                126.060189497,46.8375368700001,0
                126.054852423,46.887724017,0
                126.04424883,46.922055164,0
                126.017823104,46.9299521190001,0
                125.967650068,46.911406416,0
                125.922785884,46.8690908240001,0
                125.885841232,46.8320671500001,0
                125.838340967,46.7844652840001,0
                125.804021109,46.7632947880001,0
                125.759106124,46.7685302610001,0
                125.724738287,46.792269106,0
                125.719423791,46.8213224460001,0
                125.729954005,46.855676171,0
                125.743128768,46.8873909930001,0
                125.782706678,46.9323426670001,0
                125.827568041,46.9772999840001,0
                125.869796143,47.0143293030001,0
                125.935799779,47.051384021,0
                126.012378785,47.0805248510001,0
                126.088954969,47.1123074060001,0
                126.168158768,47.157301413,0
                126.228842262,47.228692923,0
                126.273681047,47.2947840480001,0
                126.310586186,47.3687918840001,0
                126.363327571,47.456025283,0
                126.394949258,47.5300274750001,0
                126.434496124,47.6040381330001,0
                126.468768005,47.670117969,0
                126.447555175,47.744063716,0
                126.389425917,47.7545685310001,0
                126.331367214,47.6990301980001,0
                126.275950238,47.643494688,0
                126.228449972,47.5958928220001,0
                126.180986395,47.5139485190001,0
                126.122967204,47.421426024,0
                126.059630694,47.3605985950001,0
                125.996265962,47.3261884240001,0
                125.930293371,47.2600747210001,0
                125.877529409,47.1939751300001,0
                125.835309773,47.1490206340001,0
                125.782500655,47.1251886570001,0
                125.722606483,47.1392138910001,0
                125.685592217,47.1673527890001,0
                125.634471813,47.21132699,0
                125.549844391,47.2975330570001,0
                125.507557962,47.315099408,0
                125.456443202,47.353790158,0
                125.40708583,47.3960050900001,0
                125.356006819,47.4012339780001,0
                125.304956029,47.380045608,0
                125.26270723,47.3623889460001,0
                125.20812285,47.351763717,0
                125.162323528,47.360520551,0
                125.148194812,47.3974896610001,0
                125.153431227,47.4415240700001,0
                125.183331275,47.4785402190001,0
                125.229085442,47.5120509980001,0
                125.278352503,47.5543712940001,0
                125.329386358,47.5914100200001,0
                125.401550259,47.6319936240001,0
                125.461406801,47.6531914020001,0
                125.524764948,47.6937655990001,0
                125.616324082,47.713236093,0
                125.677938012,47.737958054,0
                125.746592781,47.766209841,0
                125.797613467,47.815576621,0
                125.788756914,47.863118279,0
                125.734131141,47.8912383630001,0
                125.644312461,47.8911424070001,0
                125.561544028,47.8857705250001,0
                125.496404034,47.8645671020001,0
                125.418958563,47.822216703,0
                125.341505567,47.7869109050001,0
                125.249965248,47.7498289060001,0
                125.151399141,47.695127874,0
                125.086262911,47.6704021510001,0
                125.005276324,47.645659493,0
                124.941878665,47.642069459,0
                124.892573976,47.634972175,0
                124.859129047,47.619086071,0
                124.846838623,47.5838498900001,0
                124.862736016,47.539838058,0
                124.912099032,47.4923396730001,0
                124.959712187,47.4342725050001,0
                124.931605274,47.3673186780001,0
                124.887631073,47.316198274,0
                124.859516635,47.2562890500001,0
                124.817286649,47.2210208820001,0
                124.757430108,47.1998231040001,0
                124.695778548,47.2103241560001,0
                124.625315591,47.2260992510001,0
                124.553059498,47.2718120260001,0
                124.514285963,47.298187892,0
                124.49482864,47.377418972,0
                124.505312757,47.4549208870001,0
                124.540468036,47.5183599380001,0
                124.58267356,47.5765230630001,0
                124.633650972,47.6663963070001,0
                124.656487603,47.721016434,0
                124.677536743,47.800290788,0
                124.716225612,47.853166699,0
                124.786618953,47.902554175,0
                124.874636971,47.939632412,0
                124.950326935,47.9766974790001,0
                125.084144277,48.0050188810001,0
                125.212676284,48.0350957900001,0
                125.302478031,48.0510421010001,0
                125.432790004,48.0635093860001,0
                125.494418986,48.074142141,0
                125.571866338,48.1147313910001,0
                125.658117561,48.157091198,0
                125.698588276,48.190596333,0
                125.717917659,48.231123493,0
                125.702025911,48.2698518720001,0
                125.650914913,48.305020321,0
                125.591028267,48.3120009520001,0
                125.504739415,48.304864158,0
                125.451923711,48.2871962070001,0
                125.376216814,48.2659814960001,0
                125.30579525,48.243011278,0
                125.219536501,48.2076960730001,0
                125.122695796,48.1864587850001,0
                125.041692276,48.1775664840001,0
                124.955392135,48.1809965910001,0
                124.906066748,48.1932719640001,0
                124.883143568,48.2196647640001,0
                124.891906046,48.260180635,0
                124.942938021,48.29898051,0
                125.002771985,48.341312095,0
                125.062630409,48.360748723,0
                125.161251079,48.364376387,0
                125.233431912,48.389109637,0
                125.326720211,48.4385215720001,0
                125.414743875,48.4703163570001,0
                125.486905893,48.512661112,0
                125.567884953,48.544448371,0
                125.670016635,48.5586467030001,0
                125.754551863,48.558737014,0
                125.826781616,48.537680348,0
                125.897284084,48.4849210900001,0
                125.934307758,48.4479764390001,0
                125.98542628,48.405763388,0
                126.040048289,48.3811656060001,0
                126.122846827,48.3583590790001,0
                126.203901146,48.319700314,0
                126.295499792,48.3021866460001,0
                126.34485152,48.265255165,0
                126.381937283,48.170192544,0
                126.392611431,48.06981825,0
                126.40678154,47.9941038260001,0
                126.440281031,47.9589165630001,0
                126.519557267,47.9361062720001,0
                126.584736773,47.9203255310001,0
                126.695781453,47.8341476860001,0
                126.764515244,47.7884311490001,0
                126.833267851,47.7251031060001,0
                126.9513402,47.654783143,0
                127.076432692,47.6073656620001,0
                127.173324197,47.5810518860001,0
                127.203218601,47.6233514840001,0
                127.234830882,47.7061594290001,0
                127.23471423,47.8153507660001,0
                127.209962165,47.905143105,0
                127.151789632,47.9561543830001,0
                127.077781796,47.9930595230001,0
                126.984391896,48.0387497190001,0
                126.891017048,48.0703507110001,0
                126.817016738,48.1002112480001,0
                126.744785104,48.123029065,0
                126.748252842,48.174106195,0
                126.797518022,48.218187642,0
                126.843275952,48.24817612,0
                126.881979872,48.286962826,0
                126.881938479,48.325708139,0
                126.869570914,48.362679131,0
                126.811441656,48.373183946,0
                126.740986224,48.3819144390001,0
                126.681056304,48.4294015340001,0
                126.619384048,48.459275242,0
                126.58410271,48.51383328,0
                126.629838063,48.564955566,0
                126.686159133,48.5984776350001,0
                126.756565645,48.6355370570001,0
                126.835794844,48.656755531,0
                126.900940482,48.6726755020001,0
                126.927325756,48.702643284,0
                126.87972389,48.7501435500001,0
                126.830366518,48.7923584820001,0
                126.793344726,48.8275419830001,0
                126.821455402,48.8909735080001,0
                126.779086187,48.986030484,0
                126.741989135,49.0916600080001,0
                126.67857078,49.107442629,0
                126.551807449,49.070323,0
                126.467311732,49.0332485260001,0
                126.335281883,48.980272896,0
                126.261319202,48.9749104220001,0
                126.171500522,48.974814467,0
                126.092339057,48.8901945710001,0
                125.981443014,48.837241519,0
                125.886318305,48.858273726,0
                125.923229089,48.9269981100001,0
                125.949556036,49.0115615610001,0
                125.88609817,49.064328345,0
                125.812141134,49.053682419,0
                125.732895002,49.0483143000001,0
                125.653637581,49.0535130850001,0
                125.590191005,49.0957129650001,0
                125.590083759,49.1960985490001,0
                125.589942648,49.328184843,0
                125.589801536,49.4602711380001,0
                125.589696172,49.5588955700001,0
                125.491026584,49.601057821,0
                125.350119484,49.6149965070001,0
                125.23747358,49.5514746710001,0
                125.145953957,49.495020014,0
                125.075635876,49.3751865140001,0
                125.005287689,49.283531424,0
                124.899671335,49.234106318,0
                124.808166764,49.1635624570001,0
                124.73076645,49.0789444440001,0
                124.618128072,49.0083780040001,0
                124.533653051,48.951930874,0
                124.420931888,48.9588550610001,0
                124.287061865,48.9798458750001,0
                124.139162845,48.944464818,0
                124.019457286,48.89502466,0
                123.927960241,48.8174361970001,0
                123.892850119,48.711729532,0
                123.794323523,48.6200443370001,0
                123.674640543,48.549470372,0
                123.554919932,48.5141194190001,0
                123.442221347,48.4999097990001,0
                123.336586178,48.4680961990001,0
                123.262681824,48.408138057,0
                123.167696344,48.2988451190001,0
                123.086785018,48.203656439,0
                122.960053672,48.1365972500001,0
                122.857937041,48.108309713,0
                122.720601163,48.0764622470001,0
                122.618525925,48.0094293980001,0
                122.551692514,47.9248226730001,0
                122.484847814,47.8507828520001,0
                122.372280932,47.7132926900001,0
                122.294891907,47.6181077730001,0
                122.24215899,47.5229491960001,0
                122.207094023,47.374974917,0
                122.161435812,47.2516454570001,0
                122.094628742,47.142382624,0
                122.020833514,46.9802777470001,0
                122.020950167,46.87108641,0
                121.999872804,46.8182293150001,0
                121.922480015,46.7265666980001,0
                121.785196818,46.645407015,0
                121.665495023,46.592444556,0
                121.53519622,46.567649218,0
                121.383752321,46.5533982050001,0
                121.239345498,46.5461993210001,0
                121.098423347,46.5742272100001,0
                120.95749367,46.6092997040001,0
                120.802501129,46.619701036,0
                120.679164143,46.672403849,0
                120.566401587,46.7180733490001,0
                120.453642793,46.7602205480001,0
                120.355010835,46.767159787,0
                120.231722768,46.7740726850001,0
                120.133075757,46.795101129,0
                120.129451855,46.8901994980001,0
                120.235098313,46.9114461940001,0
                120.340722192,46.9538266980001,0
                120.485102674,46.98568169,0
                120.597823838,46.9787575030001,0
                120.731663756,46.985945099,0
                120.854955586,46.9755099000001,0
                120.978258705,46.9545077970001,0
                121.136762259,46.954677131,0
                121.270624756,46.940730919,0
                121.386860695,46.940855098,0
                121.492488337,46.9797133000001,0
                121.569918756,47.0361529040001,0
                121.605051456,47.1207257630001,0
                121.604987485,47.1806048830001,0
                121.601404977,47.236957938,0
                121.583744552,47.2827290390001,0
                121.583661766,47.360219665,0
                121.583575217,47.4412325920001,0
                121.622267849,47.490586201,0
                121.682075473,47.5575738950001,0
                121.741868044,47.6386507930001,0
                121.808735321,47.691556807,0
                121.868527893,47.772633705,0
                121.907209236,47.8325542170001,0
                121.935319911,47.895985743,0
                121.942281728,47.9734838950001,0
                121.942183891,48.0650637250001,0
                121.942116157,48.1284651460001,0
                121.942033371,48.205955772,0
                121.956024738,48.2975506550001,0
                121.991195069,48.3469005010001,0
                122.043969378,48.4033137650001,0
                122.131962938,48.4632869590001,0
                122.212934472,48.5021188210001,0
                122.325599191,48.548029151,0
                122.441789974,48.5904209440001,0
                122.533358516,48.601085685,0
                122.60376691,48.636383956,0
                122.635414939,48.6857300400001,0
                122.684640607,48.766795648,0
                122.733888853,48.8267274500001,0
                122.790185464,48.883144477,0
                122.857082846,48.907872082,0
                122.931017304,48.9396518140001,0
                123.004951761,48.9714315480001,0
                123.071837854,49.006726057,0
                123.099971107,49.049023774,0
                123.142163462,49.1195149540001,0
                123.19138913,49.2005805630001,0
                123.237141415,49.235852493,0
                123.311079637,49.2641099250001,0
                123.381514371,49.2747520880001,0
                123.451960395,49.274827348,0
                123.550592353,49.2678881090001,0
                123.652750377,49.2574303320001,0
                123.786594059,49.261095626,0
                123.916900388,49.2788463620001,0
                124.018990677,49.3317900060001,0
                124.092876217,49.4093596550001,0
                124.142113173,49.47985836,0
                124.191312501,49.585580077,0
                124.208829932,49.6736564220001,0
                124.226321022,49.7863888750001,0
                124.236786325,49.8815022950001,0
                124.278918472,50.008350293,0
                124.306968941,50.1281386370001,0
                124.345612653,50.223282162,0
                124.401882924,50.304355296,0
                124.46873515,50.3713505160001,0
                124.542579296,50.4876654770001,0
                124.598826988,50.5898724190001,0
                124.679753367,50.670971895,0
                124.757108526,50.7978575230001,0
                124.813326114,50.928242874,0
                124.85546955,51.0445239690001,0
                124.901157865,51.13967502,0
                124.946819838,51.259482178,0
                124.978415186,51.3581404780001,0
                124.985369477,51.4426832330001,0
                124.985267877,51.5377853640001,0
                124.967547244,51.6399132830001,0
                124.939244656,51.7561191190001,0
                124.925046325,51.8582508010001,0
                124.928444448,51.974490503,0
                124.928365425,52.048458828,0
                124.931789889,52.140042421,0
                124.938729128,52.2386743810001,0
                124.966772071,52.3655073260001,0
                125.00537439,52.4993961640001,0
                125.012287288,52.6226842310001,0
                125.026278655,52.7142791140001,0
                125.047310862,52.8094038240001,0
                125.061332333,52.872820297,0
                125.12114372,52.936285689,0
                125.17741399,53.017358824,0
                125.216065229,53.1054577460001,0
                125.258257583,53.1759489250001,0
                125.349750865,53.2570596900001,0
                125.437729372,53.3311220900001,0
                125.564464481,53.3946589780001,0
                125.652491907,53.4229314620001,0
                125.768727845,53.42305564,0
                125.895534451,53.4196688060001,0
                126.039963851,53.405733884,0
                126.18088224,53.381228294,0
                126.318285853,53.34967434,0
                126.452216083,53.272326707,0
                126.547374659,53.21959379,0
                126.653085087,53.1809613670001,0
                126.808119021,53.1318147210001,0
                126.934963256,53.0932048760001,0
                127.037128806,53.0757024960001,0
                127.170995065,53.058233983,0
                127.301327735,53.051328611,0
                127.424619565,53.0408934110001,0
                127.569052728,53.0234361880001,0
              </coordinates>
            </LinearRing>
          </outerBoundaryIs>
        </Polygon>
      </Placemark>
    </Document>
  </Document>
</kml>
