<?xml version="1.0" encoding="UTF-8"?>
<kml xmlns="http://www.opengis.net/kml/2.2">
  <Document id="root_doc">
    <Schema id="Bioregions_PA47.schema">
      <SimpleField name="OBJECTID" type="float"/>
      <SimpleField name="Shape_Leng" type="float"/>
      <SimpleField name="Shape_Area" type="float"/>
      <SimpleField name="Bioregions" type="string"/>
    </Schema>
    <Document id="Bioregions_PA47">
      <name>Bioregions_PA47</name>
      <Placemark id="Bioregions_PA47.1">
        <ExtendedData>
          <SchemaData schemaUrl="#Bioregions_PA47.schema">
            <SimpleData name="OBJECTID">144</SimpleData>
            <SimpleData name="Shape_Leng">73.75922749090</SimpleData>
            <SimpleData name="Shape_Area">223.03953691900</SimpleData>
            <SimpleData name="Bioregions">PA47</SimpleData>
          </SchemaData>
        </ExtendedData>
        <Polygon>
          <outerBoundaryIs>
            <LinearRing>
              <coordinates>
                144.20969058,45.3933227800001,0
                144.312650367,45.382271503,0
                144.433147079,45.446529431,0
                144.433660762,45.446803366,0
                144.568611064,45.518768548,0
                144.603880513,45.5375771820001,0
                144.644011988,45.5589783950001,0
                144.714305772,45.596464129,0
                144.781414519,45.6322511210001,0
                144.904804857,45.6980522360001,0
                145.030122098,45.764880582,0
                145.087312046,45.7953787710001,0
                145.13818717,45.8225092430001,0
                145.179680318,45.8446363910001,0
                145.238169667,45.8758269260001,0
                145.340496404,45.9472073590001,0
                145.410530946,45.9960618810001,0
                145.48959168,46.051212649,0
                145.639407296,46.1557199100001,0
                145.741818308,46.227158924,0
                145.808841342,46.3537215640001,0
                145.852162716,46.4355272000001,0
                145.900790912,46.527353852,0
                145.950288257,46.6208216680001,0
                146.004590092,46.7233622620001,0
                146.032128301,46.775363865,0
                146.081667863,46.8689116140001,0
                146.192896686,47.078949675,0
                146.250958022,47.1885893940001,0
                146.305080106,47.215861784,0
                146.347982709,47.237480535,0
                146.495702472,47.3119171750001,0
                146.617074759,47.3730777750001,0
                146.668716599,47.3991004650001,0
                146.795320801,47.4628971430001,0
                146.917702306,47.5245659710001,0
                147.128708885,47.63089333,0
                147.296116728,47.7152511370001,0
                147.438186078,47.7868408520001,0
                147.518953792,47.827540072,0
                147.601370666,47.869070069,0
                147.758849599,47.948424726,0
                147.886266394,47.77213305,0
                147.946040135,47.689431282,0
                148.049822923,47.5458392950001,0
                148.162076896,47.3905265940001,0
                148.294493058,47.20731786,0
                148.307332445,47.1895534770001,0
                148.377942608,47.0918579930001,0
                148.457786481,46.9813878680001,0
                148.504131665,46.917265564,0
                148.58903575,46.799793644,0
                148.605798808,46.7766005130001,0
                148.64268742,46.7255621200001,0
                148.696215569,46.651501523,0
                148.772506868,46.545946379,0
                148.848054278,46.441420189,0
                148.924811001,46.335220894,0
                149.014536429,46.211078236,0
                149.017498528,46.2009959320001,0
                149.040330104,46.123282396,0
                149.087392511,45.9630925590001,0
                149.100736964,45.917670931,0
                149.131597251,45.8126287430001,0
                149.155360158,45.731745818,0
                149.18735135,45.6228552790001,0
                149.300420571,45.478198123,0
                149.345881119,45.4200372660001,0
                149.409064925,45.3392014900001,0
                149.496561177,45.227261755,0
                149.564750069,45.1132112220001,0
                149.649392982,44.9716399910001,0
                149.67051924,44.9363049470001,0
                149.757267019,44.791213295,0
                149.868841004,44.6045978940001,0
                149.956713708,44.45762438,0
                149.995940236,44.392014986,0
                150.06190363,44.2816867670001,0
                150.149077719,44.1358820190001,0
                150.271517738,43.9310924270001,0
                150.381292567,43.747486091,0
                150.4073038,43.7039803600001,0
                150.519207097,43.516813922,0
                150.649413786,43.299034212,0
                150.780213191,43.0802626980001,0
                150.862351331,42.942880797,0
                150.954005075,42.7895837610001,0
                150.970850711,42.761408261,0
                151.009176891,42.6973049800001,0
                151.052207081,42.6253338860001,0
                151.01131746,42.5631653880001,0
                150.975794874,42.51386388,0
                150.934787133,42.4601546330001,0
                150.884136636,42.3973598790001,0
                150.848374391,42.354933884,0
                150.808784872,42.309534442,0
                150.748193632,42.242818814,0
                150.680008523,42.1711985260001,0
                150.607939819,42.0989308810001,0
                150.567028067,42.0593040750001,0
                150.524061248,42.018684486,0
                150.474018449,41.972578614,0
                150.421374295,41.925380203,0
                150.366702171,41.877684507,0
                150.309404543,41.8290489760001,0
                150.254626875,41.7837655800001,0
                150.197585711,41.7377978800001,0
                150.154865267,41.7041238250001,0
                150.110931087,41.6701356620001,0
                150.056315334,41.628754585,0
                149.999896998,41.586976561,0
                149.918185178,41.528124452,0
                149.872590408,41.4960969430001,0
                149.825938444,41.4639029940001,0
                149.758836621,41.4185807910001,0
                149.712754642,41.388104013,0
                149.665719422,41.35752204,0
                149.603196406,41.3176646570001,0
                149.539037751,41.277674328,0
                149.470266368,41.2357931600001,0
                149.399675941,41.193823041,0
                149.3501247,41.1649573610001,0
                149.299701009,41.136072509,0
                149.222657821,41.0928629410001,0
                149.178137426,41.0683884910001,0
                149.132977165,41.043922545,0
                149.069184485,41.009965691,0
                149.00414124,40.9760512460001,0
                148.955935014,40.951364955,0
                148.907055649,40.926715088,0
                148.839195454,40.8931145130001,0
                148.770063252,40.859607742,0
                148.718333746,40.8350011410001,0
                148.665905657,40.810459467,0
                148.587324701,40.7744067730001,0
                148.507205222,40.7385272720001,0
                148.424548686,40.702414295,0
                148.340292099,40.6665180370001,0
                148.28425846,40.6431443560001,0
                148.227530294,40.619877601,0
                148.155452718,40.590879181,0
                148.082272151,40.5620683430001,0
                148.010939632,40.5345831600001,0
                147.938577299,40.507290794,0
                147.876995008,40.4845221520001,0
                147.81467831,40.461902126,0
                147.736578884,40.4341380820001,0
                147.657343688,40.4066210450001,0
                147.566668505,40.375916504,0
                147.515647037,40.3590005460001,0
                147.464172684,40.342193228,0
                147.413333831,40.32584503,0
                147.362057678,40.309606042,0
                147.307116842,40.2924810660001,0
                147.251679084,40.2754851110001,0
                147.172066788,40.251568564,0
                147.091442542,40.2279270560001,0
                147.045594898,40.2147385810001,0
                146.98694392,40.1981330670001,0
                146.943212654,40.185943648,0
                146.890692604,40.1715185530001,0
                146.859626309,40.163094777,0
                146.81531324,40.151217699,0
                146.764684812,40.105468122,0
                146.713401517,40.059126785,0
                146.658037053,40.0090975640001,0
                146.602386734,39.9588100340001,0
                146.556496565,39.9173421090001,0
                146.499533462,39.8658683030001,0
                146.452473954,39.823343724,0
                146.398101874,39.7742112550001,0
                146.39562079,39.673698947,0
                146.393426646,39.5848110200001,0
                146.390607704,39.496265404,0
                146.385112241,39.431214873,0
                146.379040692,39.380379851,0
                146.370873777,39.325297522,0
                146.361514423,39.271893387,0
                146.350072908,39.2148082260001,0
                146.336978908,39.156509697,0
                146.321645612,39.094628861,0
                146.308091934,39.044040764,0
                146.293017499,38.9911886720001,0
                146.269561607,38.914394101,0
                146.242867364,38.833076095,0
                146.215351615,38.7543650740001,0
                146.184791722,38.671651581,0
                146.15530757,38.5955983700001,0
                146.123253416,38.516321374,0
                146.092233348,38.442424004,0
                146.058989018,38.3658378800001,0
                146.037295972,38.317135594,0
                146.014707294,38.267378175,0
                145.988626279,38.211032603,0
                145.961401647,38.153365539,0
                145.936556642,38.101673942,0
                145.910797054,38.0489443170001,0
                145.874871863,37.976750689,0
                145.837242078,37.902657794,0
                145.804448033,37.8392426250001,0
                145.770413326,37.7744700750001,0
                145.742433094,37.721956381,0
                145.713641937,37.668567882,0
                145.679727205,37.6064668610001,0
                145.644721424,37.5432037530001,0
                145.61948561,37.4980917450001,0
                145.593697908,37.4523983920001,0
                145.546599596,37.3699405990001,0
                145.501607381,37.292292398,0
                145.473316551,37.243992635,0
                145.444442161,37.1950922390001,0
                145.399727368,37.1201138220001,0
                145.350233339,37.0381198800001,0
                145.319505861,36.987712754,0
                145.28818869,36.936710777,0
                145.255953133,36.8845898970001,0
                145.223104687,36.8318552920001,0
                145.194194822,36.7857465760001,0
                145.16481854,36.7391739230001,0
                145.126042269,36.6479376790001,0
                145.089266531,36.5614084650001,0
                145.049919462,36.468829198,0
                145.007452418,36.3689089760001,0
                145.009148944,36.269714551,0
                145.008548444,36.2154441170001,0
                145.006750816,36.150879365,0
                145.004460915,36.097769962,0
                145.001131925,36.0392292600001,0
                144.996626312,35.9761055750001,0
                144.992046797,35.9222668690001,0
                144.98652427,35.8658184760001,0
                144.979287901,35.8011069390001,0
                144.966743546,35.7049655710001,0
                144.956393056,35.635895917,0
                144.939739277,35.537852349,0
                144.928892094,35.480428821,0
                144.916994912,35.421952854,0
                144.901658165,35.352228939,0
                144.884739941,35.281328054,0
                144.867058122,35.2127304150001,0
                144.847802581,35.143318347,0
                144.828140791,35.0772194460001,0
                144.806965526,35.0106125900001,0
                144.786775212,34.9509136020001,0
                144.765300158,34.8909690350001,0
                144.744144314,34.8350734960001,0
                144.72181249,34.779089701,0
                144.69827349,34.7230778650001,0
                144.673495767,34.6670973490001,0
                144.632121853,34.579620838,0
                144.597918174,34.5122810490001,0
                144.554470219,34.4323865760001,0
                144.521324923,34.3752088730001,0
                144.486619119,34.3184725020001,0
                144.442489677,34.2505114460001,0
                144.3959606,34.183415757,0
                144.351202628,34.1228469660001,0
                144.304331993,34.063196326,0
                144.268290305,34.0197368340001,0
                144.205196897,33.9482563020001,0
                144.16949843,33.910204675,0
                144.129006385,33.8689776050001,0
                144.087239969,33.8284755390001,0
                144.023991604,33.770774472,0
                143.956739173,33.7138414720001,0
                143.905404284,33.673207592,0
                143.836029089,33.6218800250001,0
                143.846956539,33.5534284130001,0
                143.853324756,33.5094423730001,0
                143.86184901,33.4452283300001,0
                143.869647487,33.379375221,0
                143.876006883,33.318094591,0
                143.882268329,33.2461624590001,0
                143.886621794,33.1820220280001,0
                143.889663425,33.117098281,0
                143.890940128,33.065224883,0
                143.891009724,33.0140244140001,0
                143.889536225,32.959966954,0
                143.886251528,32.9079731950001,0
                143.877178494,32.8334918030001,0
                143.861895471,32.765601024,0
                143.847785029,32.692174101,0
                143.743311403,32.651842474,0
                143.683660627,32.6243173080001,0
                143.611315143,32.5933230360001,0
                143.537914831,32.563433645,0
                143.497829324,32.547610822,0
                143.455591568,32.531119474,0
                143.414751295,32.5154731590001,0
                143.372158687,32.499289579,0
                143.341007795,32.487606607,0
                143.309013521,32.4756674430001,0
                143.271105961,32.4616638850001,0
                143.232115743,32.4473354890001,0
                143.183345168,32.429576201,0
                143.133029885,32.411402583,0
                143.100634851,32.3997824460001,0
                143.067658725,32.3879905000001,0
                143.034100004,32.376058986,0
                142.999978015,32.3639617320001,0
                142.950840892,32.346636366,0
                142.900614232,32.329021475,0
                142.867357316,32.3174129120001,0
                142.833660636,32.3056763870001,0
                142.799523889,32.293835046,0
                142.764961444,32.2818698230001,0
                142.72069874,32.2666127110001,0
                142.675781994,32.2511661790001,0
                142.63692752,32.2378598720001,0
                142.59761547,32.224421702,0
                142.557847204,32.2108760840001,0
                142.517638822,32.1972042250001,0
                142.47403115,32.1824278670001,0
                142.429938121,32.167512974,0
                142.385362891,32.152485561,0
                142.340323873,32.137326467,0
                142.293479413,32.1216097180001,0
                142.246166516,32.1057612560001,0
                142.198391713,32.089800467,0
                142.150168663,32.073725473,0
                142.101620178,32.0575765790001,0
                142.052649094,32.0413208420001,0
                142.009471465,32.0270191550001,0
                141.965989698,32.012633555,0
                141.922207017,31.9981804550001,0
                141.878135996,31.9836479690001,0
                141.846008032,31.973073131,0
                141.813735644,31.962458768,0
                141.781319486,31.9518129160001,0
                141.748764885,31.941129382,0
                141.707022664,31.927452977,0
                141.665066086,31.9137186200001,0
                141.622897818,31.899939089,0
                141.580527629,31.8861054180001,0
                141.54595634,31.8748352100001,0
                141.511259202,31.863531542,0
                141.476437362,31.8522021650001,0
                141.441496346,31.8408413650001,0
                141.404610188,31.828863669,0
                141.367599657,31.816853667,0
                141.31521048,31.7998757300001,0
                141.262590557,31.782845761,0
                141.206677188,31.7647741390001,0
                141.150530715,31.7466515690001,0
                141.105670149,31.7321910950001,0
                141.060677878,31.7176985680001,0
                141.006294691,31.700203188,0
                140.951739321,31.682673187,0
                140.902877651,31.6669899240001,0
                140.853895912,31.651284047,0
                140.802190796,31.634721826,0
                140.750371078,31.618139903,0
                140.714819988,31.6067746900001,0
                140.679223379,31.5954001870001,0
                140.643582883,31.58402176,0
                140.607903,31.57263577,0
                140.575944452,31.5624457060001,0
                140.543958994,31.552250977,0
                140.511947694,31.5420557460001,0
                140.479913852,31.531857159,0
                140.445261637,31.520833458,0
                140.410588394,31.5098074260001,0
                140.375895644,31.4987838010001,0
                140.341187387,31.4877594980001,0
                140.309760751,31.477784769,0
                140.278325721,31.467810775,0
                140.246883386,31.457841145,0
                140.215436727,31.44787354,0
                140.162095001,31.430978462,0
                140.108755444,31.4140979690001,0
                140.068484492,31.4013635910001,0
                140.028225499,31.3886382160001,0
                139.988175668,31.3759888880001,0
                139.948146212,31.3633509040001,0
                139.908139984,31.350729931,0
                139.868162611,31.33812283,0
                139.824802654,31.3244596430001,0
                139.781487117,31.3108159020001,0
                139.738219887,31.2971981050001,0
                139.695007923,31.2836029790001,0
                139.65832337,31.2720696530001,0
                139.621686,31.260554864,0
                139.585098109,31.2490628910001,0
                139.54856404,31.237591508,0
                139.497378206,31.221529779,0
                139.446313258,31.205516287,0
                139.390967028,31.188171675,0
                139.335786319,31.170890619,0
                139.296115703,31.158474938,0
                139.256542237,31.1460936560001,0
                139.217069294,31.1337514740001,0
                139.17770239,31.121446237,0
                139.140274685,31.1097541020001,0
                139.102951218,31.098097871,0
                139.06573489,31.0864816870001,0
                139.028630481,31.07490368,0
                138.981419346,31.06018126,0
                138.934404944,31.045525302,0
                138.887593858,31.0309427010001,0
                138.840995462,31.016431391,0
                138.776598481,30.9963910000001,0
                138.712648014,30.9765031680001,0
                138.653449257,30.9581049980001,0
                138.594674697,30.9398498840001,0
                138.550799119,30.926230456,0
                138.507180807,30.9126951310001,0
                138.440037312,30.8918727560001,0
                138.373557144,30.8712699490001,0
                138.330643598,30.8579787520001,0
                138.288031019,30.844784684,0
                138.21537499,30.822302505,0
                138.143671565,30.800130735,0
                138.096684714,30.785611101,0
                138.050145449,30.771234201,0
                138.006509877,30.757762008,0
                137.963295164,30.744423533,0
                137.884973741,30.72026478,0
                137.828593701,30.7028851160001,0
                137.773047958,30.6857717080001,0
                137.729612979,30.6723967,0
                137.686729441,30.659195169,0
                137.640536606,30.6449827650001,0
                137.595030654,30.6309858340001,0
                137.520009159,30.6079251260001,0
                137.44704885,30.5855137400001,0
                137.378548998,30.564486668,0
                137.323399599,30.5475677630001,0
                137.264153444,30.529402099,0
                137.223020755,30.516797237,0
                137.182830987,30.50448469,0
                137.13865639,30.490958876,0
                137.095730425,30.4778192220001,0
                137.054318667,30.4651503380001,0
                137.014192316,30.452878148,0
                136.974016423,30.440597735,0
                136.935275172,30.4287591900001,0
                136.892179896,30.4155980300001,0
                136.851096729,30.4030553360001,0
                136.80012778,30.3875056460001,0
                136.752828033,30.3730811360001,0
                136.720446172,30.3632127020001,0
                136.690143432,30.3539805570001,0
                136.635935306,30.3374765990001,0
                136.578903679,30.320131019,0
                136.537302122,30.3074871360001,0
                136.503181307,30.2971305820001,0
                136.413189821,30.2800637490001,0
                136.317389529,30.2675265940001,0
                136.235600692,30.2601653500001,0
                136.169836949,30.2560149720001,0
                136.095343566,30.25291265,0
                136.039932367,30.251571514,0
                135.97118201,30.250931522,0
                135.913079535,30.251202118,0
                135.841733453,30.252479554,0
                135.754565789,30.255387613,0
                135.688259151,30.258594068,0
                135.611494175,30.263581731,0
                135.548342959,30.247722224,0
                135.476422661,30.2296604910001,0
                135.419090598,30.188851835,0
                135.35016248,30.145207574,0
                135.267415397,30.0989429430001,0
                135.192406792,30.062469112,0
                135.102845444,30.025802587,0
                135.02893134,30.0014608020001,0
                134.945678439,29.980951872,0
                134.896135537,29.972506116,0
                134.845981883,29.9670548570001,0
                134.720053402,30.0081827130001,0
                134.628790416,30.037988925,0
                134.527086422,30.071205138,0
                134.389739679,30.116062164,0
                134.220594557,30.1713044420001,0
                134.106994831,30.2084057640001,0
                133.976970603,30.250871279,0
                133.825931848,30.300200074,0
                133.749609762,30.325126633,0
                133.640080142,30.360898671,0
                133.53681104,30.3946260440001,0
                133.431228344,30.4291090290001,0
                133.303197509,30.4709235080001,0
                133.173908852,30.513148786,0
                133.017636302,30.564186922,0
                132.84754446,30.619738398,0
                132.703126083,30.666904996,0
                132.526737598,30.7245129350001,0
                132.44869134,30.750002604,0
                132.279708965,30.80519173,0
                132.109156787,30.8608935500001,0
                132.030407633,30.8866127810001,0
                131.927916593,30.920086042,0
                131.7880671,30.965760457,0
                131.672284198,31.003574798,0
                131.492650252,31.0622426950001,0
                131.396656212,31.0935940540001,0
                131.268025749,31.1356043690001,0
                131.112042816,31.1066304770001,0
                130.981623654,31.0824050640001,0
                130.84511567,31.0570486510001,0
                130.702005072,31.0304657990001,0
                130.591430215,31.009926475,0
                130.435273818,30.98092036,0
                130.265955034,30.9494693280001,0
                130.111017065,30.920689537,0
                129.859885781,30.8740418,0
                129.641842401,30.8335401530001,0
                129.390631792,30.7868776810001,0
                129.264457505,30.7634407560001,0
                129.153803905,30.7428868050001,0
                129.009632615,30.71610693,0
                128.881651529,30.692334391,0
                128.76805109,30.671233064,0
                128.607453816,30.6414020550001,0
                128.382415971,30.5996011840001,0
                128.16782691,30.5597411790001,0
                127.960826319,30.521290736,0
                127.802783216,30.491934164,0
                127.655900259,30.4646505960001,0
                127.463122097,30.4288419740001,0
                127.322210899,30.4026676620001,0
                127.043810999,30.3509547680001,0
                126.836376155,30.3124236620001,0
                126.717195454,30.2902857980001,0
                126.538995615,30.2571851060001,0
                126.370815671,30.2259456130001,0
                126.190831908,30.1925135560001,0
                126.155774439,30.3051040660001,0
                126.136152009,30.3681234310001,0
                126.100424771,30.482864969,0
                126.061694259,30.60725182,0
                126.02451928,30.7266429220001,0
                125.99248122,30.8295363030001,0
                125.949583214,30.9673074670001,0
                126.013721972,31.064253057,0
                126.057914416,31.131049837,0
                126.109079357,31.2083855320001,0
                126.147390155,31.2662922150001,0
                126.196441824,31.3404337040001,0
                126.255211534,31.429263989,0
                126.293470663,31.487092578,0
                126.358702242,31.585689963,0
                126.427155698,31.6891572100001,0
                126.484834517,31.776338615,0
                126.544661242,31.8667665770001,0
                126.593184177,31.9401088830001,0
                126.644929647,32.018322046,0
                126.689121804,32.085118392,0
                126.746800413,32.172299481,0
                126.7861508,32.2317775020001,0
                126.873813141,32.3642789370001,0
                126.960784601,32.4593343380001,0
                127.044769686,32.551125783,0
                127.134012498,32.6486636590001,0
                127.221340736,32.7441090020001,0
                127.271300275,32.7867297220001,0
                127.33755756,32.8432541270001,0
                127.395130144,32.8923695720001,0
                127.455568984,32.943930234,0
                127.528251169,33.005935752,0
                127.579398822,33.0495700560001,0
                127.659636121,33.118020878,0
                127.707286661,33.1586717800001,0
                127.763774946,33.2428609670001,0
                127.800783051,33.298017223,0
                127.838353029,33.354010885,0
                127.865580773,33.3945906550001,0
                127.880791445,33.4624019870001,0
                127.942347678,33.524124607,0
                128.010940698,33.5929030340001,0
                128.121740869,33.7040026980001,0
                128.197368312,33.7798345620001,0
                128.264199506,33.8468464000001,0
                128.360209717,33.9431161270001,0
                128.438938285,34.0220130910001,0
                128.520826122,34.1211506670001,0
                128.581726563,34.194879836,0
                128.633152186,34.2571383060001,0
                128.690183966,34.3261838760001,0
                128.793459149,34.3989634160001,0
                128.866321939,34.450310895,0
                128.939821976,34.560816559,0
                129.001213028,34.653116632,0
                129.025479873,34.748698921,0
                129.053594561,34.859437095,0
                129.15220514,34.94236807,0
                129.210573782,34.991455789,0
                129.291656626,35.059646032,0
                129.37981187,35.133784125,0
                129.491755787,35.179212664,0
                129.608735961,35.2266849920001,0
                129.694926677,35.261662491,0
                129.811597881,35.273413766,0
                129.94799497,35.2871518580001,0
                130.12026241,35.304502858,0
                130.205695341,35.3131077740001,0
                130.278484337,35.320439177,0
                130.378105936,35.46273333,0
                130.452748886,35.5693493200001,0
                130.520923381,35.6667261160001,0
                130.587544593,35.761884283,0
                130.667911771,35.832588118,0
                130.744783755,35.900217022,0
                130.871916877,36.0120636670001,0
                130.952763792,36.083189556,0
                131.038601822,36.1587064280001,0
                131.122937388,36.2329014920001,0
                131.173926987,36.2777601060001,0
                131.219197441,36.317587243,0
                131.262449031,36.3556382670001,0
                131.182287682,36.389542529,0
                131.109436412,36.4203549910001,0
                131.041976957,36.4488869830001,0
                131.024495656,36.527886268,0
                131.000726481,36.635300913,0
                130.980748072,36.7255848120001,0
                130.962092721,36.809889705,0
                130.943853263,36.8923151590001,0
                130.929984304,36.954990003,0
                130.915372281,37.021022804,0
                130.895482774,37.1109049450001,0
                130.872367756,37.215363412,0
                130.857012599,37.284754492,0
                130.830434005,37.404865106,0
                130.798345063,37.549877393,0
                130.779670179,37.634270562,0
                130.765474071,37.698423813,0
                130.747561768,37.7793708290001,0
                130.725769805,37.8778503080001,0
                130.703071093,37.9804274520001,0
                130.684251815,38.0654731490001,0
                130.661137215,38.169929724,0
                130.636535969,38.281104558,0
                130.625476293,38.3310840440001,0
                130.596340828,38.462749348,0
                130.570832723,38.5780223470001,0
                130.548713477,38.677980844,0
                130.534265077,38.743274226,0
                130.503643131,38.881657041,0
                130.484408085,38.968581628,0
                130.465425398,39.0543657850001,0
                130.435294282,39.190530509,0
                130.419284452,39.2628801060001,0
                130.406460374,39.3208330520001,0
                130.478093263,39.338970266,0
                130.579980364,39.3647677490001,0
                130.729030543,39.4025067690001,0
                130.840850886,39.4308193160001,0
                130.971676272,39.4639438780001,0
                131.095907087,39.4953987160001,0
                131.232546556,39.5299953850001,0
                131.37002046,39.5648033300001,0
                131.471074198,39.5903898080001,0
                131.587012878,39.619745105,0
                131.702118246,39.648889409,0
                131.848718193,39.6860080390001,0
                132.018467618,39.728988041,0
                132.122832394,39.7554128630001,0
                132.221354926,39.780358447,0
                132.326554187,39.806994558,0
                132.420123025,39.8306858830001,0
                132.561339567,39.866441453,0
                132.667109214,39.9038770240001,0
                132.791065127,39.94774935,0
                132.865842797,39.974215778,0
                132.965670776,40.0095483860001,0
                133.051687111,40.03999257,0
                133.137016154,40.070193499,0
                133.210942949,40.0639296800001,0
                133.291971463,40.057064133,0
                133.454628287,40.04328222,0
                133.58171619,40.032514061,0
                133.68432562,40.0238199630001,0
                133.792428288,40.0146604230001,0
                133.880450723,40.007202281,0
                134.003439612,39.996781432,0
                134.07133673,40.025286841,0
                134.171521973,40.0673478510001,0
                134.273449291,40.1101402410001,0
                134.389867473,40.159016364,0
                134.523773388,40.215234406,0
                134.67265785,40.277740926,0
                134.824816617,40.3416221040001,0
                134.890515924,40.3692048010001,0
                134.991188885,40.411470572,0
                135.113599168,40.4628623740001,0
                135.226533585,40.5102759000001,0
                135.342185935,40.558830503,0
                135.475603589,40.614843556,0
                135.63396422,40.6813284790001,0
                135.778877334,40.7421676980001,0
                135.903135073,40.7943351210001,0
                135.93507171,40.8567333070001,0
                135.970991598,40.9269140160001,0
                136.013280315,41.009538218,0
                136.053446102,41.0880146150001,0
                136.102253814,41.183375708,0
                136.146045428,41.2689362890001,0
                136.19342546,41.3615079640001,0
                136.23510354,41.4429390970001,0
                136.312278783,41.5527231080001,0
                136.406892995,41.687314558,0
                136.479227086,41.7902118920001,0
                136.557583485,41.901676132,0
                136.673047007,42.065926328,0
                136.778952254,42.2165795990001,0
                136.880679382,42.361289378,0
                136.975594655,42.496309094,0
                137.068364866,42.6282773990001,0
                137.149844371,42.744184348,0
                137.230834563,42.8593952350001,0
                137.321760746,42.988740357,0
                137.425143757,43.1358056760001,0
                137.490364937,43.2285846890001,0
                137.593748308,43.375650519,0
                137.649964206,43.4556192590001,0
                137.729861706,43.527895202,0
                137.789079251,43.5814638860001,0
                137.859740783,43.645384897,0
                137.918069633,43.698149662,0
                137.995659637,43.786962116,0
                138.084169757,43.88827415,0
                138.163520517,43.9791020330001,0
                138.243746944,44.0709322370001,0
                138.309800588,44.1465397380001,0
                138.407686973,44.2585841980001,0
                138.480931447,44.342422594,0
                138.525961153,44.393965301,0
                138.610634375,44.4602175100001,0
                138.689198308,44.5216895300001,0
                138.747124507,44.5670136430001,0
                138.814007316,44.6193458160001,0
                138.867080279,44.6608725350001,0
                138.919616626,44.7019793800001,0
                138.965112694,44.737577587,0
                139.019334573,44.7800032690001,0
                139.051847058,44.821481385,0
                139.081567344,44.8710547330001,0
                139.103093742,44.9147572890001,0
                139.122959946,44.96158568,0
                139.149829276,45.0361685330001,0
                139.173405091,45.1140364120001,0
                139.190740053,45.180175617,0
                139.208552114,45.257754597,0
                139.218679394,45.307214324,0
                139.229559509,45.3658785630001,0
                139.246147804,45.4729484420001,0
                139.303995287,45.5891976780001,0
                139.346102901,45.673816361,0
                139.393467893,45.769000179,0
                139.450313048,45.883235153,0
                139.512781182,46.0087699630001,0
                139.604917943,46.1431426500001,0
                139.672933175,46.2423363840001,0
                139.712956442,46.3007065050001,0
                139.873685414,46.429005837,0
                140.071027591,46.5865310730001,0
                140.179359651,46.6730054070001,0
                140.308987217,46.776478538,0
                140.477917015,46.9113240460001,0
                140.585592423,46.9972742190001,0
                140.684292062,47.0760596270001,0
                140.839044273,47.199588104,0
                140.953836722,47.291219341,0
                141.092496623,47.401902389,0
                141.289838598,47.5594274630001,0
                141.480720898,47.711796206,0
                141.623868228,47.8260612730001,0
                141.761871018,47.936219792,0
                141.85088065,48.007270308,0
                141.919647639,48.062162437,0
                142.030244234,48.024941944,0
                142.103093374,48.0004250700001,0
                142.120305707,47.9830550720001,0
                142.195607617,47.9070633540001,0
                142.266151454,47.8155587370001,0
                142.302919049,47.7696999440001,0
                142.35079957,47.7099802750001,0
                142.407246701,47.625505307,0
                142.444919973,47.5066488150001,0
                142.449657292,47.4917028770001,0
                142.464730114,47.479671029,0
                142.520163542,47.4354213610001,0
                142.537019131,47.4101963680001,0
                142.590722447,47.329827193,0
                142.640155081,47.217166455,0
                142.640260457,47.1185419780001,0
                142.675611399,46.9988211340001,0
                142.675686658,46.928375653,0
                142.696404563,46.7682828530001,0
                142.71070111,46.6578096750001,0
                142.730050958,46.5082881330001,0
                142.7442613,46.3984808440001,0
                142.751507997,46.342483884,0
                142.760489349,46.273082673,0
                142.766962741,46.223060977,0
                142.771423154,46.188594009,0
                142.775700656,46.1555407860001,0
                142.788668895,46.0553319300001,0
                142.811868331,45.876063566,0
                142.843816947,45.8511695,0
                142.916007748,45.794919007,0
                142.983826045,45.7420763150001,0
                143.017511406,45.7158292060001,0
                143.138962112,45.663029109,0
                143.32790404,45.5808876880001,0
                143.445551218,45.5297410690001,0
                143.611703041,45.45750753,0
                143.769485546,45.440571993,0
                143.915408603,45.424909357,0
                143.958635181,45.420269594,0
                144.022026003,45.4134656430001,0
                144.132681853,45.401588502,0
                144.20969058,45.3933227800001,0
              </coordinates>
            </LinearRing>
          </outerBoundaryIs>
        </Polygon>
      </Placemark>
    </Document>
  </Document>
</kml>
