<?xml version="1.0" encoding="UTF-8"?>
<kml xmlns="http://www.opengis.net/kml/2.2">
  <Document id="root_doc">
    <Schema id="Bioregions_PA48.schema">
      <SimpleField name="OBJECTID" type="float"/>
      <SimpleField name="Shape_Leng" type="float"/>
      <SimpleField name="Shape_Area" type="float"/>
      <SimpleField name="Bioregions" type="string"/>
    </Schema>
    <Document id="Bioregions_PA48">
      <name>Bioregions_PA48</name>
      <Placemark id="Bioregions_PA48.1">
        <ExtendedData>
          <SchemaData schemaUrl="#Bioregions_PA48.schema">
            <SimpleData name="OBJECTID">122</SimpleData>
            <SimpleData name="Shape_Leng">39.01817782230</SimpleData>
            <SimpleData name="Shape_Area">44.70427292880</SimpleData>
            <SimpleData name="Bioregions">PA48</SimpleData>
          </SchemaData>
        </ExtendedData>
        <Polygon>
          <outerBoundaryIs>
            <LinearRing>
              <coordinates>
                128.785200017,40.5927592310001,0
                128.84205399,40.539987701,0
                128.918783884,40.480191468,0
                128.984329158,40.4291115020001,0
                129.051940711,40.3764212670001,0
                129.140527079,40.3073851880001,0
                129.194368535,40.265426103,0
                129.259705282,40.214508644,0
                129.301100004,40.1822494,0
                129.373966289,40.1254641090001,0
                129.472416774,40.0487408440001,0
                129.536997266,39.99841274,0
                129.609112382,39.942212843,0
                129.694634996,39.875564372,0
                129.769207679,39.817449272,0
                129.865949635,39.7420574770001,0
                129.911245215,39.7067582620001,0
                129.989716115,39.6456052510001,0
                130.028715403,39.6152127870001,0
                130.102536835,39.5576831440001,0
                130.173691105,39.5022320410001,0
                130.241698674,39.4492331880001,0
                130.325987547,39.383546182,0
                130.406460374,39.3208330520001,0
                130.419284452,39.2628801060001,0
                130.435294282,39.190530509,0
                130.465425398,39.0543657850001,0
                130.484408085,38.968581628,0
                130.503643131,38.881657041,0
                130.534265077,38.743274226,0
                130.548713477,38.677980844,0
                130.570832723,38.5780223470001,0
                130.596340828,38.462749348,0
                130.625476293,38.3310840440001,0
                130.636535969,38.281104558,0
                130.661137215,38.169929724,0
                130.684251815,38.0654731490001,0
                130.703071093,37.9804274520001,0
                130.725769805,37.8778503080001,0
                130.747561768,37.7793708290001,0
                130.765474071,37.698423813,0
                130.779670179,37.634270562,0
                130.798345063,37.549877393,0
                130.830434005,37.404865106,0
                130.857012599,37.284754492,0
                130.872367756,37.215363412,0
                130.895482774,37.1109049450001,0
                130.915372281,37.021022804,0
                130.929984304,36.954990003,0
                130.943853263,36.8923151590001,0
                130.962092721,36.809889705,0
                130.980748072,36.7255848120001,0
                131.000726481,36.635300913,0
                131.024495656,36.527886268,0
                131.041976957,36.4488869830001,0
                131.109436412,36.4203549910001,0
                131.182287682,36.389542529,0
                131.262449031,36.3556382670001,0
                131.219197441,36.317587243,0
                131.173926987,36.2777601060001,0
                131.122937388,36.2329014920001,0
                131.038601822,36.1587064280001,0
                130.952763792,36.083189556,0
                130.871916877,36.0120636670001,0
                130.744783755,35.900217022,0
                130.667911771,35.832588118,0
                130.587544593,35.761884283,0
                130.520923381,35.6667261160001,0
                130.452748886,35.5693493200001,0
                130.378105936,35.46273333,0
                130.278484337,35.320439177,0
                130.205695341,35.3131077740001,0
                130.12026241,35.304502858,0
                129.94799497,35.2871518580001,0
                129.811597881,35.273413766,0
                129.694926677,35.261662491,0
                129.608735961,35.2266849920001,0
                129.491755787,35.179212664,0
                129.37981187,35.133784125,0
                129.291656626,35.059646032,0
                129.210573782,34.991455789,0
                129.15220514,34.94236807,0
                129.053594561,34.859437095,0
                129.025479873,34.748698921,0
                129.001213028,34.653116632,0
                128.939821976,34.560816559,0
                128.866321939,34.450310895,0
                128.793459149,34.3989634160001,0
                128.690183966,34.3261838760001,0
                128.633152186,34.2571383060001,0
                128.581726563,34.194879836,0
                128.520826122,34.1211506670001,0
                128.438938285,34.0220130910001,0
                128.360209717,33.9431161270001,0
                128.264199506,33.8468464000001,0
                128.197368312,33.7798345620001,0
                128.121740869,33.7040026980001,0
                128.010940698,33.5929030340001,0
                127.942347678,33.524124607,0
                127.880791445,33.4624019870001,0
                127.865580773,33.3945906550001,0
                127.838353029,33.354010885,0
                127.800783051,33.298017223,0
                127.763774946,33.2428609670001,0
                127.707286661,33.1586717800001,0
                127.659636121,33.118020878,0
                127.579398822,33.0495700560001,0
                127.528251169,33.005935752,0
                127.455568984,32.943930234,0
                127.395130144,32.8923695720001,0
                127.33755756,32.8432541270001,0
                127.271300275,32.7867297220001,0
                127.221340736,32.7441090020001,0
                127.134012498,32.6486636590001,0
                127.044769686,32.551125783,0
                126.960784601,32.4593343380001,0
                126.873813141,32.3642789370001,0
                126.7861508,32.2317775020001,0
                126.746800413,32.172299481,0
                126.689121804,32.085118392,0
                126.644929647,32.018322046,0
                126.593184177,31.9401088830001,0
                126.544661242,31.8667665770001,0
                126.484834517,31.776338615,0
                126.427155698,31.6891572100001,0
                126.358702242,31.585689963,0
                126.293470663,31.487092578,0
                126.255211534,31.429263989,0
                126.196441824,31.3404337040001,0
                126.147390155,31.2662922150001,0
                126.109079357,31.2083855320001,0
                126.057914416,31.131049837,0
                126.013721972,31.064253057,0
                125.949583214,30.9673074670001,0
                125.853753069,31.0576299100001,0
                125.777556019,31.129447643,0
                125.686591627,31.2151839850001,0
                125.6053949,31.291714046,0
                125.491199705,31.3993460340001,0
                125.373387083,31.5103875410001,0
                125.300401621,31.5791782680001,0
                125.197289607,31.676364064,0
                125.122956146,31.7464253150001,0
                125.028333057,31.8356100770001,0
                124.941575491,31.917381375,0
                124.827383971,32.0250098980001,0
                124.735144815,32.1119477390001,0
                124.608111285,32.2316801960001,0
                124.501170077,32.3324751100001,0
                124.390501173,32.436783475,0
                124.294473023,32.527292544,0
                124.199784041,32.5848560220001,0
                124.101427941,32.64464882,0
                124.033208822,32.724663671,0
                123.994294442,32.7703067150001,0
                123.915759441,32.862421162,0
                123.817994544,32.9770905350001,0
                123.7614104,33.063054456,0
                123.7061573,33.1469962260001,0
                123.656169951,33.222938148,0
                123.609466255,33.293891468,0
                123.548702317,33.3862054300001,0
                123.507921233,33.448160984,0
                123.425298328,33.573683585,0
                123.372004442,33.697959365,0
                123.315860337,33.8288815560001,0
                123.271745878,33.931751868,0
                123.21287308,34.0690370880001,0
                123.176233643,34.1544764290001,0
                123.120848322,34.2836292120001,0
                123.080217983,34.4148603410001,0
                123.047283393,34.5212351210001,0
                123.006999294,34.651347937,0
                122.963262771,34.792611665,0
                122.930942224,34.8970031600001,0
                122.902481277,34.988928609,0
                123.05778888,35.1899925430001,0
                123.177436554,35.344890509,0
                123.334314591,35.5190836040001,0
                123.444302341,35.6412110040001,0
                123.612365576,35.7844861940001,0
                123.764460065,35.9141479080001,0
                123.907866294,36.0364028130001,0
                123.945061631,36.2763699180001,0
                123.964017982,36.3986675260001,0
                123.992070282,36.579647992,0
                124.01256512,36.711871203,0
                124.038202632,36.8772725640001,0
                123.951150517,37.054712834,0
                123.86524837,37.229809098,0
                123.799138371,37.440671841,0
                123.74449402,37.61496405,0
                123.685726413,37.7755459480001,0
                123.6228788,37.9472764220001,0
                123.539932631,38.1465133350001,0
                123.478795849,38.2933640420001,0
                123.546121748,38.358250093,0
                123.590314928,38.40084174,0
                123.642838965,38.451462341,0
                123.676379217,38.483787115,0
                123.718250563,38.524141071,0
                123.780004023,38.5836566240001,0
                123.823035705,38.6251288660001,0
                123.863485392,38.6641126820001,0
                123.898077468,38.7314669300001,0
                123.934815326,38.8029992310001,0
                123.963881968,38.8595949040001,0
                124.001724956,38.9332790060001,0
                124.028645719,38.9856964370001,0
                124.058097887,39.0430427690001,0
                124.126189907,39.05423547,0
                124.204210921,39.0670602600001,0
                124.264170447,39.076916173,0
                124.333579992,39.088325443,0
                124.427877688,39.103825731,0
                124.547900486,39.12355461,0
                124.633586138,39.137639284,0
                124.715912945,39.151171843,0
                124.812729574,39.167086183,0
                124.922357604,39.1851064100001,0
                125.030409918,39.202867629,0
                125.092154282,39.2130169260001,0
                125.172695083,39.226255909,0
                125.242945055,39.2378033250001,0
                125.320685588,39.2505820110001,0
                125.38584816,39.250651625,0
                125.45629042,39.254249187,0
                125.544340423,39.261387863,0
                125.628862482,39.2738062290001,0
                125.723964614,39.2739078290001,0
                125.790899625,39.263412422,0
                125.857842162,39.245872413,0
                125.944189341,39.19841354,0
                125.993556121,39.1473928550001,0
                126.062314372,39.0787813600001,0
                126.131063216,39.0189756180001,0
                126.198043383,38.966212597,0
                126.252669155,38.9380925130001,0
                126.312572735,38.9152615260001,0
                126.372466907,38.9012362920001,0
                126.41297337,38.9012795670001,0
                126.465826703,38.883724505,0
                126.494048387,38.8432481460001,0
                126.522277596,38.7957271830001,0
                126.55576768,38.7693456740001,0
                126.596276025,38.767627797,0
                126.620920844,38.7782210410001,0
                126.636731688,38.815222137,0
                126.636647021,38.8944739140001,0
                126.645401974,38.942034387,0
                126.677078225,38.9649632110001,0
                126.72110699,38.9650102480001,0
                126.759859828,38.9580070390001,0
                126.791584999,38.9351459490001,0
                126.819804801,38.896430739,0
                126.840993171,38.8453799500001,0
                126.870985413,38.7960997180001,0
                126.922081358,38.7750204750001,0
                126.95907869,38.7627319320001,0
                127.001344423,38.7645382380001,0
                127.050645351,38.7751578240001,0
                127.096410807,38.7981017000001,0
                127.14745407,38.8263346730001,0
                127.196754997,38.836954258,0
                127.247826484,38.838769971,0
                127.293657791,38.800073577,0
                127.325399894,38.7613621310001,0
                127.339551189,38.703259213,0
                127.339601989,38.655708147,0
                127.336130488,38.6081533190001,0
                127.323892745,38.52360492,0
                127.320462637,38.4373047780001,0
                127.339889857,38.3862521080001,0
                127.380411373,38.3722061770001,0
                127.442053525,38.3705108780001,0
                127.503688151,38.375860183,0
                127.547699982,38.391757575,0
                127.57406644,38.4393368630001,0
                127.568719018,38.4992103390001,0
                127.552806573,38.557311375,0
                127.533375591,38.6118863470001,0
                127.512194746,38.655892534,0
                127.489247107,38.705180291,0
                127.490951814,38.75801669,0
                127.527934095,38.759817352,0
                127.573727773,38.75634397,0
                127.614222947,38.766954147,0
                127.62121675,38.8145127390001,0
                127.607086152,38.8532430000001,0
                127.578877639,38.8813913060001,0
                127.548909856,38.9077765800001,0
                127.524227407,38.932406347,0
                127.496009487,38.969360405,0
                127.494218232,38.997536934,0
                127.520590335,39.03983277,0
                127.554040907,39.050435421,0
                127.613935079,39.0364101870001,0
                127.66857214,38.997723201,0
                127.695036436,38.9537226590001,0
                127.732045058,38.9308672120001,0
                127.772598559,38.8868817210001,0
                127.777947863,38.8252470950001,0
                127.756874263,38.7688676980001,0
                127.758701267,38.7072293090001,0
                127.781652668,38.654419251,0
                127.794016471,38.62097056,0
                127.816958466,38.5769662550001,0
                127.83112293,38.5065352830001,0
                127.829420106,38.4519377330001,0
                127.824185573,38.406142173,0
                127.824238254,38.3568299570001,0
                127.836607702,38.318097815,0
                127.880668451,38.288205292,0
                127.937027152,38.286504349,0
                127.97575365,38.304157247,0
                128.021505936,38.339429178,0
                128.074319757,38.3588582790001,0
                128.128906018,38.367722359,0
                128.176453321,38.3712954590001,0
                128.227536096,38.3625442700001,0
                128.276887823,38.325612789,0
                128.317435679,38.2869107510001,0
                128.354453709,38.2552495520001,0
                128.396775886,38.2042213400001,0
                128.437340676,38.149668945,0
                128.440926947,38.0897935890001,0
                128.414551081,38.051020054,0
                128.372300401,38.0351245420001,0
                128.333556969,38.0333219990001,0
                128.293035453,38.0473679290001,0
                128.256038121,38.059656472,0
                128.210219983,38.0860248130001,0
                128.159124038,38.107104056,0
                128.086892405,38.1299218730001,0
                128.03580963,38.1386730630001,0
                127.986503058,38.1333369290001,0
                127.947774679,38.1174451810001,0
                127.953101405,38.0769443620001,0
                127.97957699,38.022376916,0
                127.955853198,37.973919874,0
                127.903066658,37.92895409,0
                127.871411102,37.8866526090001,0
                127.831827548,37.8469843870001,0
                127.808094348,37.8073330990001,0
                127.808156437,37.749215129,0
                127.81349069,37.7016697080001,0
                127.850517186,37.6620833310001,0
                127.903365814,37.6489311460001,0
                127.956186221,37.6621962200001,0
                127.987861532,37.6860056200001,0
                128.022167279,37.720384746,0
                128.061762123,37.7494860640001,0
                128.109268033,37.7918044780001,0
                128.143551203,37.8473174100001,0
                128.188421031,37.8843495520001,0
                128.23198693,37.9055299250001,0
                128.274255956,37.9042542180001,0
                128.304649915,37.891078044,0
                128.350911162,37.862068449,0
                128.409078521,37.815900335,0
                128.447403302,37.797449176,0
                128.49628652,37.786934484,0
                128.531944174,37.792256036,0
                128.546436978,37.8266139940001,0
                128.546381944,37.8781276500001,0
                128.550303611,37.916436908,0
                128.574042454,37.950804745,0
                128.596498634,37.9628739550001,0
                128.649369743,37.9152218790001,0
                128.704919365,37.846596273,0
                128.760471808,37.7753289410001,0
                128.797513826,37.7212130710001,0
                128.827968463,37.6512397910001,0
                128.837293526,37.577281344,0
                128.828098286,37.5297204010001,0
                128.837403593,37.4742540350001,0
                128.844289668,37.442681771,0
                128.811041368,37.422712158,0
                128.735784636,37.392251877,0
                128.714697396,37.3486408210001,0
                128.706807497,37.315610781,0
                128.742504662,37.2839481710001,0
                128.787414002,37.2839961490001,0
                128.853435983,37.3038796490001,0
                128.906264856,37.3092195450001,0
                128.951160085,37.322476153,0
                128.997402988,37.310637775,0
                129.043634602,37.3093663010001,0
                129.07534378,37.30147499,0
                129.088590509,37.2658258020001,0
                129.171814752,37.256668662,0
                129.198216489,37.2712263770001,0
                129.215336907,37.3187957870001,0
                129.220586492,37.350502142,0
                129.220546981,37.387486304,0
                129.211248728,37.4363483560001,0
                129.188763014,37.4653833510001,0
                129.151723818,37.5168574950001,0
                129.126587911,37.5538148460001,0
                129.093526826,37.59076373,0
                129.04988896,37.6369473660001,0
                129.010215094,37.6818143730001,0
                128.959958801,37.741199583,0
                128.924250346,37.7834290970001,0
                128.880606836,37.834896185,0
                128.834314544,37.892964765,0
                128.791996129,37.940470675,0
                128.745715126,37.987972352,0
                128.70206597,38.044722892,0
                128.655782145,38.094866294,0
                128.610822005,38.142369382,0
                128.575109317,38.188561485,0
                128.546002354,38.2334397810001,0
                128.516895391,38.2783180770001,0
                128.487781372,38.3298006860001,0
                128.462641232,38.370720626,0
                128.419420606,38.438478828,0
                128.38763711,38.5159355870001,0
                128.348812773,38.5898625180001,0
                128.327592418,38.6708528680001,0
                128.30992823,38.72014627,0
                128.2746563,38.765898555,0
                128.234100918,38.811645196,0
                128.177691417,38.8608972060001,0
                128.133626904,38.894312029,0
                128.066654263,38.9400304480001,0
                128.010250407,38.983999005,0
                127.948568743,39.0226784660001,0
                127.89218182,39.050796667,0
                127.835789253,39.084198321,0
                127.793484009,39.119376177,0
                127.742374894,39.152783476,0
                127.705370035,39.172116621,0
                127.643729764,39.1720507680001,0
                127.575037366,39.1790219920001,0
                127.474634848,39.1947651030001,0
                127.404177536,39.2052567470001,0
                127.33547573,39.2210337240001,0
                127.28790773,39.2368332790001,0
                127.247371163,39.2649684140001,0
                127.20858822,39.3001500340001,0
                127.17506427,39.358232254,0
                127.143282655,39.4339278630001,0
                127.097434414,39.4884746130001,0
                127.039252474,39.5482916440001,0
                126.9757852,39.609864181,0
                126.958117249,39.6626798830001,0
                126.996779777,39.7402119020001,0
                127.044268754,39.7983806710001,0
                127.08647616,39.854782646,0
                127.144520751,39.9235296090001,0
                127.188494953,39.974650013,0
                127.23598393,40.032818782,0
                127.290532561,40.076905874,0
                127.352110742,40.135089695,0
                127.411929654,40.191510485,0
                127.480546794,40.254985284,0
                127.556240521,40.28852805,0
                127.667147852,40.3309141980001,0
                127.744608375,40.3591753920001,0
                127.855521351,40.3962780890001,0
                127.948824702,40.431600819,0
                128.031579965,40.449300755,0
                128.107292507,40.465232015,0
                128.209427952,40.475908045,0
                128.297459141,40.500658227,0
                128.369641855,40.523630326,0
                128.431257667,40.5465911360001,0
                128.496397661,40.5677945580001,0
                128.559772742,40.5925184000001,0
                128.651309298,40.633122701,0
                128.727031247,40.6402482070001,0
                128.785200017,40.5927592310001,0
              </coordinates>
            </LinearRing>
          </outerBoundaryIs>
        </Polygon>
      </Placemark>
    </Document>
  </Document>
</kml>
