<?xml version="1.0" encoding="UTF-8"?>
<kml xmlns="http://www.opengis.net/kml/2.2">
  <Document id="root_doc">
    <Schema id="Bioregions_PA49.schema">
      <SimpleField name="OBJECTID" type="float"/>
      <SimpleField name="Shape_Leng" type="float"/>
      <SimpleField name="Shape_Area" type="float"/>
      <SimpleField name="Bioregions" type="string"/>
    </Schema>
    <Document id="Bioregions_PA49">
      <name>Bioregions_PA49</name>
      <Placemark id="Bioregions_PA49.1">
        <ExtendedData>
          <SchemaData schemaUrl="#Bioregions_PA49.schema">
            <SimpleData name="OBJECTID">133</SimpleData>
            <SimpleData name="Shape_Leng">78.91546043220</SimpleData>
            <SimpleData name="Shape_Area">96.52705193620</SimpleData>
            <SimpleData name="Bioregions">PA49</SimpleData>
          </SchemaData>
        </ExtendedData>
        <MultiGeometry>
          <Polygon>
            <outerBoundaryIs>
              <LinearRing>
                <coordinates>
                  119.849697735,41.6927393050001,0
                  119.749379885,41.6292306390002,0
                  119.670071664,41.6819804900001,0
                  119.648887057,41.7295089780001,0
                  119.687575925,41.7823848880001,0
                  119.74740989,41.8247164730001,0
                  119.796628031,41.9128266840002,0
                  119.828261008,41.9762619730001,0
                  119.849308267,42.0572974770001,0
                  119.859805555,42.1224713380001,0
                  119.921421367,42.1454321480001,0
                  119.974233307,42.1666224000001,0
                  120.03934696,42.2124819300002,0
                  120.097416011,42.2583339350002,0
                  120.141393975,42.305932038,0
                  120.171260157,42.3746488970002,0
                  120.216141275,42.4011141330002,0
                  120.263683874,42.409090111,0
                  120.334937095,42.4778511840001,0
                  120.374506538,42.5307280350001,0
                  120.43784587,42.588913738,0
                  120.482718521,42.623304153,0
                  120.556706602,42.6048910950001,0
                  120.633367452,42.557421873,0
                  120.702105948,42.5073024600001,0
                  120.765583569,42.4360435950001,0
                  120.784132095,42.3832288330001,0
                  120.784194185,42.3251108630001,0
                  120.749911015,42.26959793,0
                  120.660151602,42.2140257310002,0
                  120.625834566,42.190213509,0
                  120.551922685,42.137299969,0
                  120.493863983,42.0817616350001,0
                  120.433163554,42.0262204800002,0
                  120.398863452,41.9865579030001,0
                  120.359313764,41.9151889710001,0
                  120.306527223,41.8702231860001,0
                  120.237901617,41.814673564,0
                  120.174539707,41.7776216690001,0
                  120.100582672,41.7669757430002,0
                  120.01868917,41.7668882530002,0
                  119.918351564,41.7218716680001,0
                  119.849697735,41.6927393050001,0
                </coordinates>
              </LinearRing>
            </outerBoundaryIs>
          </Polygon>
          <Polygon>
            <outerBoundaryIs>
              <LinearRing>
                <coordinates>
                  117.567210899,43.3722015890002,0
                  117.586636237,43.32291007,0
                  117.699342349,43.3300750870002,0
                  117.759225232,43.3266167570002,0
                  117.812084209,43.303778243,0
                  117.854395097,43.2633169360001,0
                  117.90904721,43.2105407440002,0
                  117.942565516,43.1577419750001,0
                  117.98840435,43.1120009780001,0
                  118.067703164,43.0680568810001,0
                  118.146996333,43.0293962350001,0
                  118.219235493,42.999533815,0
                  118.328451289,42.9767555100001,0
                  118.427090774,42.9627716690001,0
                  118.525722733,42.9558324310001,0
                  118.606743186,42.948874376,0
                  118.670169066,42.9260471520001,0
                  118.751206452,42.903238743,0
                  118.751294883,42.8204646660001,0
                  118.788361831,42.743013551,0
                  118.791917999,42.7113166030001,0
                  118.791966917,42.6655266880001,0
                  118.751479269,42.6478719080002,0
                  118.68632046,42.6442799910001,0
                  118.541876008,42.6723041190002,0
                  118.425640069,42.6721799400001,0
                  118.284725443,42.6931632280001,0
                  118.143818345,42.7071019140001,0
                  118.055760815,42.7070078400001,0
                  117.967725863,42.685779958,0
                  117.89027663,42.6469518590002,0
                  117.865665678,42.6046579040001,0
                  117.911493223,42.5694838110001,0
                  117.957294427,42.5589658260001,0
                  117.996051029,42.5484403150001,0
                  118.055937676,42.5414596840001,0
                  118.077150504,42.467513937,0
                  118.158193536,42.439422076,0
                  118.189894247,42.439455943,0
                  118.249777129,42.4359976120002,0
                  118.330790057,42.4360841610001,0
                  118.366046935,42.4044210800002,0
                  118.387237187,42.3516091400002,0
                  118.387331261,42.263551611,0
                  118.387410284,42.1895832860001,0
                  118.40859301,42.1438159480001,0
                  118.457927804,42.1227348230001,0
                  118.507240021,42.122787505,0
                  118.556507081,42.1651078000002,0
                  118.616299653,42.2461846980001,0
                  118.654977233,42.3096275120001,0
                  118.711281369,42.3589999370001,0
                  118.778193803,42.3696383360001,0
                  118.831069713,42.3309494690001,0
                  118.859315857,42.2675781510001,0
                  118.869931679,42.2217995240001,0
                  118.894625417,42.1866028540002,0
                  118.922852745,42.1408430420001,0
                  118.954617427,42.080997789,0
                  118.986397159,42.0070633310001,0
                  119.025213969,41.9401810010001,0
                  119.056963599,41.8944249520001,0
                  119.09573149,41.8733325380002,0
                  119.162655212,41.8734040350001,0
                  119.240159009,41.8611587660001,0
                  119.342305742,41.8612678930002,0
                  119.426812748,41.8877754630001,0
                  119.479669844,41.866698101,0
                  119.469185726,41.789196186,0
                  119.469283563,41.697616355,0
                  119.518693617,41.6060892060001,0
                  119.596267029,41.5286813660002,0
                  119.62804394,41.4573886340001,0
                  119.588480141,41.3992283310001,0
                  119.530362171,41.3991662410002,0
                  119.456393847,41.3990872190002,0
                  119.382439632,41.3857995670002,0
                  119.387855729,41.2616440950002,0
                  119.38528456,41.195598126,0
                  119.398558101,41.134852541,0
                  119.493668699,41.1270289640001,0
                  119.578203928,41.1271192760001,0
                  119.604660697,41.0901633360002,0
                  119.668067763,41.0849476180001,0
                  119.715584962,41.1166991290001,0
                  119.747234872,41.1642840610002,0
                  119.77623459,41.2197913490001,0
                  119.818454227,41.2647458450001,0
                  119.863318411,41.3070614370001,0
                  119.913491447,41.325607141,0
                  120.008571001,41.3468425480002,0
                  120.10099754,41.3786420370002,0
                  120.190776709,41.4157221560002,0
                  120.280553055,41.4554440000002,0
                  120.335972855,41.5083377850001,0
                  120.383481587,41.5480144730001,0
                  120.430998786,41.5797659840001,0
                  120.470565407,41.6352845610001,0
                  120.52600214,41.672327991,0
                  120.578768924,41.7357858570002,0
                  120.620991383,41.778098626,0
                  120.657921922,41.8283309290001,0
                  120.681624077,41.8970412030001,0
                  120.723849358,41.9367122460001,0
                  120.808364831,41.955294639,0
                  120.877049704,41.9553680170001,0
                  120.927225562,41.9712719950001,0
                  120.966795005,42.024148846,0
                  120.979918968,42.1034147340002,0
                  120.97984559,42.172099607,0
                  120.977116375,42.2539902870001,0
                  120.974387159,42.3358809680001,0
                  120.974310959,42.4072075660001,0
                  120.953123529,42.4573777800001,0
                  120.921383307,42.4943280750002,0
                  120.873781442,42.5418283410002,0
                  120.828824123,42.5866897030002,0
                  120.818206419,42.634229481,0
                  120.836653345,42.6765168500001,0
                  120.878867337,42.7267547980001,0
                  120.944848395,42.7849433230001,0
                  120.979154142,42.819322449,0
                  121.016101616,42.853704396,0
                  121.087374592,42.903973389,0
                  121.158650391,42.9516006540002,0
                  121.214106879,42.9701520030001,0
                  121.280127447,42.9913563660001,0
                  121.354095773,42.9914353890002,0
                  121.404288564,42.9914890110002,0
                  121.457125904,42.9889037300001,0
                  121.557511488,42.9890109750002,0
                  121.663177701,42.9917655900001,0
                  121.758279833,42.9918671900001,0
                  121.848098513,42.991963146,0
                  121.951128645,42.989431488,0
                  122.040938858,42.9974526210001,0
                  122.12811299,43.0001874800002,0
                  122.18623096,43.0002495700002,0
                  122.254907366,43.0082481250002,0
                  122.313025336,43.008310215,0
                  122.368518512,42.9925191270002,0
                  122.39760572,42.9661329120001,0
                  122.392370245,42.921217928,0
                  122.365981209,42.8947724470001,0
                  122.321088803,42.8788741130001,0
                  122.273565959,42.8524060540001,0
                  122.249818649,42.825963395,0
                  122.249858159,42.7889792330001,0
                  122.286879011,42.7546763070001,0
                  122.329157914,42.7441545600001,0
                  122.408443558,42.7125385160002,0
                  122.445461587,42.6808773170002,0
                  122.448151291,42.6359707990001,0
                  122.416487269,42.6015944960001,0
                  122.374236588,42.5856989850001,0
                  122.308201908,42.5777032510002,0
                  122.239511391,42.5829133250002,0
                  122.184018213,42.5987044130002,0
                  122.139080651,42.625073694,0
                  122.065112326,42.624994672,0
                  122.014981623,42.5668230790002,0
                  121.96743338,42.564130553,0
                  121.917209544,42.5931359160002,0
                  121.885483432,42.6168775820001,0
                  121.85902384,42.6564752480001,0
                  121.853686767,42.7066623960002,0
                  121.856291803,42.7410076540001,0
                  121.877386099,42.7780143940001,0
                  121.882635684,42.8097207500001,0
                  121.866754284,42.838762801,0
                  121.827119929,42.8466456450001,0
                  121.779577329,42.8386696670001,0
                  121.724126486,42.8148348670001,0
                  121.668667176,42.7989252450001,0
                  121.629046932,42.7935994590001,0
                  121.568309815,42.7724007410001,0
                  121.512847682,42.7591328450001,0
                  121.438910402,42.729994837,0
                  121.375531559,42.7087932970002,0
                  121.333300633,42.674405704,0
                  121.330701241,42.6347769930001,0
                  121.367719271,42.6031157940001,0
                  121.417912062,42.6031694170001,0
                  121.470740936,42.6085093140001,0
                  121.544712083,42.6059466100002,0
                  121.616041504,42.6033810840001,0
                  121.655706903,42.5664392560001,0
                  121.684830799,42.5057106050002,0
                  121.74561025,42.4872834350001,0
                  121.814314879,42.4688647320002,0
                  121.864550004,42.4292924660001,0
                  121.861956257,42.384380304,0
                  121.854076234,42.342104223,0
                  121.82504265,42.318297645,0
                  121.782797614,42.2971186830001,0
                  121.737899562,42.286503801,0
                  121.682423319,42.2864445340002,0
                  121.626932964,42.2995938970001,0
                  121.589917757,42.3286133700001,0
                  121.526482469,42.3602463470001,0
                  121.500042632,42.3813519320001,0
                  121.452500034,42.3733759540001,0
                  121.412908012,42.34163291,0
                  121.423517248,42.3020183110001,0
                  121.439435338,42.2386338220001,0
                  121.439483316,42.1937244820001,0
                  121.428984146,42.1303117720001,0
                  121.410593665,42.0351898850001,0
                  121.373685703,41.963823775,0
                  121.318277193,41.9003630870001,0
                  121.281335364,41.860697687,0
                  121.233835099,41.8130958210002,0
                  121.233911299,41.7417692220001,0
                  121.215470018,41.6941984000001,0
                  121.178536656,41.6466078230002,0
                  121.13633113,41.5884446980002,0
                  121.115248124,41.540871055,0
                  121.094196161,41.4642384250001,0
                  121.044048525,41.4219171890002,0
                  120.999181519,41.3822433220002,0
                  120.956947771,41.3504974570001,0
                  120.885649395,41.324003997,0
                  120.843426937,41.2816912270001,0
                  120.782698285,41.2525673310002,0
                  120.711374509,41.2498494050002,0
                  120.663829087,41.2445151530001,0
                  120.621632029,41.1784268500002,0
                  120.66393351,41.1467712950001,0
                  120.71942951,41.1283384810002,0
                  120.774928331,41.1072639410001,0
                  120.777618035,41.0623574230002,0
                  120.751234643,41.0306284900001,0
                  120.703714622,41.0015187050001,0
                  120.645647452,40.9539055500002,0
                  120.600800202,40.8957396020002,0
                  120.548005195,40.8586989960002,0
                  120.484620707,40.8427809070002,0
                  120.455587122,40.8189743290002,0
                  120.405428198,40.7872199960001,0
                  120.368452502,40.7792553070001,0
                  120.326179243,40.7844936030001,0
                  120.289183791,40.7950209960001,0
                  120.252168585,40.8240404690002,0
                  120.233634171,40.8636466020001,0
                  120.215094112,40.908536186,0
                  120.201837504,40.9534314150001,0
                  120.193864348,40.998332288,0
                  120.177977304,41.0326577910002,0
                  120.15680963,41.0643359240001,0
                  120.133008697,41.0880860570002,0
                  120.08544352,41.1012438860002,0
                  120.032617469,41.0932622640001,0
                  119.977200492,41.0377267530002,0
                  119.927030278,41.0165393240001,0
                  119.895366256,40.9821630200001,0
                  119.90598396,40.9346232430001,0
                  119.948310842,40.879192156,0
                  119.987993174,40.8263999710002,0
                  120.0144697,40.7709519500001,0
                  120.019829352,40.6996309950001,0
                  120.064766914,40.6732617150002,0
                  120.112343381,40.649536982,0
                  120.154636395,40.6258066040001,0
                  120.202218505,40.5967984210001,0
                  120.220772676,40.5387002060001,0
                  120.18646975,40.5016793550001,0
                  120.144213425,40.4910672960002,0
                  120.088731537,40.49629148,0
                  120.038538745,40.496237858,0
                  119.975151435,40.4829614950002,0
                  119.943512814,40.4248096590001,0
                  119.906562518,40.3930694370001,0
                  119.848489704,40.3507397330001,0
                  119.787746943,40.3348244670001,0
                  119.795753965,40.2582228820002,0
                  119.795818876,40.1974631880001,0
                  119.788315824,40.1404664060001,0
                  119.809056436,40.0864900150001,0
                  119.839330954,40.0077021130001,0
                  119.860832227,39.9517461390001,0
                  119.885587776,39.887321077,0
                  119.921849309,39.7929522710001,0
                  119.943687621,39.7361191680002,0
                  119.969745957,39.6683036700001,0
                  119.992262685,39.609705025,0
                  120.020220099,39.5369472710001,0
                  120.044979384,39.472512484,0
                  120.079884638,39.3816733260001,0
                  120.115598121,39.2887307980001,0
                  120.14287926,39.2177330120001,0
                  120.166488112,39.15629217,0
                  120.186011394,39.10548382,0
                  120.211522236,39.0390931410001,0
                  120.235603076,38.9764239740002,0
                  120.279959218,38.8609893640001,0
                  120.313772346,38.7729924060002,0
                  120.334181316,38.7198790960001,0
                  120.356021203,38.663041897,0
                  120.387519587,38.5810689460001,0
                  120.417939098,38.501903709,0
                  120.468921251,38.498430237,0
                  120.524319083,38.494655919,0
                  120.595129586,38.4898315180001,0
                  120.677002504,38.4842534230002,0
                  120.77293204,38.4777176340002,0
                  120.846370981,38.4727141550002,0
                  120.912103871,38.4682356980001,0
                  120.99959946,38.4622745230001,0
                  121.076032466,38.457067056,0
                  121.177038799,38.4501853790001,0
                  121.279946551,38.443174156,0
                  121.382489866,38.4361877630001,0
                  121.466992553,38.430430498,0
                  121.541523821,38.4253525980002,0
                  121.623214704,38.4197869050002,0
                  121.7022768,38.4144003140001,0
                  121.773268254,38.4095635860001,0
                  121.889868611,38.401619469,0
                  121.948259482,38.3976412330002,0
                  122.040468506,38.3913589270001,0
                  122.121977381,38.3858056340001,0
                  122.209290958,38.3798568610001,0
                  122.304129018,38.3733954350001,0
                  122.37077185,38.3688549830001,0
                  122.511036336,38.3592986030001,0
                  122.638154061,38.350637928,0
                  122.751396854,38.3429225670001,0
                  122.838528533,38.336986186,0
                  122.915142704,38.331766375,0
                  122.978792899,38.3274298140001,0
                  123.059938296,38.3219012860001,0
                  123.155503871,38.3153902940002,0
                  123.223865863,38.310732713,0
                  123.297851633,38.3056919780001,0
                  123.379906655,38.3001014760001,0
                  123.478795849,38.2933640420001,0
                  123.539932631,38.1465133350002,0
                  123.6228788,37.9472764220001,0
                  123.685726413,37.7755459480001,0
                  123.74449402,37.6149640500001,0
                  123.799138371,37.440671841,0
                  123.86524837,37.2298090980001,0
                  123.951150517,37.054712834,0
                  124.038202632,36.8772725640001,0
                  124.01256512,36.711871203,0
                  123.992070282,36.579647992,0
                  123.964017982,36.3986675260001,0
                  123.945061631,36.276369918,0
                  123.907866294,36.036402813,0
                  123.764460065,35.9141479080001,0
                  123.612365576,35.7844861940002,0
                  123.444302341,35.6412110040001,0
                  123.334314591,35.5190836040002,0
                  123.177436554,35.3448905090002,0
                  123.05778888,35.1899925430001,0
                  122.902481277,34.9889286090001,0
                  122.646830967,34.9750078870001,0
                  122.413907521,34.9623246940002,0
                  122.033851942,34.9416298320001,0
                  121.737336261,34.9254839010001,0
                  121.497013745,34.9123978120002,0
                  121.30221174,34.9017904150001,0
                  121.061889413,34.8887043360001,0
                  120.822317223,34.8756591030001,0
                  120.58199538,34.8625730510001,0
                  120.350572222,34.8499715510002,0
                  120.131322134,34.8380329020001,0
                  119.886226218,34.82468689,0
                  119.70874647,34.8150227280001,0
                  119.510092272,34.80420557,0
                  119.542805632,34.6971133160002,0
                  119.600968757,34.6549077910001,0
                  119.675007638,34.5889436670001,0
                  119.749052163,34.5176960900002,0
                  119.791376222,34.4649067280001,0
                  119.852237518,34.369869508,0
                  119.897228702,34.293307435,0
                  119.947508984,34.211467555,0
                  119.984591924,34.11904666,0
                  119.942352532,34.0925842460001,0
                  119.839353445,34.0660569200001,0
                  119.74428518,34.0342546090001,0
                  119.651889685,33.9733961350001,0
                  119.541007754,33.9072344540002,0
                  119.475021052,33.8543293800001,0
                  119.469844845,33.7539381520001,0
                  119.443495319,33.690508509,0
                  119.390711602,33.6429009980001,0
                  119.322054951,33.6164103610001,0
                  119.242828575,33.5925501610001,0
                  119.166218524,33.5924683170001,0
                  119.100206422,33.5633387760001,0
                  119.023681038,33.484005154,0
                  118.939219188,33.4152299700001,0
                  118.878510293,33.367613993,0
                  118.815122983,33.3543376300001,0
                  118.725312769,33.3463164960001,0
                  118.609107875,33.3171333330002,0
                  118.492880403,33.3090839770001,0
                  118.397798026,33.290490295,0
                  118.313262798,33.2903999840001,0
                  118.236632992,33.3088102200001,0
                  118.149436282,33.3272091680001,0
                  118.064875653,33.3508943890001,0
                  117.998826862,33.3561072850001,0
                  117.919544041,33.3850816020002,0
                  117.816465931,33.4325226010001,0
                  117.758410051,33.3743425420001,0
                  117.689784445,33.3187929220001,0
                  117.652845438,33.2764857960001,0
                  117.571005558,33.2262055140001,0
                  117.515580115,33.1785951810002,0
                  117.457498834,33.144190656,0
                  117.367691443,33.1335277970002,0
                  117.291132193,33.0858948860001,0
                  117.209303601,33.0250477020002,0
                  117.145955803,32.974787176,0
                  117.079974745,32.9165986500001,0
                  116.974379088,32.8478008880001,0
                  116.887227534,32.8239322220002,0
                  116.802706417,32.8106332800001,0
                  116.720815737,32.8079040650001,0
                  116.660101197,32.7655715390001,0
                  116.649570982,32.7312178140002,0
                  116.63382505,32.633457024,0
                  116.591630814,32.5647269950002,0
                  116.544113614,32.5329754840002,0
                  116.493937756,32.517071506,0
                  116.433178061,32.5170065940002,0
                  116.375051624,32.5248696830002,0
                  116.319547158,32.5512276750001,0
                  116.271956582,32.5881610370001,0
                  116.229652278,32.622458318,0
                  116.163555508,32.6725805530002,0
                  116.10274219,32.722708434,0
                  116.049870984,32.756994426,0
                  115.991764303,32.7463654330002,0
                  115.93897212,32.7066831000001,0
                  115.915258675,32.6485397310001,0
                  115.915368742,32.5455124210002,0
                  115.939240232,32.4557191410001,0
                  115.923440677,32.4081511420001,0
                  115.844208655,32.389574393,0
                  115.775554827,32.3604420310002,0
                  115.722773931,32.3101927940002,0
                  115.646209037,32.2678433360002,0
                  115.57226329,32.2466305060001,0
                  115.466594255,32.2465176170001,0
                  115.374133848,32.2464188380001,0
                  115.25789791,32.2462946600002,0
                  115.181287859,32.246212815,0
                  115.104677809,32.2461309700001,0
                  115.009575677,32.2460293690002,0
                  114.922384611,32.2591448650002,0
                  114.837829628,32.2775466350002,0
                  114.777041709,32.303898982,0
                  114.729490643,32.3038481820001,0
                  114.644955415,32.3037578710002,0
                  114.570967335,32.3221709290001,0
                  114.531318868,32.343262404,0
                  114.48371418,32.3934043950001,0
                  114.428198425,32.4303292900001,0
                  114.340996071,32.454011689,0
                  114.267024924,32.4565743930002,0
                  114.211562792,32.4433064960001,0
                  114.161392578,32.422119067,0
                  114.105944556,32.3956425410001,0
                  114.058418891,32.371816208,0
                  114.002942647,32.371756941,0
                  113.944824678,32.371694851,0
                  113.899875826,32.4086310370001,0
                  113.899822204,32.458823828,0
                  113.931472114,32.5064087600001,0
                  113.968425232,32.5355072570002,0
                  114.039717964,32.567284167,0
                  114.097790778,32.6096138710001,0
                  114.113570578,32.6756739510001,0
                  114.158440406,32.712706092,0
                  114.208633198,32.7127597150001,0
                  114.250962902,32.654686901,0
                  114.3144123,32.6098452950001,0
                  114.375171996,32.6099102060001,0
                  114.435931691,32.609975117,0
                  114.472870697,32.6522822420001,0
                  114.475430579,32.7288951150001,0
                  114.464790297,32.7975686990001,0
                  114.438330704,32.8371663650001,0
                  114.388092757,32.8793803570001,0
                  114.345794098,32.908394186,0
                  114.279705795,32.9505912450001,0
                  114.226859989,32.9611017030001,0
                  114.174008538,32.9768956140001,0
                  114.16338519,33.0297188420001,0
                  114.192393374,33.077300953,0
                  114.226679366,33.1301721600001,0
                  114.213408647,33.1882760180001,0
                  114.19484601,33.25429941,0
                  114.155180611,33.2912412380001,0
                  114.083800389,33.3413578300002,0
                  114.022992717,33.386202258,0
                  113.938409509,33.4310212870001,0
                  113.888174385,33.4705935530001,0
                  113.809393123,33.5048518650001,0
                  113.729588986,33.5470342690002,0
                  113.623894551,33.570696914,0
                  113.568398551,33.5891297280002,0
                  113.475921212,33.604881305,0
                  113.446811428,33.6524013260002,0
                  113.457328472,33.6990831050001,0
                  113.489008486,33.7184896290001,0
                  113.555045989,33.7238436370001,0
                  113.641349893,33.7168912270002,0
                  113.697702949,33.720473736,0
                  113.809185219,33.6994590050001,0
                  113.880870137,33.7136248080002,0
                  113.901928684,33.7840934100001,0
                  113.884260734,33.8369091130002,0
                  113.808989543,33.882618666,0
                  113.746819491,33.9036860790001,0
                  113.693973684,33.9141965380001,0
                  113.627042436,33.921169643,0
                  113.581248757,33.9246430260001,0
                  113.52841424,33.9245865810001,0
                  113.475606063,33.8998740280001,0
                  113.422775308,33.8962952820001,0
                  113.338262658,33.8750711640001,0
                  113.257272052,33.8538507320001,0
                  113.233691935,33.847672481,0
                  113.225533968,33.8890399530001,0
                  113.246603804,33.948941651,0
                  113.288830026,33.9877321200001,0
                  113.28875853,34.054655843,0
                  113.239446313,34.0546031610002,0
                  113.176044891,34.054535427,0
                  113.126740201,34.0474381430001,0
                  113.080969101,34.0297777180002,0
                  113.024642385,34.001539101,0
                  112.94715176,34.001456316,0
                  112.88727264,34.0013923450002,0
                  112.837960423,34.0013396630001,0
                  112.809725568,34.0541440770002,0
                  112.809654072,34.1210678000001,0
                  112.781407929,34.1844391170001,0
                  112.746143525,34.2231468000001,0
                  112.707371871,34.2477615150001,0
                  112.707319189,34.2970737320002,0
                  112.675546982,34.363963588,0
                  112.636737698,34.4238013150001,0
                  112.62611435,34.4766245440001,0
                  112.601413086,34.5188658170001,0
                  112.530933195,34.5504912680001,0
                  112.456949819,34.56450145,0
                  112.375916195,34.5837875580001,0
                  112.238540805,34.5889242540002,0
                  112.127588318,34.5888057210001,0
                  112.021919283,34.5886928300001,0
                  111.88455518,34.5832626230001,0
                  111.784152664,34.5990057330001,0
                  111.699617435,34.5989154210001,0
                  111.583432296,34.5512401770001,0
                  111.509480905,34.5353108000001,0
                  111.43021784,34.5457930360002,0
                  111.361555544,34.5245858510001,0
                  111.266492924,34.4875000880002,0
                  111.197830629,34.4662929030001,0
                  111.129140111,34.4715029770001,0
                  111.012859017,34.5136464120001,0
                  110.891300115,34.5505007520002,0
                  110.732779629,34.5661817730001,0
                  110.627076726,34.597769594,0
                  110.526679853,34.6082292530001,0
                  110.410483426,34.5711209120001,0
                  110.273187058,34.502289283,0
                  110.093589209,34.465113209,0
                  109.966831522,34.422710127,0
                  109.834773451,34.3961517570001,0
                  109.734466889,34.3220761870001,0
                  109.613009588,34.2638283950002,0
                  109.475707576,34.2002802170001,0
                  109.364828466,34.1314768110001,0
                  109.18520804,34.115434543,0
                  109.058427775,34.094165269,0
                  108.910564503,34.0253223510001,0
                  108.794328564,34.0251981720002,0
                  108.69919821,34.0515138310001,0
                  108.545978109,34.0513501410001,0
                  108.40858014,34.0776206440001,0
                  108.271210395,34.077473888,0
                  108.044021969,34.077231176,0
                  107.9224292,34.145786226,0
                  107.748041425,34.1773006690001,0
                  107.621187782,34.2247162680001,0
                  107.483778525,34.261553674,0
                  107.362219622,34.2984080140001,0
                  107.224787788,34.356379227,0
                  107.108546204,34.3615385000001,0
                  106.992293332,34.377264677,0
                  106.870802163,34.3507175960001,0
                  106.738715869,34.3505764840002,0
                  106.638330286,34.3504692390001,0
                  106.527310065,34.4137521270001,0
                  106.400478999,34.4400339180002,0
                  106.284180972,34.498027709,0
                  106.162633359,34.5243151450001,0
                  106.078098131,34.5242248330001,0
                  105.940796118,34.4606766570001,0
                  105.856334268,34.3919014720001,0
                  105.766526876,34.3812386120001,0
                  105.676702552,34.3864261080002,0
                  105.586900806,34.370479797,0
                  105.491855118,34.3175436780001,0
                  105.380959076,34.264590627,0
                  105.275335195,34.222210123,0
                  105.164439154,34.1692570720001,0
                  105.037664533,34.142704345,0
                  104.958412757,34.1426196790001,0
                  104.921366505,34.2006981370002,0
                  104.931831809,34.295811558,0
                  104.937036238,34.3697855270001,0
                  104.926409126,34.4261310570001,0
                  105.010921777,34.4473551750001,0
                  105.095419376,34.4826684990002,0
                  105.162316757,34.5073961040001,0
                  105.218654761,34.525067817,0
                  105.246791778,34.5638432340001,0
                  105.22912759,34.6131366360001,0
                  105.200896498,34.6624187480002,0
                  105.169135581,34.7187417010002,0
                  105.130348875,34.75744562,0
                  105.077506831,34.7644337780002,0
                  105.031743257,34.739728751,0
                  104.989509509,34.7079828850001,0
                  104.933186557,34.676221966,0
                  104.876848553,34.6585502530001,0
                  104.834603517,34.63737129,0
                  104.788791024,34.6584561790001,0
                  104.749993029,34.7077270020001,0
                  104.71826974,34.7288269430001,0
                  104.654868319,34.7287592090001,0
                  104.587944597,34.7286877120002,0
                  104.510453971,34.7286049270002,0
                  104.49989083,34.725071337,0
                  104.464475907,34.9046710680001,0
                  104.457295837,35.0314663840001,0
                  104.400848707,35.1159414040001,0
                  104.295142042,35.151051527,0
                  104.171842685,35.1685313280001,0
                  104.147130132,35.2213395060002,0
                  104.189292383,35.3200090940001,0
                  104.273782456,35.3623670200001,0
                  104.400577772,35.3695470890001,0
                  104.520343538,35.362630428,0
                  104.650661156,35.3698142600001,0
                  104.752792838,35.3840125920001,0
                  104.805631119,35.3805467360001,0
                  104.917440663,35.4026805930001,0
                  104.936042811,35.299673039,0
                  104.975775944,35.1993297880002,0
                  105.020764307,35.1254094420001,0
                  105.07364398,35.0831982720001,0
                  105.144945179,35.1070500050001,0
                  105.179245282,35.1467125830002,0
                  105.176535822,35.2101111820002,0
                  105.237210851,35.2894278700001,0
                  105.284773205,35.2789117660002,0
                  105.377163056,35.3450536910001,0
                  105.464294854,35.38741444,0
                  105.577824156,35.4482954910001,0
                  105.614743407,35.5090946970001,0
                  105.667504547,35.577836016,0
                  105.765276626,35.5515231790001,0
                  105.870906151,35.5886202310002,0
                  105.98183606,35.6098725720001,0
                  106.063729562,35.6099600610001,0
                  106.114021132,35.5175532770002,0
                  106.151084317,35.443624464,0
                  106.190746894,35.4093243610002,0
                  106.259457168,35.3856222060001,0
                  106.338787967,35.3117385480001,0
                  106.439142506,35.3409047780002,0
                  106.528910386,35.3885518000002,0
                  106.544695829,35.4493284290001,0
                  106.571022777,35.5338918800001,0
                  106.642281642,35.597369501,0
                  106.718846537,35.6397189600001,0
                  106.803333788,35.6847186120001,0
                  106.893152468,35.6848145680001,0
                  107.022585747,35.695519761,0
                  107.130896508,35.6956354720001,0
                  107.191591292,35.7564600790001,0
                  107.254927803,35.8172875080001,0
                  107.339369897,35.904554773,0
                  107.42384868,35.9574796030001,0
                  107.47666062,35.9786698550001,0
                  107.579614552,36.0474647950001,0
                  107.711672623,36.074023165,0
                  107.822608177,36.089992055,0
                  107.909754087,36.1191441730002,0
                  107.991605256,36.1588575500001,0
                  108.010052181,36.20114492,0
                  108.08392455,36.2910426230002,0
                  108.123510928,36.3280691180001,0
                  108.15510157,36.4311302950002,0
                  108.168222711,36.5130379090001,0
                  108.131125659,36.618667433,0
                  108.033418491,36.5842205730001,0
                  107.964753373,36.5656551150001,0
                  107.935632299,36.6237420400001,0
                  107.901244707,36.6659729650001,0
                  107.850992648,36.721395586,0
                  107.792829523,36.7636011110001,0
                  107.779544693,36.8349135990002,0
                  107.792668655,36.9141794860001,0
                  107.840171743,36.959139626,0
                  107.945815378,36.9830280490001,0
                  108.046175562,37.0069108270002,0
                  108.09365325,37.0756465000001,0
                  108.117369516,37.1311481440001,0
                  108.167446597,37.2395125270002,0
                  108.185896344,37.2791581710001,0
                  108.296800853,37.3241860450001,0
                  108.434170599,37.324332801,0
                  108.521361665,37.3112173050002,0
                  108.669295492,37.3140170760001,0
                  108.80399529,37.3405782700001,0
                  108.94134528,37.3592171070001,0
                  109.068167878,37.340860493,0
                  109.152736973,37.309250094,0
                  109.205619469,37.264397198,0
                  109.263864439,37.1455816220001,0
                  109.353807297,37.0294416400002,0
                  109.42252886,36.9951725810001,0
                  109.512446317,36.902808131,0
                  109.594416021,36.8315690220001,0
                  109.713367064,36.7630111490001,0
                  109.766201581,36.7630675940001,0
                  109.874450253,36.8213012750001,0
                  109.985323718,36.8953881340001,0
                  110.064476717,36.9879332070001,0
                  110.13577227,37.0170683910001,0
                  110.191166669,37.0937377090002,0
                  110.233386306,37.138692205,0
                  110.362802651,37.165247753,0
                  110.357457111,37.223360079,0
                  110.330895918,37.358059876,0
                  110.312288125,37.4663508820001,0
                  110.25934354,37.5693217470001,0
                  110.230180133,37.6670345600001,0
                  110.198411689,37.730402114,0
                  110.174590999,37.7726443290001,0
                  110.137508059,37.865065223,0
                  110.142718133,37.933755741,0
                  110.18759925,37.9602209770001,0
                  110.274770561,37.9655975630001,0
                  110.359271922,37.9973885850001,0
                  110.37506301,38.052881762,0
                  110.44099609,38.1559796280001,0
                  110.472592378,38.253757352,0
                  110.480379267,38.383210387,0
                  110.501448162,38.44399266,0
                  110.570138679,38.438782587,0
                  110.630872974,38.4626230310001,0
                  110.675706115,38.5339976080001,0
                  110.694113528,38.61326914,0
                  110.741610972,38.6635127320002,0
                  110.823518585,38.6503915920001,0
                  110.878980718,38.6636594880001,0
                  110.937033776,38.7244812730002,0
                  110.981883849,38.7800054940001,0
                  111.024126063,38.8038261830001,0
                  111.071677129,38.8038769840001,0
                  111.119298751,38.737884636,0
                  111.137881144,38.653369164,0
                  111.145958722,38.5107244320002,0
                  111.11169813,38.4340776930001,0
                  111.032531021,38.3547412490001,0
                  110.958596562,38.3229615160001,0
                  110.884664927,38.288540057,0
                  110.858318224,38.2224686870002,0
                  110.874267358,38.1300252150002,0
                  110.916625283,38.0455351430001,0
                  110.977464001,37.9716317290001,0
                  111.046256119,37.8713195240001,0
                  111.112383934,37.7921383030001,0
                  111.178511747,37.712957083,0
                  111.244557717,37.7103859120002,0
                  111.284124338,37.765904489,0
                  111.289309011,37.8583705400001,0
                  111.291809626,37.9904596560001,0
                  111.349778017,38.1305332170001,0
                  111.413021393,38.2785376000001,0
                  111.44725094,38.3842433240002,0
                  111.499941524,38.5190277900001,0
                  111.547393812,38.611538996,0
                  111.629177247,38.7146537950001,0
                  111.700450223,38.7649227870002,0
                  111.792831607,38.8389898900002,0
                  111.816553518,38.889208081,0
                  111.92485299,38.899890697,0
                  112.012021477,38.9079090080001,0
                  112.117693335,38.905380171,0
                  112.218078918,38.9054874160001,0
                  112.302523835,38.9901129560002,0
                  112.365871634,39.0403734820001,0
                  112.413338033,39.119676059,0
                  112.46344898,39.196339731,0
                  112.529418749,39.2650951610001,0
                  112.61122194,39.349717878,0
                  112.685145109,39.3920645150001,0
                  112.714150471,39.442288352,0
                  112.761622515,39.5163074760001,0
                  112.806483877,39.5612647940002,0
                  112.86453129,39.6273700300002,0
                  112.917289608,39.6987530750001,0
                  112.954217325,39.7516271040001,0
                  112.996431317,39.8018650510002,0
                  113.033350568,39.8626642570001,0
                  113.070261352,39.9313886420002,0
                  113.117736218,40.002766041,0
                  113.189026128,40.0371846780001,0
                  113.265602312,40.0689672330001,0
                  113.326345073,40.0848825,0
                  113.408249865,40.0744030860002,0
                  113.503385864,40.042803975,0
                  113.590579751,40.027046754,0
                  113.67511498,40.0271370650001,0
                  113.75700566,40.0298662800001,0
                  113.881152665,40.043207555,0
                  113.989440848,40.0644570730001,0
                  114.050177966,40.0856557920001,0
                  114.113522942,40.138558043,0
                  114.147817401,40.1835040730001,0
                  114.166221993,40.26541733,0
                  114.174073792,40.3341106710002,0
                  114.226863155,40.376434729,0
                  114.324612657,40.3712557,0
                  114.398614848,40.339634012,0
                  114.475193854,40.3687748420001,0
                  114.533272313,40.4058210930002,0
                  114.593992497,40.4428701670001,0
                  114.636229066,40.4719743080001,0
                  114.712853228,40.458847522,0
                  114.757830302,40.3954940790001,0
                  114.813278323,40.4219706050002,0
                  114.87136807,40.4484499530001,0
                  114.942694669,40.448526153,0
                  115.016612194,40.496156242,0
                  115.069415666,40.5252716720001,0
                  115.082573496,40.5728368490001,0
                  115.050819163,40.6229957730002,0
                  114.995317519,40.6467120400002,0
                  114.934557824,40.6466471280002,0
                  114.86587295,40.6465737500001,0
                  114.82619344,40.696724208,0
                  114.797106233,40.7231104220001,0
                  114.73894593,40.7626742220002,0
                  114.696641627,40.7969715030001,0
                  114.651684309,40.8418328650001,0
                  114.693898301,40.892070812,0
                  114.773110566,40.9291396420001,0
                  114.852331298,40.9582832930001,0
                  114.960602548,40.9953831670002,0
                  115.066220783,41.0430471230001,0
                  115.145382248,41.1276670180001,0
                  115.229852565,41.1885170250001,0
                  115.316973074,41.2414446760001,0
                  115.404065362,41.320789587,0
                  115.475335516,41.3737003040001,0
                  115.580939639,41.4345728890002,0
                  115.665415601,41.4901394440001,0
                  115.755186303,41.5351447400001,0
                  115.831768131,41.5616438440001,0
                  115.929461189,41.6092993320001,0
                  116.037707039,41.670174739,0
                  116.130111,41.7231080350001,0
                  116.214601072,41.7654659620002,0
                  116.330749523,41.8474836420002,0
                  116.406409382,41.9127271170001,0
                  116.496184788,41.9533295370002,0
                  116.596502638,42.0168382030001,0
                  116.672183195,42.0627090230001,0
                  116.77250669,42.120934237,0
                  116.858735335,42.1844278510001,0
                  116.922080312,42.2373301030001,0
                  116.973082182,42.304308389,0
                  117.015282063,42.3677549650001,0
                  117.080376901,42.4312260020001,0
                  117.143718114,42.487650554,0
                  117.192975768,42.5387766030001,0
                  117.233435193,42.582848642,0
                  117.277418803,42.6251632940001,0
                  117.328407503,42.704469633,0
                  117.328360466,42.7484983980001,0
                  117.328298376,42.806616368,0
                  117.308848579,42.8788028450001,0
                  117.277087661,42.9351257980001,0
                  117.277006757,43.0108552730001,0
                  117.276925853,43.0865847490001,0
                  117.269770242,43.1904851070001,0
                  117.234487023,43.2468042960002,0
                  117.188676411,43.2661280340001,0
                  117.114659168,43.3118389270001,0
                  117.118117498,43.3717218100002,0
                  117.132137088,43.4368994330001,0
                  117.149671452,43.5091254230001,0
                  117.153092153,43.6042313180001,0
                  117.158294701,43.6799664370001,0
                  117.170547496,43.7504256310001,0
                  117.15636798,43.834945807,0
                  117.122817688,43.9176841370001,0
                  117.124535565,43.9581924820001,0
                  117.147389129,43.9969622540002,0
                  117.182566985,44.0392674980002,0
                  117.214237592,44.067479775,0
                  117.275847759,44.0957240360001,0
                  117.353317688,44.1151794780001,0
                  117.404426804,44.08177218,0
                  117.441469293,44.0272160230002,0
                  117.466204424,43.9532740390001,0
                  117.52260828,43.9093054830001,0
                  117.582506215,43.8917579470001,0
                  117.624832155,43.8372074340002,0
                  117.688288139,43.7862018010001,0
                  117.746436213,43.7580854810001,0
                  117.822178858,43.7458383300001,0
                  117.91553301,43.7336099960001,0
                  118.007135419,43.7125740260001,0
                  118.061766836,43.679170491,0
                  118.119939368,43.6281592130001,0
                  118.167539352,43.5824200980001,0
                  118.164088548,43.5154926120001,0
                  118.097172351,43.5083765130001,0
                  118.026726328,43.5083012540002,0
                  117.926342626,43.5064328580001,0
                  117.852376183,43.5045926850001,0
                  117.764343112,43.4816036530001,0
                  117.656935504,43.4603550750001,0
                  117.59886269,43.4180253710002,0
                  117.567210899,43.3722015890002,0
                </coordinates>
              </LinearRing>
            </outerBoundaryIs>
          </Polygon>
        </MultiGeometry>
      </Placemark>
    </Document>
  </Document>
</kml>
