<?xml version="1.0" encoding="UTF-8"?>
<kml xmlns="http://www.opengis.net/kml/2.2">
  <Document id="root_doc">
    <Schema id="Bioregions_PA5.schema">
      <SimpleField name="OBJECTID" type="float"/>
      <SimpleField name="Shape_Leng" type="float"/>
      <SimpleField name="Shape_Area" type="float"/>
      <SimpleField name="Bioregions" type="string"/>
    </Schema>
    <Document id="Bioregions_PA5">
      <name>Bioregions_PA5</name>
      <Placemark id="Bioregions_PA5.1">
        <ExtendedData>
          <SchemaData schemaUrl="#Bioregions_PA5.schema">
            <SimpleData name="OBJECTID">182</SimpleData>
            <SimpleData name="Shape_Leng">111.54533921500</SimpleData>
            <SimpleData name="Shape_Area">393.02274899500</SimpleData>
            <SimpleData name="Bioregions">PA5</SimpleData>
          </SchemaData>
        </ExtendedData>
        <Polygon>
          <outerBoundaryIs>
            <LinearRing>
              <coordinates>
                -179.658405284,74.8633932880001,0
                -178.293098181,74.8635912710001,0
                -176.16327526,74.7885571200001,0
                -174.258125599,74.6236073810001,0
                -172.473176409,74.3835938650001,0
                -171.093071526,74.128634581,0
                -170.088092402,73.8587299210001,0
                -169.217950309,73.543732166,0
                -168.638535348,73.2782140300001,0
                -168.653091271,65.896935973,0
                -168.891100321,65.774943272,0
                -168.913404557,65.56338279,0
                -168.8402533,65.3552616680001,0
                -173.199905685,63.343411426,0
                -175.472021748,62.248139478,0
                -176.068601801,61.948332855,0
                -177.750089702,61.0715770730001,0
                -178.540397124,60.6384199990001,0
                -179.445286626,60.1002463460001,0
                -179.344013547,59.8227695640001,0
                -179.690833934,59.692063175,0
                178.880449677,58.908661452,0
                178.559826489,58.9255237240001,0
                178.427631197,58.9367723120001,0
                178.284189783,58.8945771890001,0
                177.716074084,58.753949596,0
                177.53888506,58.6723868780001,0
                177.263273237,58.5514377120001,0
                176.948279485,58.3939289580001,0
                176.751398529,58.306731815,0
                176.371711801,58.1464141270001,0
                176.205788835,58.0929683800001,0
                176.056714823,58.031098607,0
                175.679859953,57.794836736,0
                175.224236926,57.5416893330001,0
                174.802378648,57.339177856,0
                174.318633511,57.1591662220001,0
                174.188949809,57.1081276780001,0
                173.41622878,56.171959637,0
                173.237145952,56.3565271790001,0
                173.105240513,56.4924734940001,0
                172.984787165,56.6166168940001,0
                172.800823323,56.7794158020001,0
                172.643093842,56.9190018510001,0
                172.511509312,57.0354459550001,0
                172.303869957,57.114065845,0
                172.144667565,57.174343601,0
                171.938728558,57.252317055,0
                171.714317187,57.3372870220001,0
                171.386984437,57.4612231510001,0
                171.114472969,57.5644027540001,0
                170.887712736,57.6502612720001,0
                170.714779243,57.7157378680001,0
                170.424966404,57.8254685580001,0
                170.060686635,57.9633954170001,0
                169.724865902,58.090545417,0
                169.369825753,58.2249728780001,0
                169.163691962,58.303021716,0
                168.855152395,58.419842563,0
                168.648358632,58.498140376,0
                168.331553365,58.6180905750001,0
                168.019196039,58.7363573220001,0
                167.764414464,58.8328236610001,0
                167.540429326,58.917631446,0
                167.255786273,59.025404576,0
                166.898839536,59.160553845,0
                166.568005263,59.2858170980001,0
                166.254593813,59.4044835820001,0
                166.000430961,59.5007169350001,0
                165.737589927,59.6002349660001,0
                165.537494428,59.675997318,0
                165.371279824,59.7389316030001,0
                165.209430668,59.800209835,0
                165.112953188,59.836738763,0
                164.996993373,59.9401085210001,0
                164.943029352,59.988216267,0
                164.858671598,60.0634127820001,0
                164.834449632,60.1712602600001,0
                164.802644066,60.2698500110001,0
                164.732020782,60.4353240740001,0
                164.633205253,60.6148554860001,0
                164.534466455,60.7204197550001,0
                164.418096909,60.847098681,0
                164.287669199,60.942060059,0
                164.213645612,60.9948170010001,0
                164.076450982,61.075101857,0
                163.913420478,61.1786778800001,0
                163.694847655,61.3175369320001,0
                163.542364251,61.379466549,0
                163.430875989,61.424745741,0
                163.331478414,61.465115252,0
                163.215736868,61.512121628,0
                163.012566734,61.4576437710001,0
                162.74974238,61.387170746,0
                162.493585327,61.3184869670001,0
                162.363142547,61.259239801,0
                162.16514591,61.1693128650001,0
                161.899733936,61.048768152,0
                161.721086155,60.9676281870001,0
                161.279175128,60.7669170360001,0
                160.921656334,60.6045383680001,0
                160.558569394,60.43962946,0
                160.241858116,60.2957821840001,0
                159.906588943,60.3065313450001,0
                159.614431191,60.315897201,0
                159.353592211,60.3242611430001,0
                159.138123305,60.3311686010001,0
                158.842798306,60.2851890840001,0
                158.631110324,60.2522319030001,0
                158.373595299,60.212138505,0
                158.149925937,60.072122091,0
                158.00054749,59.978614131,0
                157.848958906,59.8837202610001,0
                157.637475712,59.7513354920001,0
                157.528947241,59.91062042,0
                157.44412552,60.0351114410001,0
                157.349591036,60.173857674,0
                157.258205395,60.307982419,0
                157.132842309,60.4919751300001,0
                157.030505655,60.6421724410001,0
                156.881389582,60.861026902,0
                156.72578059,61.089410882,0
                156.589331122,61.2896748370001,0
                156.491084347,61.43386952,0
                156.406138816,61.501439438,0
                156.340695601,61.5534962390001,0
                156.270151739,61.6450008100001,0
                156.270061429,61.729536038,0
                156.439064152,61.7931180830001,0
                156.551732633,61.8355061120001,0
                156.615088899,61.8778414600001,0
                156.643158049,61.980143114,0
                156.642996374,62.1314772490001,0
                156.713419819,62.152686315,0
                156.903533771,62.2374247450001,0
                157.079567832,62.3134309320001,0
                157.234509668,62.350492102,0
                157.241351068,62.5407038920001,0
                157.396279639,62.5901816790001,0
                157.558240884,62.6508320870001,0
                157.804851524,62.604707391,0
                157.917587739,62.5836939980001,0
                158.104887849,62.5416264340001,0
                158.241737286,62.492460362,0
                158.361495526,62.492588303,0
                158.423147085,62.482087252,0
                158.486545684,62.4847967110001,0
                158.539360446,62.5033452370001,0
                158.597419149,62.55888357,0
                158.623757385,62.6328801170001,0
                158.623664251,62.720057071,0
                158.607734873,62.7940084630001,0
                158.644671058,62.8389573140001,0
                158.715997657,62.8390335140001,0
                158.805805048,62.8496963740001,0
                158.908832358,62.8498064410001,0
                159.011862489,62.8472747820001,0
                159.096409007,62.8367981900001,0
                159.141323991,62.8315627170001,0
                159.183526694,62.8923675670001,0
                159.268002655,62.947934123,0
                159.336664951,62.969141307,0
                159.437011022,63.0062327150001,0
                159.526821236,63.0142538490001,0
                159.624559449,63.0196417230001,0
                159.724945033,63.019748968,0
                159.756569543,63.091109433,0
                159.780237832,63.191520417,0
                159.851510808,63.2417894100001,0
                159.946573428,63.2788751730001,0
                160.046944901,63.2921910470001,0
                160.134102099,63.310776262,0
                160.210638772,63.3795429800001,0
                160.334799889,63.3796756240001,0
                160.456322101,63.377163721,0
                160.572580618,63.356154093,0
                160.659782973,63.332471694,0
                160.786594282,63.3246819830001,0
                160.923961205,63.327470465,0
                161.098303825,63.3382236360001,0
                161.230356252,63.370065459,0
                161.312162266,63.4520464510001,0
                161.317318716,63.5709297590001,0
                161.311961887,63.6396089880001,0
                161.303932286,63.737344379,0
                161.303820742,63.8417543300001,0
                161.348669471,63.8985376360001,0
                161.430517817,63.940892739,0
                161.509749838,63.9594694880001,0
                161.599548465,63.9783361670001,0
                161.678817473,63.9622918370001,0
                161.721121776,63.9279945550001,0
                161.747603946,63.8672630830001,0
                161.737087842,63.819700728,0
                161.726585851,63.7589297440001,0
                161.72401468,63.6928837740001,0
                161.742574495,63.6295021080001,0
                161.790173539,63.584643569,0
                161.877364604,63.5715280740001,0
                161.983027995,63.5769244140001,0
                162.064913031,63.5849370810001,0
                162.160009519,63.5903221340001,0
                162.239272584,63.5798398970001,0
                162.334369072,63.5852249490001,0
                162.447968929,63.5800628540001,0
                162.521945721,63.5722166990001,0
                162.606472482,63.580232187,0
                162.704196584,63.5988286910001,0
                162.796617479,63.635911632,0
                162.870546292,63.6729748170001,0
                162.923318721,63.7311492310001,0
                162.954948876,63.797226245,0
                162.96810805,63.843532338,0
                162.949532779,63.921381717,0
                162.92303932,63.992680094,0
                162.88597049,64.0718923590001,0
                162.88591969,64.119443425,0
                162.954573518,64.1485757880001,0
                163.081314272,64.206829224,0
                163.216039469,64.2096148840001,0
                163.319069602,64.2070832250001,0
                163.427380362,64.207198938,0
                163.517199043,64.207294893,0
                163.623306678,64.2074082510001,0
                163.673024181,64.2418038420001,0
                163.728452446,64.2867724490001,0
                163.746882438,64.3449101740001,0
                163.707194461,64.402985809,0
                163.646420655,64.4161295280001,0
                163.540754441,64.413374913,0
                163.443010584,64.4132704900001,0
                163.371678341,64.4184777410001,0
                163.255419823,64.4394873690001,0
                163.178778729,64.46846451,0
                163.098959215,64.50800517,0
                163.065108315,64.5396697530001,0
                163.028081819,64.579256129,0
                163.028002797,64.653224455,0
                163.078144788,64.7008291430001,0
                163.207524444,64.761727127,0
                163.326390821,64.7724210310001,0
                163.43732073,64.793673373,0
                163.535056121,64.801702973,0
                163.622657563,64.815005205,0
                163.693511697,64.8467816470001,0
                163.706658236,64.9049137270001,0
                163.701298584,64.976234683,0
                163.653693896,65.0263766740001,0
                163.598172497,65.068585021,0
                163.534703342,65.131918709,0
                163.555794815,65.1715671750001,0
                163.622211651,65.232397894,0
                163.698371813,65.243046174,0
                163.811943448,65.2643013380001,0
                163.91759555,65.280264582,0
                164.031201052,65.2698190350001,0
                164.152748665,65.2435315980001,0
                164.242592745,65.2198520220001,0
                164.321872744,65.19351943,0
                164.427584114,65.154006431,0
                164.538593045,65.1012904470001,0
                164.675934568,65.1278544620001,0
                164.800070286,65.1517626400001,0
                164.84232661,65.1623747,0
                164.900365557,65.236405113,0
                164.984861274,65.2734795870001,0
                165.114260687,65.3158854910001,0
                165.256891307,65.3371716990001,0
                165.373113135,65.350504506,0
                165.499901866,65.3638486030001,0
                165.631968404,65.382481796,0
                165.703247026,65.4274673370001,0
                165.734863069,65.50675298,0
                165.74797292,65.5992274970001,0
                165.774316801,65.667940592,0
                165.872023969,65.702387451,0
                165.977650672,65.7421262290001,0
                166.085947321,65.7554505700001,0
                166.14933181,65.7713686590001,0
                166.210049171,65.811059459,0
                166.262827244,65.8639504210001,0
                166.326169399,65.919494399,0
                166.423865278,65.9645081610001,0
                166.500455573,65.9830820870001,0
                166.61400086,66.0290012130001,0
                166.701133607,66.0704735310001,0
                166.775056776,66.112820168,0
                166.796072049,66.223795233,0
                166.79598456,66.305688735,0
                166.8169829,66.432514155,0
                166.872402699,66.4854079400001,0
                166.962176223,66.52777151,0
                167.099503635,66.5675441550001,0
                167.215719819,66.5861604140001,0
                167.331936002,66.604776674,0
                167.445533038,66.602256304,0
                167.58553322,66.6129727860001,0
                167.651590479,66.5998347130001,0
                167.738837988,66.5338846990001,0
                167.812871225,66.4732040260001,0
                167.921229965,66.428410398,0
                168.061238614,66.4312017020001,0
                168.164243345,66.4524455760001,0
                168.304237884,66.46844551,0
                168.449521519,66.479167637,0
                168.571043732,66.476655733,0
                168.716333011,66.4820944080001,0
                168.832577417,66.4742934080001,0
                168.925057578,66.4559001060001,0
                169.00170714,66.4189977880001,0
                169.067761576,66.4085014400001,0
                169.144354693,66.4244336410001,0
                169.220950633,66.437724115,0
                169.279046025,66.4589200120001,0
                169.286886535,66.538180255,0
                169.321104793,66.654452882,0
                169.418755517,66.7417342590001,0
                169.524365286,66.7973233920001,0
                169.616777714,66.8423315100001,0
                169.719765512,66.87942574,0
                169.814830954,66.9138697770001,0
                169.901976864,66.9430218950001,0
                169.999689678,66.9721853030001,0
                170.086841231,66.9960539690001,0
                170.152833579,67.0436755920001,0
                170.110495409,67.1096735830001,0
                170.020592061,67.1888294030001,0
                169.925410907,67.2626961270001,0
                169.925312129,67.3551565330001,0
                169.901415239,67.468725347,0
                169.848501699,67.5426372270001,0
                169.785063589,67.5769119300001,0
                169.689936058,67.6005858620001,0
                169.589530718,67.6189706980001,0
                169.481194557,67.6426305200001,0
                169.3041961,67.6450831560001,0
                169.127166599,67.676594777,0
                168.989788387,67.6843731980001,0
                168.847118255,67.7000711530001,0
                168.741420997,67.7263755230001,0
                168.619873384,67.7526629590001,0
                168.522087193,67.7921844240001,0
                168.424272779,67.8581231480001,0
                168.358178832,67.9056036590001,0
                168.292082062,67.9557258950001,0
                168.220699019,68.0084842110001,0
                168.191563833,68.0797797660001,0
                168.223210922,68.130006425,0
                168.291853462,68.169705691,0
                168.376368934,68.1882880840001,0
                168.471434377,68.222732121,0
                168.561222013,68.251887061,0
                168.685357729,68.275795239,0
                168.72232778,68.2890433800001,0
                168.722285447,68.3286692680001,0
                168.69846758,68.3682697560001,0
                168.627109937,68.3972525410001,0
                168.568980678,68.4077573550001,0
                168.492367805,68.4103172370001,0
                168.384057044,68.4102015240001,0
                168.281052313,68.3889576510001,0
                168.178036291,68.37828068,0
                168.090867804,68.370262369,0
                168.011613205,68.3728194270001,0
                167.911221977,68.377995635,0
                167.829314364,68.3911167750001,0
                167.789651787,68.425416877,0
                167.776395179,68.470312107,0
                167.781641941,68.5046601870001,0
                167.810644482,68.5575257500001,0
                167.736625357,68.6049977930001,0
                167.630905521,68.6524359700001,0
                167.527847167,68.681384887,0
                167.411611228,68.6812607090001,0
                167.25838266,68.689022197,0
                167.102534944,68.6756470550001,0
                166.983662924,68.6702366040001,0
                166.833104304,68.651583654,0
                166.677236832,68.6567005950001,0
                166.611176752,68.672480394,0
                166.484292064,68.748954977,0
                166.362713407,68.8043013980001,0
                166.278138667,68.8411952490001,0
                166.177719217,68.8727887150001,0
                166.013906811,68.89638927,0
                165.828977533,68.9041168900001,0
                165.622951137,68.8774794970001,0
                165.390490548,68.8666642370001,0
                165.226703543,68.866489259,0
                165.158001736,68.8822662360001,0
                165.102505737,68.9006990500001,0
                165.110303914,69.0195851820001,0
                165.210649987,69.0566765890001,0
                165.300440445,69.083189804,0
                165.363802354,69.1202417000001,0
                165.289687273,69.257532423,0
                165.115299498,69.289046866,0
                164.999029692,69.3206233990001,0
                164.909188434,69.3416612490001,0
                164.803519399,69.34154836,0
                164.687317327,69.309723472,0
                164.565876958,69.2356253240001,0
                164.457566198,69.235509613,0
                164.309629547,69.2353515680001,0
                164.262078482,69.2353007670001,0
                164.177531964,69.245777359,0
                164.100899336,69.266829321,0
                163.97933479,69.3089671120001,0
                163.855091828,69.385444518,0
                163.709746104,69.432840361,0
                163.527467018,69.4326456270001,0
                163.371627769,69.4113453080001,0
                163.247455363,69.421779567,0
                163.112727343,69.4216356320001,0
                163.020216137,69.46908792,0
                162.856412199,69.484763297,0
                162.737534533,69.4846362970001,0
                162.653016239,69.4686956300001,0
                162.560606633,69.421045786,0
                162.468188561,69.3813211200001,0
                162.396887362,69.357469386,0
                162.312349312,69.3600208,0
                162.222505231,69.3837003780001,0
                162.188089416,69.4523485610001,0
                162.19590735,69.552742612,0
                162.206372652,69.647856033,0
                162.137620046,69.7111840750001,0
                162.048164036,69.773396619,0
                162.229020785,70.008727596,0
                162.448094285,70.29378625,0
                162.721350288,70.6493472280001,0
                162.95297123,70.9507326250001,0
                163.15398393,71.2122905470001,0
                163.383260455,71.5106253860001,0
                163.599164725,71.791560234,0
                163.826096914,72.0868446210001,0
                164.154529546,72.514201482,0
                164.336487416,72.7509652420001,0
                164.55239172,73.0319001340001,0
                164.94655932,73.5447914010001,0
                165.19155203,73.863576154,0
                165.332868766,74.047457631,0
                165.5068883,74.2738920180001,0
                165.875465711,73.973459001,0
                165.947165479,73.9653854790001,0
                166.030863076,73.955796062,0
                166.116934226,73.945679318,0
                166.195754653,73.936023811,0
                166.293146232,73.9220507790001,0
                166.464357996,73.893577044,0
                166.5380203,73.881844953,0
                166.618851579,73.869058319,0
                166.704264452,73.8556125970001,0
                166.791671531,73.841903249,0
                166.878485433,73.828325733,0
                166.962118773,73.8152755080001,0
                167.039984166,73.8031480320001,0
                167.10949423,73.7923387660001,0
                167.252233486,73.7701929660001,0
                168.025701329,73.6183147090001,0
                168.650090427,73.4664524890001,0
                169.060740583,73.3539546060001,0
                169.201358741,73.359572622,0
                169.344802949,73.3652086760001,0
                169.581056435,73.3764621160001,0
                169.808868411,73.3792731980001,0
                170.028255801,73.3877183330001,0
                170.197008477,73.39333672,0
                170.298260553,73.390529971,0
                170.312318166,73.3989724040001,0
                170.410758323,73.446783096,0
                170.497931131,73.4833433140001,0
                170.703253813,73.5761567320001,0
                170.900117413,73.6549116260001,0
                171.046365587,73.7139912810001,0
                171.471053788,73.8658673140001,0
                171.735418415,73.9474311810001,0
                171.856359629,73.986817924,0
                172.171358543,74.076824704,0
                172.719799665,74.2202781220001,0
                173.411667427,74.363715427,0
                173.836361862,74.4340490760001,0
                174.390422959,74.526867085,0
                175.470432937,74.6562510900001,0
                175.93168669,74.7181429730001,0
                176.730446439,74.782847383,0
                177.453282726,74.8222240530001,0
                178.83422783,74.8784938810001,0
                179.5936258,74.878503881,0
                -179.658405284,74.8633932880001,0
              </coordinates>
            </LinearRing>
          </outerBoundaryIs>
        </Polygon>
      </Placemark>
    </Document>
  </Document>
</kml>
