<?xml version="1.0" encoding="UTF-8"?>
<kml xmlns="http://www.opengis.net/kml/2.2">
  <Document id="root_doc">
    <Schema id="Bioregions_PA50.schema">
      <SimpleField name="OBJECTID" type="float"/>
      <SimpleField name="Shape_Leng" type="float"/>
      <SimpleField name="Shape_Area" type="float"/>
      <SimpleField name="Bioregions" type="string"/>
    </Schema>
    <Document id="Bioregions_PA50">
      <name>Bioregions_PA50</name>
      <Placemark id="Bioregions_PA50.1">
        <ExtendedData>
          <SchemaData schemaUrl="#Bioregions_PA50.schema">
            <SimpleData name="OBJECTID">109</SimpleData>
            <SimpleData name="Shape_Leng">63.14987117920</SimpleData>
            <SimpleData name="Shape_Area">65.50078431030</SimpleData>
            <SimpleData name="Bioregions">PA50</SimpleData>
          </SchemaData>
        </ExtendedData>
        <Polygon>
          <outerBoundaryIs>
            <LinearRing>
              <coordinates>
                123.609466255,33.293891468,0
                123.656169951,33.222938148,0
                123.7061573,33.1469962260001,0
                123.7614104,33.063054456,0
                123.817994544,32.9770905350001,0
                123.915759441,32.862421162,0
                123.994294442,32.7703067150001,0
                124.033208822,32.724663671,0
                124.101427941,32.64464882,0
                124.199784041,32.5848560220001,0
                124.294473023,32.527292544,0
                124.390501173,32.436783475,0
                124.501170077,32.3324751100001,0
                124.608111285,32.2316801960001,0
                124.735144815,32.1119477390001,0
                124.827383971,32.0250098980001,0
                124.941575491,31.917381375,0
                125.028333057,31.8356100770001,0
                125.122956146,31.7464253150001,0
                125.197289607,31.676364064,0
                125.300401621,31.5791782680001,0
                125.373387083,31.5103875410001,0
                125.491199705,31.3993460340001,0
                125.6053949,31.291714046,0
                125.686591627,31.2151839850001,0
                125.777556019,31.129447643,0
                125.853753069,31.0576299100001,0
                125.949583214,30.9673074670001,0
                125.99248122,30.8295363030001,0
                126.02451928,30.7266429220001,0
                126.061694259,30.60725182,0
                126.100424771,30.482864969,0
                126.136152009,30.3681234310001,0
                126.155774439,30.3051040660001,0
                126.190831908,30.1925135560001,0
                126.150066191,30.124405875,0
                126.118732205,30.072055876,0
                126.075609229,30.0000099010001,0
                126.034347519,29.931073558,0
                125.996188322,29.8673206140001,0
                125.964543996,29.8144521290001,0
                125.930107682,29.756919042,0
                125.897532762,29.7024958060001,0
                125.83734671,29.60194238,0
                125.799186981,29.5381885470001,0
                125.74272375,29.4438548750001,0
                125.672920493,29.327233891,0
                125.634761066,29.263480563,0
                125.583930261,29.1785570390001,0
                125.51389927,29.1038717650001,0
                125.443925158,29.029247151,0
                125.375601569,28.9563827530001,0
                125.288599666,28.863598676,0
                125.225542915,28.7963511510001,0
                125.142052176,28.7073115900001,0
                125.060529762,28.6203711690001,0
                124.969014982,28.5227742860001,0
                124.883935059,28.4710179100001,0
                124.8075929,28.424576947,0
                124.705897988,28.3627132300001,0
                124.613020371,28.30621331,0
                124.54494542,28.2648015090001,0
                124.457673969,28.211711968,0
                124.361673815,28.153312526,0
                124.278993941,28.1030161620001,0
                124.186936873,28.0657970130001,0
                124.092906763,28.027780153,0
                124.001364941,27.9907693220001,0
                123.898836842,27.94931668,0
                123.736865102,27.8764496360001,0
                123.575000836,27.803630942,0
                123.499691334,27.762984632,0
                123.437758674,27.7295581170001,0
                123.325091344,27.6687489080001,0
                123.21928021,27.6001637740001,0
                123.093687252,27.518756366,0
                123.025617191,27.4684058870001,0
                122.980971606,27.435382168,0
                122.877207085,27.358628991,0
                122.761654362,27.2632488570001,0
                122.656827289,27.1767219450001,0
                122.641442412,27.273206556,0
                122.622757353,27.3903879000001,0
                122.611540816,27.460731207,0
                122.597498605,27.5487954280001,0
                122.585099583,27.626554562,0
                122.567943951,27.7341442690001,0
                122.553267025,27.826189033,0
                122.536398931,27.9319754800001,0
                122.506497344,28.1195000760001,0
                122.483142159,28.2659696160001,0
                122.462092251,28.397981857,0
                122.445571241,28.5015915990001,0
                122.423599206,28.639386862,0
                122.405375099,28.7536773950001,0
                122.395167577,28.817692777,0
                122.380750997,28.9081048050001,0
                122.364517357,29.0099123410001,0
                122.344823336,29.1334212830001,0
                122.333433417,29.204851939,0
                122.315268845,29.318769107,0
                122.296871286,29.434147425,0
                122.282628132,29.523471837,0
                122.265412961,29.6314349350001,0
                122.249352935,29.732153668,0
                122.233032589,29.834504962,0
                122.217981329,29.9288973280001,0
                122.205350203,30.0081120770001,0
                122.134005473,30.066289081,0
                122.03891463,30.0556205770001,0
                121.938529046,30.055513332,0
                121.875138914,30.0448786950001,0
                121.82237213,29.9814208290001,0
                121.737882057,29.939062904,0
                121.600563111,29.891365082,0
                121.521328268,29.8754300590001,0
                121.426248714,29.854194652,0
                121.32586313,29.8540874070001,0
                121.278312064,29.8540366070001,0
                121.278210464,29.949138739,0
                121.249926691,30.0477330680001,0
                121.175920737,30.0828770570001,0
                121.144144767,30.153289214,0
                121.14407327,30.2202129360001,0
                121.1017605,30.2624353940001,0
                121.027803464,30.251789468,0
                120.943305866,30.2164761450001,0
                120.830644909,30.1670435130001,0
                120.739095183,30.1387672660001,0
                120.62640036,30.1210353450001,0
                120.513686722,30.12091493,0
                120.425602852,30.1454769630001,0
                120.33046309,30.180598375,0
                120.252938598,30.2122163000001,0
                120.186022401,30.2051002010001,0
                120.168501207,30.120546158,0
                120.168580229,30.0465778330001,0
                120.189815636,29.9514982790001,0
                120.140563628,29.895088779,0
                120.077203599,29.856275732,0
                120.049089161,29.7963665080001,0
                120.024508312,29.7258941430001,0
                119.940048343,29.6553578080001,0
                119.876699603,29.6059778580001,0
                119.774631892,29.531900407,0
                119.676060141,29.4824828270001,0
                119.573962325,29.436583785,0
                119.482453991,29.369562226,0
                119.362786063,29.284899055,0
                119.236013324,29.2565851790001,0
                119.098681208,29.2212154110001,0
                118.996541999,29.2140616820001,0
                118.87684773,29.1540546210001,0
                118.71834794,29.1503629860001,0
                118.584504258,29.146697692,0
                118.464764833,29.128958244,0
                118.383823402,29.061947973,0
                118.338104983,28.994975332,0
                118.288890604,28.90334282,0
                118.24669825,28.8328516400001,0
                118.197465056,28.758830634,0
                118.112986272,28.7059058040001,0
                118.003817513,28.6846553450001,0
                117.894663806,28.6493156810001,0
                117.855986228,28.585872867,0
                117.799697142,28.5224112380001,0
                117.715203307,28.4835756140001,0
                117.595448829,28.479925371,0
                117.507432693,28.441085984,0
                117.426461158,28.402254122,0
                117.359571302,28.370481915,0
                117.278596005,28.3351723540001,0
                117.208172559,28.313963288,0
                117.137726536,28.3138880280001,0
                117.056721135,28.3067568770001,0
                116.975745838,28.271447317,0
                116.912434727,28.1868443550001,0
                116.866735124,28.1022602080001,0
                116.863291845,28.0282881200001,0
                116.835196222,27.9507673910001,0
                116.803533141,27.915510512,0
                116.722520214,27.915423963,0
                116.627418082,27.915322363,0
                116.542912957,27.8870536420001,0
                116.447810826,27.886952041,0
                116.356215943,27.900943409,0
                116.317372792,27.9924818470001,0
                116.285596822,28.062894004,0
                116.239739173,28.126246506,0
                116.16921789,28.19661727,0
                116.091685871,28.235279797,0
                116.01064284,28.263371658,0
                115.91555576,28.249180853,0
                115.845136078,28.224449486,0
                115.778249985,28.189154977,0
                115.72194961,28.1362602520001,0
                115.669171538,28.0833692890001,0
                115.655168881,28.0023413100001,0
                115.595361258,27.935353617,0
                115.510893764,27.8718618840001,0
                115.440504184,27.818952107,0
                115.408886259,27.741427614,0
                115.401905627,27.681540969,0
                115.377347357,27.589934796,0
                115.342214656,27.5053619390001,0
                115.30000725,27.448959964,0
                115.293049196,27.367939511,0
                115.289620969,27.2798782180001,0
                115.261532872,27.1953128860001,0
                115.229911183,27.121310695,0
                115.194767194,27.0473047400001,0
                115.134974623,26.966227842,0
                115.061077795,26.899225098,0
                114.983643613,26.846307794,0
                114.909716681,26.807483459,0
                114.821700545,26.768644071,0
                114.751273336,26.750957306,0
                114.687853099,26.768501078,0
                114.652547302,26.8459540740001,0
                114.666542432,26.9340266560001,0
                114.705182382,27.0326924820001,0
                114.754396761,27.1243249940001,0
                114.807140967,27.2089166660001,0
                114.835251644,27.272348192,0
                114.842183356,27.378024753,0
                114.838559454,27.4731231220001,0
                114.870181143,27.547125313,0
                114.863027414,27.6492645220001,0
                114.834789737,27.704710662,0
                114.78192982,27.728429749,0
                114.686788176,27.765312312,0
                114.612800096,27.7837253700001,0
                114.552009356,27.812719444,0
                114.478012809,27.8390576800001,0
                114.409327936,27.838984302,0
                114.340674108,27.8098519390001,0
                114.266722716,27.793922561,0
                114.17690968,27.788543154,0
                114.097646615,27.7990253900001,0
                114.036864342,27.820094286,0
                113.991881624,27.888731181,0
                114.002380794,27.952143891,0
                114.044603252,27.9944566610001,0
                114.092120451,28.0262081720001,0
                114.139589672,28.102869022,0
                114.179164761,28.150462422,0
                114.250471604,28.1690307040001,0
                114.313836336,28.203440874,0
                114.35605315,28.2510370950001,0
                114.40620643,28.2880748800001,0
                114.469579629,28.3145598730001,0
                114.546121946,28.3780431390001,0
                114.593622212,28.425645005,0
                114.672789321,28.504981448,0
                114.762523335,28.584329181,0
                114.820613082,28.6108085290001,0
                114.910400717,28.6399634690001,0
                115.000196819,28.6611932320001,0
                115.076789936,28.6771254330001,0
                115.156010669,28.706269084,0
                115.256353919,28.7460022180001,0
                115.319718651,28.7804123880001,0
                115.412128257,28.828062232,0
                115.467527359,28.900328673,0
                115.492115734,28.9637564350001,0
                115.534304325,29.0377699160001,0
                115.56242629,29.090634537,0
                115.590533203,29.157588364,0
                115.586916828,29.2456421300001,0
                115.555129568,29.3266211910001,0
                115.540946289,29.4146636680001,0
                115.481010725,29.467434215,0
                115.456260541,29.5554654040001,0
                115.403343238,29.6328995850001,0
                115.336363071,29.6856626060001,0
                115.262383458,29.6961504870001,0
                115.177867044,29.67844867,0
                115.079272714,29.650164897,0
                114.973645072,29.6113066940001,0
                114.871547257,29.565407652,0
                114.8011351,29.5336316830001,0
                114.713107674,29.5053591980001,0
                114.642706806,29.4630163250001,0
                114.587204221,29.4876131660001,0
                114.526416304,29.5139655130001,0
                114.47091466,29.537681779,0
                114.415438417,29.537622512,0
                114.349417847,29.51641815,0
                114.275474923,29.492563595,0
                114.198915672,29.4449306830001,0
                114.124969925,29.4237178540001,0
                114.080088808,29.397252617,0
                114.037866349,29.354939847,0
                113.982435262,29.3126129660001,0
                113.919084641,29.2649941660001,0
                113.845150183,29.2332144330001,0
                113.784401776,29.222582618,0
                113.715714081,29.2251509660001,0
                113.625884112,29.235621914,0
                113.570475602,29.172161225,0
                113.528270077,29.1139981000001,0
                113.493975619,29.069052071,0
                113.463663504,29.0056181940001,0
                113.426755542,28.934252084,0
                113.388521073,28.868168015,0
                113.363490999,28.8060606450001,0
                113.345059596,28.7492437830001,0
                113.333242386,28.683187935,0
                113.34254346,28.631684158,0
                113.365058808,28.5749110410001,0
                113.392836441,28.537956513,0
                113.392871719,28.5049349390001,0
                113.377055231,28.4732172940001,0
                113.341406042,28.459970565,0
                113.30706925,28.4546504240001,0
                113.263061652,28.4347904430001,0
                113.214689278,28.379262458,0
                113.186994901,28.3382860740001,0
                113.159301935,28.295988826,0
                113.132942531,28.241805223,0
                113.13299192,28.19557502,0
                113.159461391,28.1467313140001,0
                113.181942872,28.121658907,0
                113.213676039,28.0913129260001,0
                113.24673289,28.0583266300001,0
                113.265247549,28.037212578,0
                113.295666908,28.0002608720001,0
                113.318163912,27.9606589730001,0
                113.330103889,27.9117997440001,0
                113.330144812,27.8734947190001,0
                113.330182912,27.8378314190001,0
                113.331548931,27.7955652160001,0
                113.335573608,27.7374514800001,0
                113.327707698,27.68196677,0
                113.311906732,27.6357196330001,0
                113.306679725,27.5828794710001,0
                113.315973743,27.537980009,0
                113.322635914,27.4838316840001,0
                113.338534247,27.438939277,0
                113.354433992,27.3927260070001,0
                113.354477736,27.351779257,0
                113.347922811,27.305541998,0
                113.326838393,27.2592892170001,0
                113.299156715,27.2064250660001,0
                113.274089953,27.1786601330001,0
                113.246370176,27.1614592810001,0
                113.206764043,27.142924866,0
                113.163192499,27.1270279440001,0
                113.116962296,27.1269785550001,0
                113.072051546,27.12825144,0
                113.019225494,27.1202698180001,0
                112.969051047,27.103044977,0
                112.916220763,27.0990259430001,0
                112.8594293,27.093681814,0
                112.809228042,27.101553369,0
                112.743160905,27.1239374830001,0
                112.675779962,27.1397158720001,0
                112.603111334,27.159451205,0
                112.533077375,27.185793674,0
                112.472282402,27.218750336,0
                112.429983744,27.247764164,0
                112.414116455,27.263597587,0
                112.414081177,27.29661916,0
                112.414017676,27.356057993,0
                112.39415111,27.4062296180001,0
                112.351834107,27.452414665,0
                112.310857722,27.480109042,0
                112.279134433,27.501208982,0
                112.264566841,27.53685676,0
                112.26451604,27.5844078260001,0
                112.279008844,27.6187657840001,0
                112.301435292,27.645207032,0
                112.302685599,27.7112515900001,0
                112.30261081,27.781257327,0
                112.303876639,27.832772392,0
                112.301165768,27.8974918540001,0
                112.290539598,27.9529568090001,0
                112.314271386,27.9939289600001,0
                112.340660423,28.0203744410001,0
                112.385524607,28.0626900340001,0
                112.417188628,28.0970663370001,0
                112.458101513,28.128810792,0
                112.492393149,28.1763985470001,0
                112.525362511,28.225305754,0
                112.523949926,28.311160434,0
                112.523894892,28.3626740890001,0
                112.510632641,28.41285277,0
                112.489439566,28.468306435,0
                112.459010329,28.5145041820001,0
                112.418036767,28.5395568340001,0
                112.361221316,28.556667374,0
                112.314953013,28.592281284,0
                112.280583765,28.617340991,0
                112.234319696,28.6489923130001,0
                112.192028093,28.6714018270001,0
                112.127291697,28.6845413120001,0
                112.062546835,28.705605974,0
                112.013667851,28.712158077,0
                111.944988622,28.706801247,0
                111.880286093,28.6882400220001,0
                111.811625209,28.665711973,0
                111.74692127,28.648471611,0
                111.671656071,28.6259365070001,0
                111.588455817,28.6126389770001,0
                111.506576426,28.5993428580001,0
                111.45683521,28.5887228020001,0
                111.416333451,28.584276651,0
                111.379349288,28.5842371410001,0
                111.339721519,28.5859559570001,0
                111.290401776,28.5929478790001,0
                111.246381478,28.584975663,0
                111.207679439,28.544427807,0
                111.168975519,28.505641102,0
                111.120568337,28.482694402,0
                111.065985839,28.470308023,0
                111.015784581,28.478179577,0
                110.965566388,28.501901488,0
                110.895121306,28.500945653,0
                110.842317833,28.471830223,0
                110.800084086,28.440084357,0
                110.739363902,28.4030352840001,0
                110.678578805,28.4267459050001,0
                110.641532554,28.484824363,0
                110.673185287,28.52976757,0
                110.720682731,28.5800111620001,0
                110.770816256,28.635541028,0
                110.836791669,28.699013005,0
                110.902778372,28.7519180790001,0
                110.974068281,28.7863367150001,0
                111.04007474,28.8207497080001,0
                111.111381583,28.8393179890001,0
                111.211753055,28.852633864,0
                111.298913076,28.868577353,0
                111.386084386,28.8739539380001,0
                111.481183695,28.8766972650001,0
                111.565721746,28.874145851,0
                111.618561908,28.8689188440001,0
                111.655543248,28.8716000810001,0
                111.708363654,28.8848651550001,0
                111.734752691,28.9113106360001,0
                111.761116327,28.96153165,0
                111.753123416,29.024924604,0
                111.713443905,29.075075063,0
                111.65790275,29.1357754910001,0
                111.644637676,29.1885958980001,0
                111.684187364,29.2599648300001,0
                111.718464889,29.3207612150001,0
                111.75007811,29.402688584,0
                111.776410702,29.481968583,0
                111.808029569,29.5586125,0
                111.831709145,29.6484565800001,0
                111.876581796,29.682846995,0
                111.934665899,29.7146097940001,0
                112.000703401,29.7199638020001,0
                112.064110467,29.7147480840001,0
                112.127511888,29.714815818,0
                112.188271584,29.7148807290001,0
                112.235805717,29.7307818840001,0
                112.272739079,29.778372462,0
                112.272685456,29.8285652540001,0
                112.243581315,29.8708018230001,0
                112.198640931,29.89981283,0
                112.137855836,29.9235234510001,0
                112.071798577,29.936661525,0
                112.074352814,30.01855785,0
                112.058431902,30.0845840640001,0
                112.026686037,30.126817811,0
                111.981734363,30.1663957210001,0
                111.926249652,30.174261632,0
                111.860217795,30.163624172,0
                111.799460921,30.1609175350001,0
                111.74660947,30.1767114460001,0
                111.709582974,30.216297823,0
                111.68310927,30.269104118,0
                111.664572033,30.3113519770001,0
                111.638081396,30.3800086270001,0
                111.595748872,30.440723167,0
                111.556066538,30.493515351,0
                111.532226094,30.5542496470001,0
                111.529527923,30.6070813420001,0
                111.550582708,30.6810722450001,0
                111.600735988,30.7181100290001,0
                111.658822913,30.747231103,0
                111.719554386,30.7737132730001,0
                111.7855552,30.8134097180001,0
                111.856862043,30.8319779990001,0
                111.912332642,30.8373207180001,0
                111.986274008,30.8626349370001,0
                112.044391977,30.862697026,0
                112.110408461,30.887725177,0
                112.176451608,30.8877957330001,0
                112.245144948,30.879943933,0
                112.300639388,30.862970783,0
                112.348231524,30.824577757,0
                112.411672457,30.7876613280001,0
                112.469815827,30.7639478850001,0
                112.514730811,30.758712411,0
                112.578132233,30.7587801450001,0
                112.623024639,30.7746784780001,0
                112.683747645,30.8090858260001,0
                112.723328378,30.851395773,0
                112.762903466,30.8989891730001,0
                112.783980828,30.9518462680001,0
                112.791869317,30.9861971710001,0
                112.834105886,31.0153013120001,0
                112.865767085,31.052319341,0
                112.85513527,31.1130677470001,0
                112.820733567,31.168507302,0
                112.796864901,31.255658856,0
                112.775640782,31.340171507,0
                112.735933049,31.416739224,0
                112.698883975,31.4774594080001,0
                112.624856384,31.532856629,0
                112.556129177,31.5724091390001,0
                112.524369199,31.6278515160001,0
                112.503164837,31.6938720850001,0
                112.466093185,31.7757260760001,0
                112.40790466,31.841707134,0
                112.328568216,31.9208742440001,0
                112.249231773,32.0000413540001,0
                112.196354921,32.0396107970001,0
                112.127588203,32.1161474690001,0
                112.085252855,32.179503735,0
                112.029697589,32.2534127930001,0
                111.997923501,32.322063799,0
                111.966135301,32.403923435,0
                111.944919649,32.480510908,0
                111.931657397,32.530689588,0
                111.973893966,32.559793728,0
                112.039914536,32.580998091,0
                112.105952039,32.5863520990001,0
                112.171992363,32.5890643810001,0
                112.216901704,32.5891123590001,0
                112.274999917,32.607666529,0
                112.31722802,32.644695848,0
                112.285445464,32.7212720310001,0
                112.229912777,32.774047282,0
                112.182305266,32.826830999,0
                112.129419947,32.874325621,0
                112.084468274,32.9139035310001,0
                112.036863586,32.964045523,0
                112.015636645,33.051199899,0
                112.015546334,33.1357351280001,0
                112.02867594,33.2097175640001,0
                112.047094643,33.2784221920001,0
                112.062880088,33.33919882,0
                112.076012516,33.410539531,0
                112.115618649,33.4290739460001,0
                112.1763473,33.4581978420001,0
                112.231826366,33.4556153830001,0
                112.258297247,33.4054508130001,0
                112.319082343,33.3817401910001,0
                112.38517629,33.334259682,0
                112.424836045,33.3026013040001,0
                112.456576267,33.2656510090001,0
                112.493571718,33.255123617,0
                112.533191962,33.2604494020001,0
                112.575445465,33.273703187,0
                112.593886746,33.321274009,0
                112.591188576,33.374105704,0
                112.562075968,33.424267452,0
                112.511843665,33.4611979910001,0
                112.464261554,33.4902061760001,0
                112.419309881,33.5297840860001,0
                112.472096421,33.5747498710001,0
                112.543394797,33.60124333,0
                112.601509945,33.6039471450001,0
                112.686042351,33.6066791820001,0
                112.757380238,33.596188479,0
                112.834024156,33.5645696130001,0
                112.881589333,33.551411784,0
                112.926481739,33.567310117,0
                112.952865131,33.599039051,0
                112.958100606,33.643954034,0
                112.889373399,33.6835065450001,0
                112.833883044,33.696655907,0
                112.765178415,33.715074611,0
                112.765141727,33.7494170470001,0
                112.788874926,33.7890683360001,0
                112.844331414,33.807619684,0
                112.928849709,33.823560351,0
                113.021304471,33.82894258,0
                113.097922988,33.8210992470001,0
                113.179805201,33.831753641,0
                113.233691935,33.8476724810001,0
                113.257272052,33.8538507320001,0
                113.338262658,33.8750711640001,0
                113.422775308,33.896295282,0
                113.475606063,33.8998740280001,0
                113.52841424,33.924586581,0
                113.581248757,33.9246430260001,0
                113.627042436,33.921169643,0
                113.693973684,33.9141965380001,0
                113.746819491,33.9036860790001,0
                113.808989543,33.882618666,0
                113.884260734,33.836909113,0
                113.901928684,33.78409341,0
                113.880870137,33.7136248080001,0
                113.809185219,33.6994590050001,0
                113.697702949,33.720473736,0
                113.641349893,33.7168912270001,0
                113.555045989,33.7238436370001,0
                113.489008486,33.718489629,0
                113.457328472,33.6990831050001,0
                113.446811428,33.6524013260001,0
                113.475921212,33.604881305,0
                113.568398551,33.589129728,0
                113.623894551,33.5706969140001,0
                113.729588986,33.5470342690001,0
                113.809393123,33.504851865,0
                113.888174385,33.4705935530001,0
                113.938409509,33.4310212870001,0
                114.022992717,33.386202258,0
                114.083800389,33.34135783,0
                114.155180611,33.2912412380001,0
                114.19484601,33.25429941,0
                114.213408647,33.1882760180001,0
                114.226679366,33.13017216,0
                114.192393374,33.0773009530001,0
                114.16338519,33.0297188420001,0
                114.174008538,32.9768956140001,0
                114.226859989,32.9611017030001,0
                114.279705795,32.9505912450001,0
                114.345794098,32.9083941860001,0
                114.388092757,32.8793803570001,0
                114.438330704,32.837166365,0
                114.464790297,32.7975686990001,0
                114.475430579,32.7288951150001,0
                114.472870697,32.6522822420001,0
                114.435931691,32.609975117,0
                114.375171996,32.6099102060001,0
                114.3144123,32.6098452950001,0
                114.250962902,32.654686901,0
                114.208633198,32.7127597150001,0
                114.158440406,32.7127060920001,0
                114.113570578,32.6756739510001,0
                114.097790778,32.6096138710001,0
                114.039717964,32.567284167,0
                113.968425232,32.5355072570001,0
                113.931472114,32.5064087600001,0
                113.899822204,32.458823828,0
                113.899875826,32.4086310370001,0
                113.944824678,32.371694851,0
                114.002942647,32.3717569410001,0
                114.058418891,32.371816208,0
                114.105944556,32.395642541,0
                114.161392578,32.422119067,0
                114.211562792,32.443306496,0
                114.267024924,32.456574393,0
                114.340996071,32.454011689,0
                114.428198425,32.43032929,0
                114.48371418,32.3934043950001,0
                114.531318868,32.343262404,0
                114.570967335,32.322170929,0
                114.644955415,32.3037578710001,0
                114.729490643,32.303848182,0
                114.777041709,32.3038989820001,0
                114.837829628,32.2775466350001,0
                114.922384611,32.2591448650001,0
                115.009575677,32.246029369,0
                115.104677809,32.24613097,0
                115.181287859,32.246212815,0
                115.25789791,32.24629466,0
                115.374133848,32.2464188380001,0
                115.466594255,32.2465176170001,0
                115.57226329,32.246630506,0
                115.646209037,32.2678433360001,0
                115.722773931,32.310192794,0
                115.775554827,32.360442031,0
                115.844208655,32.389574393,0
                115.923440677,32.4081511420001,0
                115.939240232,32.455719141,0
                115.915368742,32.5455124210001,0
                115.915258675,32.648539731,0
                115.93897212,32.7066831000001,0
                115.991764303,32.7463654330001,0
                116.049870984,32.7569944260001,0
                116.10274219,32.722708434,0
                116.163555508,32.672580553,0
                116.229652278,32.622458318,0
                116.271956582,32.5881610370001,0
                116.319547158,32.5512276750001,0
                116.375051624,32.5248696830001,0
                116.433178061,32.5170065940001,0
                116.493937756,32.517071506,0
                116.544113614,32.5329754840001,0
                116.591630814,32.5647269950001,0
                116.63382505,32.6334570240001,0
                116.649570982,32.731217814,0
                116.660101197,32.7655715390001,0
                116.720815737,32.8079040650001,0
                116.802706417,32.81063328,0
                116.887227534,32.8239322220001,0
                116.974379088,32.8478008880001,0
                117.079974745,32.91659865,0
                117.145955803,32.9747871760001,0
                117.209303601,33.0250477020001,0
                117.291132193,33.0858948860001,0
                117.367691443,33.1335277970001,0
                117.457498834,33.144190656,0
                117.515580115,33.178595181,0
                117.571005558,33.2262055140001,0
                117.652845438,33.276485796,0
                117.689784445,33.3187929220001,0
                117.758410051,33.3743425420001,0
                117.816465931,33.4325226010001,0
                117.919544041,33.3850816020001,0
                117.998826862,33.3561072850001,0
                118.064875653,33.3508943890001,0
                118.149436282,33.327209168,0
                118.236632992,33.3088102200001,0
                118.313262798,33.290399984,0
                118.397798026,33.290490295,0
                118.492880403,33.3090839770001,0
                118.609107875,33.3171333330001,0
                118.725312769,33.346316496,0
                118.815122983,33.35433763,0
                118.878510293,33.3676139930001,0
                118.939219188,33.41522997,0
                119.023681038,33.484005154,0
                119.100206422,33.5633387760001,0
                119.166218524,33.5924683170001,0
                119.242828575,33.5925501610001,0
                119.322054951,33.6164103610001,0
                119.390711602,33.6429009980001,0
                119.443495319,33.690508509,0
                119.469844845,33.753938152,0
                119.475021052,33.85432938,0
                119.541007754,33.907234454,0
                119.651889685,33.973396135,0
                119.74428518,34.0342546090001,0
                119.839353445,34.0660569200001,0
                119.942352532,34.0925842460001,0
                119.984591924,34.11904666,0
                119.947508984,34.2114675550001,0
                119.897228702,34.293307435,0
                119.852237518,34.3698695080001,0
                119.791376222,34.4649067280001,0
                119.749052163,34.5176960900001,0
                119.675007638,34.588943667,0
                119.600968757,34.654907791,0
                119.542805632,34.6971133160001,0
                119.510092272,34.8042055700001,0
                119.70874647,34.815022728,0
                119.886226218,34.8246868900001,0
                120.131322134,34.8380329020001,0
                120.350572222,34.8499715510001,0
                120.58199538,34.862573051,0
                120.822317223,34.875659103,0
                121.061889413,34.888704336,0
                121.30221174,34.9017904150001,0
                121.497013745,34.9123978120001,0
                121.737336261,34.9254839010001,0
                122.033851942,34.941629832,0
                122.413907521,34.9623246940001,0
                122.646830967,34.9750078870001,0
                122.902481277,34.988928609,0
                122.930942224,34.8970031600001,0
                122.963262771,34.792611665,0
                123.006999294,34.651347937,0
                123.047283393,34.5212351210001,0
                123.080217983,34.4148603410001,0
                123.120848322,34.2836292120001,0
                123.176233643,34.1544764290001,0
                123.21287308,34.0690370880001,0
                123.271745878,33.931751868,0
                123.315860337,33.8288815560001,0
                123.372004442,33.697959365,0
                123.425298328,33.573683585,0
                123.507921233,33.448160984,0
                123.548702317,33.3862054300001,0
                123.609466255,33.293891468,0
              </coordinates>
            </LinearRing>
          </outerBoundaryIs>
        </Polygon>
      </Placemark>
    </Document>
  </Document>
</kml>
