<?xml version="1.0" encoding="UTF-8"?>
<kml xmlns="http://www.opengis.net/kml/2.2">
  <Document id="root_doc">
    <Schema id="Bioregions_PA51.schema">
      <SimpleField name="OBJECTID" type="float"/>
      <SimpleField name="Shape_Leng" type="float"/>
      <SimpleField name="Shape_Area" type="float"/>
      <SimpleField name="Bioregions" type="string"/>
    </Schema>
    <Document id="Bioregions_PA51">
      <name>Bioregions_PA51</name>
      <Placemark id="Bioregions_PA51.1">
        <ExtendedData>
          <SchemaData schemaUrl="#Bioregions_PA51.schema">
            <SimpleData name="OBJECTID">106</SimpleData>
            <SimpleData name="Shape_Leng">35.00603267130</SimpleData>
            <SimpleData name="Shape_Area">37.05644897160</SimpleData>
            <SimpleData name="Bioregions">PA51</SimpleData>
          </SchemaData>
        </ExtendedData>
        <Polygon>
          <outerBoundaryIs>
            <LinearRing>
              <coordinates>
                105.130348875,34.7574456200001,0
                105.169135581,34.7187417010001,0
                105.200896498,34.6624187480001,0
                105.22912759,34.613136636,0
                105.246791778,34.563843234,0
                105.218654761,34.525067817,0
                105.162316757,34.5073961040001,0
                105.095419376,34.4826684990001,0
                105.010921777,34.447355175,0
                104.926409126,34.4261310570001,0
                104.937036238,34.369785527,0
                104.931831809,34.295811558,0
                104.921366505,34.2006981370001,0
                104.958412757,34.1426196790001,0
                105.037664533,34.142704345,0
                105.164439154,34.1692570720001,0
                105.275335195,34.222210123,0
                105.380959076,34.2645906270001,0
                105.491855118,34.317543678,0
                105.586900806,34.370479797,0
                105.676702552,34.3864261080001,0
                105.766526876,34.3812386120001,0
                105.856334268,34.391901472,0
                105.940796118,34.4606766570001,0
                106.078098131,34.5242248330001,0
                106.162633359,34.5243151450001,0
                106.284180972,34.498027709,0
                106.400478999,34.440033918,0
                106.527310065,34.4137521270001,0
                106.638330286,34.3504692390001,0
                106.738715869,34.350576484,0
                106.870802163,34.350717596,0
                106.992293332,34.377264677,0
                107.108546204,34.3615385000001,0
                107.224787788,34.356379227,0
                107.362219622,34.2984080140001,0
                107.483778525,34.261553674,0
                107.621187782,34.2247162680001,0
                107.748041425,34.177300669,0
                107.9224292,34.145786226,0
                108.044021969,34.0772311760001,0
                108.271210395,34.077473888,0
                108.40858014,34.077620644,0
                108.545978109,34.0513501410001,0
                108.69919821,34.0515138310001,0
                108.794328564,34.025198172,0
                108.910564503,34.0253223510001,0
                109.058427775,34.094165269,0
                109.18520804,34.115434543,0
                109.364828466,34.131476811,0
                109.475707576,34.2002802170001,0
                109.613009588,34.2638283950001,0
                109.734466889,34.3220761870001,0
                109.834773451,34.396151757,0
                109.966831522,34.4227101270001,0
                110.093589209,34.465113209,0
                110.273187058,34.502289283,0
                110.410483426,34.571120912,0
                110.526679853,34.608229253,0
                110.627076726,34.5977695940001,0
                110.732779629,34.566181773,0
                110.891300115,34.5505007520001,0
                111.012859017,34.5136464120001,0
                111.129140111,34.4715029770001,0
                111.197830629,34.4662929030001,0
                111.266492924,34.487500088,0
                111.361555544,34.524585851,0
                111.43021784,34.5457930360001,0
                111.509480905,34.5353108,0
                111.583432296,34.5512401770001,0
                111.699617435,34.5989154210001,0
                111.784152664,34.5990057330001,0
                111.88455518,34.5832626230001,0
                112.021919283,34.5886928300001,0
                112.127588318,34.588805721,0
                112.238540805,34.5889242540001,0
                112.375916195,34.583787558,0
                112.456949819,34.5645014500001,0
                112.530933195,34.550491268,0
                112.601413086,34.5188658170001,0
                112.62611435,34.4766245440001,0
                112.636737698,34.423801315,0
                112.675546982,34.363963588,0
                112.707319189,34.2970737320001,0
                112.707371871,34.247761515,0
                112.746143525,34.2231468000001,0
                112.781407929,34.1844391170001,0
                112.809654072,34.1210678,0
                112.809725568,34.054144077,0
                112.837960423,34.0013396630001,0
                112.88727264,34.0013923450001,0
                112.94715176,34.001456316,0
                113.024642385,34.001539101,0
                113.080969101,34.029777718,0
                113.126740201,34.0474381430001,0
                113.176044891,34.0545354270001,0
                113.239446313,34.054603161,0
                113.28875853,34.054655843,0
                113.288830026,33.98773212,0
                113.246603804,33.948941651,0
                113.225533968,33.8890399530001,0
                113.233691935,33.8476724810001,0
                113.179805201,33.831753641,0
                113.097922988,33.8210992470001,0
                113.021304471,33.82894258,0
                112.928849709,33.823560351,0
                112.844331414,33.807619684,0
                112.788874926,33.7890683360001,0
                112.765141727,33.7494170470001,0
                112.765178415,33.715074611,0
                112.833883044,33.696655907,0
                112.889373399,33.6835065450001,0
                112.958100606,33.643954034,0
                112.952865131,33.599039051,0
                112.926481739,33.567310117,0
                112.881589333,33.551411784,0
                112.834024156,33.5645696130001,0
                112.757380238,33.596188479,0
                112.686042351,33.6066791820001,0
                112.601509945,33.6039471450001,0
                112.543394797,33.60124333,0
                112.472096421,33.5747498710001,0
                112.419309881,33.5297840860001,0
                112.464261554,33.4902061760001,0
                112.511843665,33.4611979910001,0
                112.562075968,33.424267452,0
                112.591188576,33.374105704,0
                112.593886746,33.321274009,0
                112.575445465,33.273703187,0
                112.533191962,33.2604494020001,0
                112.493571718,33.255123617,0
                112.456576267,33.2656510090001,0
                112.424836045,33.3026013040001,0
                112.38517629,33.334259682,0
                112.319082343,33.3817401910001,0
                112.258297247,33.4054508130001,0
                112.231826366,33.4556153830001,0
                112.1763473,33.4581978420001,0
                112.115618649,33.4290739460001,0
                112.076012516,33.410539531,0
                112.062880088,33.33919882,0
                112.047094643,33.2784221920001,0
                112.02867594,33.2097175640001,0
                112.015546334,33.1357351280001,0
                112.015636645,33.051199899,0
                112.036863586,32.964045523,0
                112.084468274,32.9139035310001,0
                112.129419947,32.874325621,0
                112.182305266,32.826830999,0
                112.229912777,32.774047282,0
                112.285445464,32.7212720310001,0
                112.31722802,32.644695848,0
                112.274999917,32.607666529,0
                112.216901704,32.5891123590001,0
                112.171992363,32.5890643810001,0
                112.105952039,32.5863520990001,0
                112.039914536,32.580998091,0
                111.973893966,32.559793728,0
                111.931657397,32.530689588,0
                111.944919649,32.480510908,0
                111.966135301,32.403923435,0
                111.997923501,32.322063799,0
                112.029697589,32.2534127930001,0
                112.085252855,32.179503735,0
                112.127588203,32.1161474690001,0
                112.196354921,32.0396107970001,0
                112.249231773,32.0000413540001,0
                112.328568216,31.9208742440001,0
                112.40790466,31.841707134,0
                112.466093185,31.7757260760001,0
                112.503164837,31.6938720850001,0
                112.524369199,31.6278515160001,0
                112.556129177,31.5724091390001,0
                112.624856384,31.532856629,0
                112.698883975,31.4774594080001,0
                112.735933049,31.416739224,0
                112.775640782,31.340171507,0
                112.796864901,31.255658856,0
                112.820733567,31.168507302,0
                112.85513527,31.1130677470001,0
                112.865767085,31.052319341,0
                112.834105886,31.0153013120001,0
                112.791869317,30.9861971710001,0
                112.783980828,30.9518462680001,0
                112.762903466,30.8989891730001,0
                112.723328378,30.851395773,0
                112.683747645,30.8090858260001,0
                112.623024639,30.7746784780001,0
                112.578132233,30.7587801450001,0
                112.514730811,30.758712411,0
                112.469815827,30.7639478850001,0
                112.411672457,30.7876613280001,0
                112.348231524,30.824577757,0
                112.300639388,30.862970783,0
                112.245144948,30.879943933,0
                112.176451608,30.8877957330001,0
                112.110408461,30.887725177,0
                112.044391977,30.862697026,0
                111.986274008,30.8626349370001,0
                111.912332642,30.8373207180001,0
                111.856862043,30.8319779990001,0
                111.7855552,30.8134097180001,0
                111.719554386,30.7737132730001,0
                111.658822913,30.747231103,0
                111.600735988,30.7181100290001,0
                111.550582708,30.6810722450001,0
                111.457173052,30.745254522,0
                111.337339553,30.8155726040001,0
                111.20345824,30.8471303220001,0
                111.111810676,30.910433906,0
                110.991988465,30.970185085,0
                110.872211411,30.9876686490001,0
                110.717230159,30.987503078,0
                110.59045742,30.9591892010001,0
                110.4776911,31.0083810030001,0
                110.315635143,31.0363863150001,0
                110.111334148,31.0432126650001,0
                109.998605459,31.057181454,0
                109.885906873,31.042971833,0
                109.745090085,30.972375291,0
                109.561998157,30.908778195,0
                109.371771316,30.9297088010001,0
                109.15337359,30.9435647010001,0
                109.040659953,30.9434442850001,0
                108.903290207,30.9432975290001,0
                108.773040323,30.872712275,0
                108.639320819,30.7528110420001,0
                108.540854432,30.6047690290001,0
                108.428276261,30.477845772,0
                108.329794821,30.3438929640001,0
                108.174866251,30.294415176,0
                108.076362233,30.181596175,0
                108.006051677,30.0547180720001,0
                107.886368696,29.9841441070001,0
                107.794849073,29.927689451,0
                107.689180038,29.9275765620001,0
                107.541356278,29.821749481,0
                107.414583539,29.7934356050001,0
                107.301869902,29.7933151890001,0
                107.210229863,29.849574171,0
                107.055308819,29.79305178,0
                106.914514609,29.7013214310001,0
                106.801853653,29.6518887990001,0
                106.66809652,29.567210577,0
                106.576599474,29.489622114,0
                106.520325441,29.4120712800001,0
                106.562720996,29.2923581960001,0
                106.414904763,29.179486513,0
                106.302281436,29.0948308690001,0
                106.147382969,29.0171746720001,0
                105.994211787,28.971221067,0
                105.819931256,28.902349927,0
                105.714301733,28.8652528750001,0
                105.466058522,28.79101926,0
                105.312872287,28.75915486,0
                105.186086378,28.7431690380001,0
                105.064566988,28.7430392150001,0
                104.93246376,28.7587484580001,0
                104.830328315,28.7480724280001,0
                104.731703881,28.7479670650001,0
                104.619027874,28.712623638,0
                104.516948873,28.6491130900001,0
                104.379579127,28.6489663340001,0
                104.280954694,28.64886097,0
                104.233403628,28.64881017,0
                104.182298276,28.6786951670001,0
                104.168165797,28.7191865790001,0
                104.198060201,28.761486178,0
                104.263173854,28.8073457080001,0
                104.293062614,28.8549287600001,0
                104.285959686,28.9095169030001,0
                104.263025216,28.946476605,0
                104.218958822,28.9816525800001,0
                104.153762384,29.013283675,0
                104.092099535,29.034351631,0
                104.025149472,29.0589362420001,0
                103.938794767,29.1134397170001,0
                103.836561484,29.194343518,0
                103.758986191,29.2735125090001,0
                103.700794843,29.3421352930001,0
                103.644374053,29.401954205,0
                103.605587347,29.4406581260001,0
                103.545670598,29.4758171670001,0
                103.512139122,29.5409439900001,0
                103.480368796,29.606072695,0
                103.466211857,29.6694590650001,0
                103.430919231,29.734584007,0
                103.388602698,29.780328766,0
                103.288187011,29.8083999300001,0
                103.228307891,29.8083359600001,0
                103.150758938,29.8628488430001,0
                103.099631008,29.913867646,0
                103.064345907,29.9719479870001,0
                103.053715033,30.0318158170001,0
                103.099463555,30.07061005,0
                103.148753194,30.091796538,0
                103.183955509,30.1112068250001,0
                103.219044936,30.2362861460001,0
                103.25589363,30.3631285000001,0
                103.303326163,30.474131787,0
                103.387782369,30.5481904230001,0
                103.42997096,30.6222039040001,0
                103.519721906,30.685701281,0
                103.588271312,30.8125775010001,0
                103.598685815,30.9552419880001,0
                103.587989088,31.0767500910001,0
                103.572076644,31.1348511260001,0
                103.667122332,31.187787244,0
                103.762145441,31.26185717,0
                103.846607291,31.330632355,0
                103.968058948,31.394163598,0
                104.031336191,31.510467271,0
                104.094613434,31.6267709430001,0
                104.147385862,31.684945358,0
                104.147312485,31.753630231,0
                104.078582456,31.795824467,0
                104.020402397,31.853880347,0
                104.017712693,31.898786865,0
                104.028220329,31.9542743970001,0
                104.078328455,32.0335797970001,0
                104.128470446,32.0811844850001,0
                104.210332904,32.1103309580001,0
                104.26581197,32.1077485000001,0
                104.342424842,32.105188619,0
                104.392595056,32.1263760480001,0
                104.448012033,32.181911558,0
                104.482295202,32.2374244920001,0
                104.47694684,32.2981785420001,0
                104.429367551,32.324545001,0
                104.37123547,32.337691541,0
                104.31573665,32.358766082,0
                104.25231265,32.379832155,0
                104.241694947,32.427371931,0
                104.26274973,32.5013628340001,0
                104.299668981,32.5621620410001,0
                104.32072941,32.630869492,0
                104.336497922,32.7074964760001,0
                104.328541699,32.736546994,0
                104.296790188,32.7840641930001,0
                104.272963855,32.8315898590001,0
                104.264993522,32.8738490060001,0
                104.283412225,32.942553635,0
                104.328262298,32.9980778560001,0
                104.394215134,33.0826836410001,0
                104.441698466,33.1461358620001,0
                104.505015219,33.2254553720001,0
                104.547186878,33.3153192080001,0
                104.573527936,33.3866740290001,0
                104.568142884,33.481770517,0
                104.538999233,33.5609912480001,0
                104.52571158,33.6349454630001,0
                104.538767809,33.7776127720001,0
                104.557147001,33.883301563,0
                104.54912869,33.9704700500001,0
                104.509463291,34.0074118790001,0
                104.406433158,34.009943537,0
                104.343074071,33.9702499160001,0
                104.303466057,33.9534766520001,0
                104.162442305,34.0766066730001,0
                104.095390642,34.196293417,0
                104.067125684,34.277276241,0
                104.014227195,34.3370989160001,0
                103.950773092,34.3863433990001,0
                103.908437745,34.449699664,0
                103.89780687,34.509567496,0
                103.978778404,34.5483993570001,0
                104.102010027,34.5943209770001,0
                104.207648958,34.6226122750001,0
                104.27101275,34.657903021,0
                104.344943445,34.6932050550001,0
                104.454112204,34.7144555150001,0
                104.49989083,34.725071337,0
                104.510453971,34.728604927,0
                104.587944597,34.7286877120001,0
                104.654868319,34.728759209,0
                104.71826974,34.7288269430001,0
                104.749993029,34.7077270020001,0
                104.788791024,34.658456179,0
                104.834603517,34.63737129,0
                104.876848553,34.658550253,0
                104.933186557,34.6762219660001,0
                104.989509509,34.707982885,0
                105.031743257,34.739728751,0
                105.077506831,34.7644337780001,0
                105.130348875,34.7574456200001,0
              </coordinates>
            </LinearRing>
          </outerBoundaryIs>
        </Polygon>
      </Placemark>
    </Document>
  </Document>
</kml>
