<?xml version="1.0" encoding="UTF-8"?>
<kml xmlns="http://www.opengis.net/kml/2.2">
  <Document id="root_doc">
    <Schema id="Bioregions_PA52.schema">
      <SimpleField name="OBJECTID" type="float"/>
      <SimpleField name="Shape_Leng" type="float"/>
      <SimpleField name="Shape_Area" type="float"/>
      <SimpleField name="Bioregions" type="string"/>
    </Schema>
    <Document id="Bioregions_PA52">
      <name>Bioregions_PA52</name>
      <Placemark id="Bioregions_PA52.1">
        <ExtendedData>
          <SchemaData schemaUrl="#Bioregions_PA52.schema">
            <SimpleData name="OBJECTID">99</SimpleData>
            <SimpleData name="Shape_Leng">56.71214737610</SimpleData>
            <SimpleData name="Shape_Area">46.30665484900</SimpleData>
            <SimpleData name="Bioregions">PA52</SimpleData>
          </SchemaData>
        </ExtendedData>
        <Polygon>
          <outerBoundaryIs>
            <LinearRing>
              <coordinates>
                110.4776911,31.0083810030001,0
                110.59045742,30.9591892010001,0
                110.717230159,30.987503078,0
                110.872211411,30.9876686490001,0
                110.991988465,30.970185085,0
                111.111810676,30.910433906,0
                111.20345824,30.8471303220001,0
                111.337339553,30.8155726040001,0
                111.457173052,30.745254522,0
                111.550582708,30.6810722450001,0
                111.529527923,30.6070813420001,0
                111.532226094,30.5542496470001,0
                111.556066538,30.493515351,0
                111.595748872,30.440723167,0
                111.638081396,30.3800086270001,0
                111.664572033,30.3113519770001,0
                111.68310927,30.269104118,0
                111.709582974,30.216297823,0
                111.74660947,30.1767114460001,0
                111.799460921,30.1609175350001,0
                111.860217795,30.163624172,0
                111.926249652,30.174261632,0
                111.981734363,30.1663957210001,0
                112.026686037,30.126817811,0
                112.058431902,30.0845840640001,0
                112.074352814,30.01855785,0
                112.071798577,29.936661525,0
                112.137855836,29.9235234510001,0
                112.198640931,29.89981283,0
                112.243581315,29.8708018230001,0
                112.272685456,29.8285652540001,0
                112.272739079,29.778372462,0
                112.235805717,29.7307818840001,0
                112.188271584,29.7148807290001,0
                112.127511888,29.714815818,0
                112.064110467,29.7147480840001,0
                112.000703401,29.7199638020001,0
                111.934665899,29.7146097940001,0
                111.876581796,29.682846995,0
                111.831709145,29.6484565800001,0
                111.808029569,29.5586125,0
                111.776410702,29.481968583,0
                111.75007811,29.402688584,0
                111.718464889,29.3207612150001,0
                111.684187364,29.2599648300001,0
                111.644637676,29.1885958980001,0
                111.65790275,29.1357754910001,0
                111.713443905,29.075075063,0
                111.753123416,29.024924604,0
                111.761116327,28.96153165,0
                111.734752691,28.9113106360001,0
                111.708363654,28.8848651550001,0
                111.655543248,28.8716000810001,0
                111.618561908,28.8689188440001,0
                111.565721746,28.874145851,0
                111.481183695,28.8766972650001,0
                111.386084386,28.8739539380001,0
                111.298913076,28.868577353,0
                111.211753055,28.852633864,0
                111.111381583,28.8393179890001,0
                111.04007474,28.8207497080001,0
                110.974068281,28.7863367150001,0
                110.902778372,28.7519180790001,0
                110.836791669,28.699013005,0
                110.770816256,28.635541028,0
                110.720682731,28.5800111620001,0
                110.673185287,28.52976757,0
                110.641532554,28.484824363,0
                110.514783334,28.4344961040001,0
                110.427657181,28.386851904,0
                110.316769604,28.3259736750001,0
                110.174184141,28.262419854,0
                110.071224565,28.1989083650001,0
                110.060759261,28.1037949440001,0
                110.060917306,27.9558582940001,0
                110.042563515,27.8263939710001,0
                110.032078456,27.749772631,0
                110.077052708,27.689060913,0
                110.145698069,27.7261184540001,0
                110.214326497,27.77902635,0
                110.290908326,27.8055254540001,0
                110.391274154,27.82412478,0
                110.475809382,27.824215091,0
                110.533952751,27.8005016480001,0
                110.520800567,27.747653019,0
                110.470647286,27.710615234,0
                110.402030147,27.6471404340001,0
                110.367721577,27.615403035,0
                110.309651586,27.5704316060001,0
                110.241045736,27.4963899030001,0
                110.182995499,27.4329263930001,0
                110.183111212,27.324615631,0
                110.209596204,27.2612424320001,0
                110.23609813,27.1820188780001,0
                110.296922737,27.121324094,0
                110.336633292,27.0421146510001,0
                110.37105475,26.9681830150001,0
                110.38699824,26.881022994,0
                110.347417508,26.8387130460001,0
                110.30256179,26.788472276,0
                110.228607576,26.7751846250001,0
                110.170492429,26.77248081,0
                110.151955192,26.814728668,0
                110.154532006,26.875491186,0
                110.151833836,26.928322881,0
                110.13328531,26.9811376440001,0
                110.101539444,27.0233713910001,0
                110.046057555,27.028595576,0
                110.040822082,26.9836805910001,0
                110.011847764,26.9043977700001,0
                109.980197854,26.8568128370001,0
                109.927402847,26.8197722310001,0
                109.853490967,26.76685869,0
                109.763745666,26.6980778610001,0
                109.689833785,26.645164321,0
                109.660845356,26.5790901290001,0
                109.676791668,26.489288382,0
                109.711235705,26.394222939,0
                109.766774037,26.336164237,0
                109.835535111,26.264911017,0
                109.862020103,26.201537817,0
                109.862090659,26.1354946700001,0
                109.862189437,26.043034264,0
                109.862262815,25.974349391,0
                109.846477371,25.9135727620001,0
                109.777854588,25.8553814150001,0
                109.709195114,25.8315325030001,0
                109.637843115,25.855231836,0
                109.603461167,25.8921793100001,0
                109.582256805,25.9581998790001,0
                109.574269538,26.016309382,0
                109.576832242,26.090280529,0
                109.576744752,26.172174032,0
                109.5555545,26.224985971,0
                109.513227619,26.2804170590001,0
                109.455030627,26.354323294,0
                109.417978731,26.4176852040001,0
                109.365059546,26.496880536,0
                109.341207813,26.5681817350001,0
                109.346412242,26.6421557050001,0
                109.380664367,26.7267276220001,0
                109.438714603,26.7901911320001,0
                109.49148421,26.8510072730001,0
                109.597077045,26.9224467600001,0
                109.72379522,27.001834005,0
                109.821468522,27.067981574,0
                109.934995001,27.131504351,0
                109.95078609,27.1869975290001,0
                109.916404142,27.2239450010001,0
                109.860927898,27.2238857350001,0
                109.776415248,27.2026616160001,0
                109.736763959,27.226394816,0
                109.69974593,27.2580560150001,0
                109.631021546,27.2949667990001,0
                109.554383273,27.321302213,0
                109.490962096,27.3397265610001,0
                109.403762564,27.360767234,0
                109.324507965,27.3633242930001,0
                109.271670625,27.3659095740001,0
                109.195046464,27.3790363590001,0
                109.158025612,27.4133392840001,0
                109.20022267,27.479427587,0
                109.205455322,27.5269842970001,0
                109.194820684,27.5903744300001,0
                109.168335692,27.6537476280001,0
                109.118145722,27.65105228,0
                109.030960302,27.658884324,0
                108.954327673,27.679936287,0
                108.917320933,27.701030582,0
                108.901419777,27.748564715,0
                108.904024814,27.7829099730001,0
                108.940955355,27.833142277,0
                108.98052762,27.8833774020001,0
                109.030649856,27.9494741720001,0
                109.086052722,28.0182183110001,0
                109.109754876,28.0869285850001,0
                109.112340158,28.1397659240001,0
                109.083241661,28.1767190420001,0
                109.054171387,28.1872549010001,0
                108.993437092,28.163414457,0
                108.908966775,28.10256445,0
                108.827101496,28.0760597010001,0
                108.779556074,28.0707254500001,0
                108.702937557,28.078568783,0
                108.63954178,28.0732175970001,0
                108.584093758,28.046741072,0
                108.539235218,27.9991420280001,0
                108.528738871,27.933087592,0
                108.512967539,27.8591023340001,0
                108.494534724,27.8036063340001,0
                108.462893281,27.7480962240001,0
                108.415393015,27.7004943580001,0
                108.312399572,27.66868358,0
                108.341517824,27.613238381,0
                108.365363913,27.5472206330001,0
                108.344272439,27.507572168,0
                108.280896418,27.4837289010001,0
                108.220148012,27.4730970860001,0
                108.14354925,27.4624483380001,0
                108.045827969,27.4412101080001,0
                107.958670771,27.422624893,0
                107.88207201,27.411976145,0
                107.7869981,27.3854572860001,0
                107.718364027,27.3378328410001,0
                107.718434583,27.2717896940001,0
                107.718505139,27.205746547,0
                107.726543206,27.100085979,0
                107.73983368,27.023490039,0
                107.790026472,27.0235436610001,0
                107.853413782,27.0368200240001,0
                107.853334759,27.1107883490001,0
                107.874395188,27.179495801,0
                107.913933587,27.2614316360001,0
                107.982593061,27.2852805470001,0
                108.053936592,27.269506392,0
                108.075163534,27.182352016,0
                108.114857155,27.1189929280001,0
                108.165044302,27.1243300020001,0
                108.215194761,27.1640095130001,0
                108.273278864,27.1957723130001,0
                108.355135677,27.2302022390001,0
                108.410665543,27.1800687140001,0
                108.38167147,27.1192779740001,0
                108.365894492,27.0505761680001,0
                108.376526307,26.9898277610001,0
                108.421509025,26.9211908660001,0
                108.471763907,26.863126519,0
                108.514104899,26.7944868020001,0
                108.514158522,26.74429401,0
                108.485170092,26.6782198180001,0
                108.466745745,26.614798641,0
                108.405994516,26.6068085520001,0
                108.358477317,26.575057041,0
                108.337391488,26.5301251230001,0
                108.379688265,26.502872446,0
                108.443129198,26.4659560170001,0
                108.508329399,26.4308026200001,0
                108.573512668,26.4114995780001,0
                108.659812809,26.408069471,0
                108.710856073,26.4363024420001,0
                108.730147825,26.512052614,0
                108.745913513,26.591321325,0
                108.735269469,26.6635172100001,0
                108.72112382,26.716336676,0
                108.708746846,26.762113421,0
                108.705164338,26.818466476,0
                108.724467379,26.8836497450001,0
                108.77022719,26.911877073,0
                108.828324464,26.931311818,0
                108.90582826,26.919066549,0
                108.960440862,26.9032745210001,0
                108.965810862,26.8222672380001,0
                108.942957298,26.783497465,0
                108.874308172,26.749962226,0
                108.876129531,26.6936072890001,0
                108.90262393,26.6214283370001,0
                108.950225796,26.5739280710001,0
                109.01019711,26.4876956630001,0
                109.008518745,26.410203156,0
                108.945200109,26.3326447960001,0
                108.93471411,26.256904032,0
                108.89076813,26.179366369,0
                108.804548893,26.1070670010001,0
                108.739376913,26.115803139,0
                108.688265916,26.1509715880001,0
                108.626572964,26.2002179520001,0
                108.580781168,26.201930184,0
                108.527982398,26.168411878,0
                108.455826024,26.1207836720001,0
                108.378339161,26.117178585,0
                108.323758545,26.103031054,0
                108.286836472,26.0448735730001,0
                108.27809657,25.983223895,0
                108.290477307,25.9339248490001,0
                108.283507964,25.863471299,0
                108.258925233,25.7947600860001,0
                108.250187214,25.731349257,0
                108.199162766,25.6855047780001,0
                108.11996367,25.6361078950001,0
                108.060122181,25.6008209120001,0
                107.987946992,25.5708042110001,0
                107.915764277,25.547832113,0
                107.815378693,25.547724868,0
                107.75196222,25.561746339,0
                107.637485551,25.5633851920001,0
                107.567039527,25.563309932,0
                107.493048624,25.584364717,0
                107.487704965,25.6407158910001,0
                107.510532188,25.7041417720001,0
                107.554489457,25.7711125320001,0
                107.587883584,25.8345497010001,0
                107.640669183,25.8803960610001,0
                107.7093089,25.922737053,0
                107.760369097,25.9351196710001,0
                107.822041353,25.905245963,0
                107.866079525,25.896487247,0
                107.908298221,25.942322318,0
                107.924078961,26.007501824,0
                107.922257603,26.0638567610001,0
                107.911621084,26.129008044,0
                107.871095806,26.1465762760001,0
                107.811216686,26.146512305,0
                107.737242716,26.151716734,0
                107.670313349,26.156928689,0
                107.547015875,26.17264734,0
                107.547057267,26.133902027,0
                107.547121238,26.074022907,0
                107.520775476,26.0070709620001,0
                107.476810682,25.9471448050001,0
                107.432851532,25.881935196,0
                107.408261276,25.8202685850001,0
                107.367803732,25.7744353950001,0
                107.309730918,25.7321056920001,0
                107.237574544,25.6844774850001,0
                107.149582867,25.6227431400001,0
                107.077435899,25.5663091800001,0
                107.051092019,25.4975960840001,0
                107.038826054,25.4394649450001,0
                107.017756217,25.379563246,0
                106.971986999,25.3601416710001,0
                106.899776061,25.3635868310001,0
                106.79940553,25.349390382,0
                106.741310138,25.328194485,0
                106.67967363,25.324606332,0
                106.616266565,25.3298220500001,0
                106.521171959,25.3226758480001,0
                106.457772419,25.3208469630001,0
                106.390848696,25.320775467,0
                106.322190164,25.29604598,0
                106.274682373,25.2554887160001,0
                106.258884699,25.206159567,0
                106.25894867,25.146280446,0
                106.259018285,25.081117874,0
                106.29429586,25.0300821380001,0
                106.326081238,24.9508642280001,0
                106.342027549,24.861062481,0
                106.271626681,24.818719607,0
                106.208292993,24.755250453,0
                106.23302342,24.6857113450001,0
                106.273611729,24.609144569,0
                106.313302529,24.548427207,0
                106.34946162,24.496511834,0
                106.406782741,24.418201782,0
                106.457930426,24.3486908960001,0
                106.479115974,24.300281833,0
                106.499422828,24.250110679,0
                106.499470806,24.205201339,0
                106.466055983,24.1611368260001,0
                106.44494005,24.1443833170001,0
                106.408862803,24.1196886390001,0
                106.399232919,24.0668437730001,0
                106.402798495,24.026341071,0
                106.428364342,23.999070519,0
                106.468004342,23.985904223,0
                106.509405491,23.9727398090001,0
                106.554329883,23.9586985830001,0
                106.59221908,23.935844076,0
                106.606353441,23.893591515,0
                106.579970049,23.861862581,0
                106.515707807,23.8433018260001,0
                106.406614308,23.7516053430001,0
                106.293987219,23.6704720000001,0
                106.156692733,23.599879221,0
                106.026463388,23.5100687660001,0
                105.93053352,23.4605065530001,0
                105.868019259,23.454275732,0
                105.784366488,23.452425212,0
                105.712153669,23.457631522,0
                105.647856621,23.471652052,0
                105.594114246,23.4971313510001,0
                105.55132829,23.511535157,0
                105.528928156,23.519076118,0
                105.413517288,23.570906823,0
                105.339509451,23.607811962,0
                105.24965126,23.644700169,0
                105.149243099,23.6657267310001,0
                105.069985678,23.6709255160001,0
                104.974894835,23.6602570110001,0
                104.911532925,23.6232051160001,0
                104.811175564,23.5966806120001,0
                104.758335402,23.601907619,0
                104.668544944,23.5753944040001,0
                104.689735195,23.522582464,0
                104.737365284,23.448664939,0
                104.737438662,23.3799800670001,0
                104.684632366,23.3535063630001,0
                104.600040694,23.4062505700001,0
                104.520788917,23.4061659020001,0
                104.44153714,23.406081236,0
                104.357001912,23.405990924,0
                104.214348714,23.4058385230001,0
                104.076978969,23.4056917670001,0
                103.966026481,23.405573233,0
                103.886774705,23.405488566,0
                103.812806381,23.4054095440001,0
                103.675436634,23.405262787,0
                103.527499985,23.405104742,0
                103.448203052,23.4472876900001,0
                103.389983483,23.542327732,0
                103.337053009,23.6320899680001,0
                103.270925195,23.7112711880001,0
                103.226046899,23.6821642260001,0
                103.194388522,23.6425044710001,0
                103.194433677,23.600236856,0
                103.18128996,23.5394630500001,0
                103.157573694,23.483961406,0
                103.110079073,23.4310760880001,0
                103.054631051,23.404599562,0
                103.00443826,23.40454594,0
                102.922527823,23.420308806,0
                102.845886728,23.449285945,0
                102.769248455,23.47562136,0
                102.679401553,23.501942662,0
                102.589549006,23.533547417,0
                102.507649859,23.53874338,0
                102.409900356,23.5439224090001,0
                102.301561373,23.5702239560001,0
                102.222284197,23.593914822,0
                102.132434472,23.6228778510001,0
                102.01614491,23.6729464640001,0
                101.93947277,23.7309825890001,0
                101.873364712,23.791671729,0
                101.799314542,23.8682027570001,0
                101.749039906,23.9447591840001,0
                101.693470528,24.0318768720001,0
                101.65639041,24.1216560400001,0
                101.629896951,24.1929544170001,0
                101.606025462,24.282747697,0
                101.592746276,24.348776733,0
                101.531930137,24.40154634,0
                101.494909286,24.4358492650001,0
                101.447313064,24.478066079,0
                101.405011583,24.509721633,0
                101.367990731,24.544024559,0
                101.30718588,24.586227262,0
                101.249025577,24.625791061,0
                101.211979325,24.683869519,0
                101.196086636,24.723478474,0
                101.161690578,24.7736345760001,0
                101.106163534,24.8211263750001,0
                101.069139861,24.8580710270001,0
                101.018893446,24.908210196,0
                100.955424291,24.971543883,0
                100.921042343,25.008491357,0
                100.886680151,25.026946749,0
                100.862901796,25.0295630750001,0
                100.825934567,25.0136732080001,0
                100.799568109,24.96609392,0
                100.770531701,24.9449290680001,0
                100.738836636,24.93961175,0
                100.680707377,24.950116564,0
                100.649001022,24.955366149,0
                100.606702364,24.984379978,0
                100.561761978,25.0133909850001,0
                100.519440742,25.0635386210001,0
                100.474474957,25.11632516,0
                100.440087365,25.158556085,0
                100.384594188,25.174347174,0
                100.331762493,25.1716490040001,0
                100.308009538,25.150489796,0
                100.305410145,25.1108610860001,0
                100.321316945,25.058043502,0
                100.337220923,25.0078676430001,0
                100.350485996,24.955047237,0
                100.371698826,24.88110149,0
                100.39819793,24.8045196620001,0
                100.424682922,24.7411464620001,0
                100.451165093,24.680414989,0
                100.475019648,24.606472065,0
                100.467167849,24.5377787260001,0
                100.424953858,24.487540778,0
                100.39062271,24.4769371850001,0
                100.348340984,24.4901006580001,0
                100.308653007,24.5481762950001,0
                100.271618044,24.5956878490001,0
                100.218707326,24.666958004,0
                100.17638609,24.7171056400001,0
                100.139345482,24.7699006460001,0
                100.097041179,24.804197926,0
                100.062664876,24.835861949,0
                100.009813425,24.8516558590001,0
                99.9675119440001,24.883311414,0
                99.9066816930001,24.949289649,0
                99.8352732490001,25.0258235000001,0
                99.7850127240001,25.089171299,0
                99.7347691320001,25.136668742,0
                99.6898118130001,25.181530104,0
                99.639565399,25.231669273,0
                99.594602437,25.281814088,0
                99.544356022,25.3319532570001,0
                99.5046793340001,25.379461989,0
                99.449132535,25.4454458700001,0
                99.4015165580001,25.506154764,0
                99.3776704690001,25.5721725110001,0
                99.3670414760001,25.630279192,0
                99.348498594,25.6778105020001,0
                99.329933135,25.7464756200001,0
                99.3034340310001,25.823057448,0
                99.2716458310001,25.904917083,0
                99.239880209,25.9656429120001,0
                99.218681491,26.02638003,0
                99.1736959500001,26.09765865,0
                99.1577750390001,26.1636848640001,0
                99.157698839,26.235011463,0
                99.1576395720001,26.2904877070001,0
                99.1892866600001,26.3407143650001,0
                99.2077364080001,26.3803600090001,0
                99.273776733,26.3830722910001,0
                99.3186719620001,26.396328899,0
                99.3873060340001,26.443953343,0
                99.4507102780001,26.44137935,0
                99.5088508250001,26.4203076320001,0
                99.5643524690001,26.396591367,0
                99.6251149860001,26.394014552,0
                99.6620709270001,26.420471322,0
                99.6884458520001,26.460125432,0
                99.7042623400001,26.4918430760001,0
                99.7597075400001,26.5209613280001,0
                99.8363175900001,26.5210431730001,0
                99.9076413670001,26.5237610990001,0
                100.002726565,26.539713055,0
                100.066142098,26.5265721590001,0
                100.066178786,26.492229723,0
                100.100577668,26.4394318940001,0
                100.153440408,26.4130710800001,0
                100.214222681,26.392002184,0
                100.269707391,26.384136273,0
                100.31195525,26.4026735100001,0
                100.343616449,26.439691539,0
                100.375252248,26.500485102,0
                100.393673774,26.566548004,0
                100.406806203,26.637888715,0
                100.427869454,26.703954439,0
                100.451585721,26.759456083,0
                100.496435793,26.8149803050001,0
                100.562476118,26.8176925860001,0
                100.641742006,26.8045686240001,0
                100.702515812,26.791424906,0
                100.768578715,26.773003381,0
                100.842552684,26.7677989520001,0
                100.91388775,26.759949975,0
                100.977345616,26.70718319,0
                101.046053067,26.686122761,0
                101.12003268,26.6756348800001,0
                101.183417168,26.691552969,0
                101.241498449,26.7259574940001,0
                101.270484055,26.7946734120001,0
                101.278344322,26.8554415740001,0
                101.288818091,26.9426298180001,0
                101.28079978,27.029798305,0
                101.24638961,27.0931630370001,0
                101.230479988,27.1486223470001,0
                101.193439381,27.2014173540001,0
                101.17489791,27.2476278010001,0
                101.129930714,27.3017352040001,0
                101.129851692,27.3757035290001,0
                101.172082618,27.4100911210001,0
                101.21698349,27.418064277,0
                101.280365156,27.4366240910001,0
                101.325220873,27.4868648610001,0
                101.356882073,27.523882891,0
                101.388517872,27.5846764520001,0
                101.420145205,27.6533951920001,0
                101.465034789,27.671935251,0
                101.517841085,27.698408955,0
                101.56269398,27.751291451,0
                101.607546875,27.804173946,0
                101.625988156,27.8517447680001,0
                101.673485599,27.9019883600001,0
                101.673434799,27.9495394260001,0
                101.673381177,27.9997322180001,0
                101.673316266,28.0604919130001,0
                101.673240066,28.1318185120001,0
                101.689011398,28.205803771,0
                101.702169227,28.2533689470001,0
                101.741696337,28.3458716870001,0
                101.77332367,28.4145904260001,0
                101.794412321,28.4568806180001,0
                101.841912587,28.504482485,0
                101.913239186,28.5045586850001,0
                101.915954289,28.4358766350001,0
                101.910738571,28.372469569,0
                101.908178691,28.295856696,0
                101.879178973,28.240349408,0
                101.863410463,28.1637224240001,0
                101.842361322,28.0844480690001,0
                101.842471389,27.98142076,0
                101.842570167,27.8889603530001,0
                101.871699708,27.8229482510001,0
                101.921937656,27.780734259,0
                101.98540681,27.717400572,0
                102.019825447,27.6461106620001,0
                102.027798603,27.6012097890001,0
                102.011993403,27.558925242,0
                101.985610011,27.527196308,0
                101.985700323,27.4426610800001,0
                101.98578499,27.363409303,0
                101.985841435,27.3105747860001,0
                101.985907757,27.248494227,0
                102.030866487,27.202312002,0
                102.091637471,27.191810011,0
                102.147088314,27.2156448100001,0
                102.20783672,27.226276625,0
                102.26860206,27.221058085,0
                102.337284111,27.223773189,0
                102.371599737,27.248906274,0
                102.366266896,27.295130832,0
                102.334526674,27.332081127,0
                102.310694696,27.3848902450001,0
                102.284212525,27.445621718,0
                102.268294437,27.509006206,0
                102.268221059,27.577691079,0
                102.268139214,27.6543011300001,0
                102.281257532,27.7388504690001,0
                102.299667768,27.815480275,0
                102.315441923,27.886823808,0
                102.315345967,27.976642488,0
                102.333742093,28.066480923,0
                102.33366307,28.140449248,0
                102.330931032,28.224981654,0
                102.330832254,28.3174420610001,0
                102.31488312,28.4098855330001,0
                102.314775875,28.5102711160001,0
                102.314694031,28.5868811670001,0
                102.314612186,28.663491218,0
                102.314547275,28.724250914,0
                102.33827483,28.7691856540001,0
                102.364621533,28.8352570230001,0
                102.385673495,28.9118896520001,0
                102.406733924,28.980597102,0
                102.422508079,29.0519406350001,0
                102.42244599,29.1100586050001,0
                102.45144853,29.162924166,0
                102.520153159,29.1445054640001,0
                102.575663269,29.1128640200001,0
                102.578364261,29.057390598,0
                102.570498351,29.0019058880001,0
                102.562635263,28.9437794520001,0
                102.544227848,28.8645079200001,0
                102.544312516,28.785256143,0
                102.573444878,28.7166023140001,0
                102.615783048,28.650604323,0
                102.679260669,28.579345458,0
                102.740105032,28.500158593,0
                102.763939832,28.4447077500001,0
                102.764021677,28.368097699,0
                102.764109167,28.2862041970001,0
                102.764219234,28.1831768870001,0
                102.764323656,28.0854330290001,0
                102.764411145,28.0035395260001,0
                102.785640909,27.9137434240001,0
                102.814761983,27.8556564990001,0
                102.888831907,27.7606333900001,0
                102.944356129,27.715783317,0
                103.005192025,27.6445216290001,0
                103.065994053,27.604960653,0
                103.13467046,27.6129592090001,0
                103.211212777,27.6764424740001,0
                103.279841205,27.7293503700001,0
                103.348466811,27.7848999920001,0
                103.409161595,27.8457245990001,0
                103.448725395,27.903884901,0
                103.448640727,27.9831366780001,0
                103.467073542,28.0386326770001,0
                103.467014275,28.094108921,0
                103.48808317,28.1548911950001,0
                103.548792066,28.202507172,0
                103.609509428,28.2421979710001,0
                103.662295967,28.287163756,0
                103.720360314,28.337418637,0
                103.757293676,28.385009214,0
                103.78893512,28.440519324,0
                103.815273357,28.5145158720001,0
                103.815152,28.6281100850001,0
                103.841470481,28.7205987130001,0
                103.920696857,28.7444589130001,0
                104.044857974,28.744591558,0
                104.113542846,28.744664936,0
                104.168165797,28.7191865790001,0
                104.182298276,28.6786951670001,0
                104.233403628,28.64881017,0
                104.280954694,28.64886097,0
                104.379579127,28.6489663340001,0
                104.516948873,28.6491130900001,0
                104.619027874,28.712623638,0
                104.731703881,28.7479670650001,0
                104.830328315,28.7480724280001,0
                104.93246376,28.7587484580001,0
                105.064566988,28.7430392150001,0
                105.186086378,28.7431690380001,0
                105.312872287,28.75915486,0
                105.466058522,28.79101926,0
                105.714301733,28.8652528750001,0
                105.819931256,28.902349927,0
                105.994211787,28.971221067,0
                106.147382969,29.0171746720001,0
                106.302281436,29.0948308690001,0
                106.414904763,29.179486513,0
                106.562720996,29.2923581960001,0
                106.520325441,29.4120712800001,0
                106.576599474,29.489622114,0
                106.66809652,29.567210577,0
                106.801853653,29.6518887990001,0
                106.914514609,29.7013214310001,0
                107.055308819,29.79305178,0
                107.210229863,29.849574171,0
                107.301869902,29.7933151890001,0
                107.414583539,29.7934356050001,0
                107.541356278,29.821749481,0
                107.689180038,29.9275765620001,0
                107.794849073,29.927689451,0
                107.886368696,29.9841441070001,0
                108.006051677,30.0547180720001,0
                108.076362233,30.181596175,0
                108.174866251,30.294415176,0
                108.329794821,30.3438929640001,0
                108.428276261,30.477845772,0
                108.540854432,30.6047690290001,0
                108.639320819,30.7528110420001,0
                108.773040323,30.872712275,0
                108.903290207,30.9432975290001,0
                109.040659953,30.9434442850001,0
                109.15337359,30.9435647010001,0
                109.371771316,30.9297088010001,0
                109.561998157,30.908778195,0
                109.745090085,30.972375291,0
                109.885906873,31.042971833,0
                109.998605459,31.057181454,0
                110.111334148,31.0432126650001,0
                110.315635143,31.0363863150001,0
                110.4776911,31.0083810030001,0
              </coordinates>
            </LinearRing>
          </outerBoundaryIs>
        </Polygon>
      </Placemark>
    </Document>
  </Document>
</kml>
