<?xml version="1.0" encoding="UTF-8"?>
<kml xmlns="http://www.opengis.net/kml/2.2">
  <Document id="root_doc">
    <Schema id="Bioregions_PA53.schema">
      <SimpleField name="OBJECTID" type="float"/>
      <SimpleField name="Shape_Leng" type="float"/>
      <SimpleField name="Shape_Area" type="float"/>
      <SimpleField name="Bioregions" type="string"/>
    </Schema>
    <Document id="Bioregions_PA53">
      <name>Bioregions_PA53</name>
      <Placemark id="Bioregions_PA53.1">
        <ExtendedData>
          <SchemaData schemaUrl="#Bioregions_PA53.schema">
            <SimpleData name="OBJECTID">104</SimpleData>
            <SimpleData name="Shape_Leng">106.11627375500</SimpleData>
            <SimpleData name="Shape_Area">25.20404896980</SimpleData>
            <SimpleData name="Bioregions">PA53</SimpleData>
          </SchemaData>
        </ExtendedData>
        <Polygon>
          <outerBoundaryIs>
            <LinearRing>
              <coordinates>
                104.296790188,32.7840641930001,0
                104.328541699,32.736546994,0
                104.336497922,32.7074964760001,0
                104.32072941,32.630869492,0
                104.299668981,32.5621620410001,0
                104.26274973,32.5013628340001,0
                104.241694947,32.427371931,0
                104.25231265,32.379832155,0
                104.31573665,32.358766082,0
                104.37123547,32.337691541,0
                104.429367551,32.324545001,0
                104.47694684,32.2981785420001,0
                104.482295202,32.2374244920001,0
                104.448012033,32.181911558,0
                104.392595056,32.1263760480001,0
                104.342424842,32.105188619,0
                104.26581197,32.1077485000001,0
                104.210332904,32.1103309580001,0
                104.128470446,32.0811844850001,0
                104.078328455,32.0335797970001,0
                104.028220329,31.9542743970001,0
                104.017712693,31.898786865,0
                104.020402397,31.853880347,0
                104.078582456,31.795824467,0
                104.147312485,31.753630231,0
                104.147385862,31.684945358,0
                104.094613434,31.6267709430001,0
                104.031336191,31.510467271,0
                103.968058948,31.394163598,0
                103.846607291,31.330632355,0
                103.762145441,31.26185717,0
                103.667122332,31.187787244,0
                103.572076644,31.1348511260001,0
                103.587989088,31.0767500910001,0
                103.598685815,30.9552419880001,0
                103.588271312,30.8125775010001,0
                103.519721906,30.685701281,0
                103.42997096,30.6222039040001,0
                103.387782369,30.5481904230001,0
                103.303326163,30.474131787,0
                103.25589363,30.3631285000001,0
                103.219044936,30.2362861460001,0
                103.183955509,30.1112068250001,0
                103.148753194,30.091796538,0
                103.099463555,30.07061005,0
                103.053715033,30.0318158170001,0
                103.064345907,29.9719479870001,0
                103.099631008,29.913867646,0
                103.150758938,29.8628488430001,0
                103.228307891,29.8083359600001,0
                103.288187011,29.8083999300001,0
                103.388602698,29.780328766,0
                103.430919231,29.734584007,0
                103.466211857,29.6694590650001,0
                103.480368796,29.606072695,0
                103.512139122,29.5409439900001,0
                103.545670598,29.4758171670001,0
                103.605587347,29.4406581260001,0
                103.644374053,29.401954205,0
                103.700794843,29.3421352930001,0
                103.758986191,29.2735125090001,0
                103.836561484,29.194343518,0
                103.938794767,29.1134397170001,0
                104.025149472,29.0589362420001,0
                104.092099535,29.034351631,0
                104.153762384,29.013283675,0
                104.218958822,28.9816525800001,0
                104.263025216,28.946476605,0
                104.285959686,28.9095169030001,0
                104.293062614,28.8549287600001,0
                104.263173854,28.8073457080001,0
                104.198060201,28.761486178,0
                104.168165797,28.7191865790001,0
                104.113542846,28.744664936,0
                104.044857974,28.744591558,0
                103.920696857,28.7444589130001,0
                103.841470481,28.7205987130001,0
                103.815152,28.6281100850001,0
                103.815273357,28.5145158720001,0
                103.78893512,28.440519324,0
                103.757293676,28.385009214,0
                103.720360314,28.337418637,0
                103.662295967,28.287163756,0
                103.609509428,28.2421979710001,0
                103.548792066,28.202507172,0
                103.48808317,28.1548911950001,0
                103.467014275,28.094108921,0
                103.467073542,28.0386326770001,0
                103.448640727,27.9831366780001,0
                103.448725395,27.903884901,0
                103.409161595,27.8457245990001,0
                103.348466811,27.7848999920001,0
                103.279841205,27.7293503700001,0
                103.211212777,27.6764424740001,0
                103.13467046,27.6129592090001,0
                103.065994053,27.604960653,0
                103.005192025,27.6445216290001,0
                102.944356129,27.715783317,0
                102.888831907,27.7606333900001,0
                102.814761983,27.8556564990001,0
                102.785640909,27.9137434240001,0
                102.764411145,28.0035395260001,0
                102.764323656,28.0854330290001,0
                102.764219234,28.1831768870001,0
                102.764109167,28.2862041970001,0
                102.764021677,28.368097699,0
                102.763939832,28.4447077500001,0
                102.740105032,28.500158593,0
                102.679260669,28.579345458,0
                102.615783048,28.650604323,0
                102.573444878,28.7166023140001,0
                102.544312516,28.785256143,0
                102.544227848,28.8645079200001,0
                102.562635263,28.9437794520001,0
                102.570498351,29.0019058880001,0
                102.578364261,29.057390598,0
                102.575663269,29.1128640200001,0
                102.520153159,29.1445054640001,0
                102.45144853,29.162924166,0
                102.42244599,29.1100586050001,0
                102.422508079,29.0519406350001,0
                102.406733924,28.980597102,0
                102.385673495,28.9118896520001,0
                102.364621533,28.8352570230001,0
                102.33827483,28.7691856540001,0
                102.314547275,28.724250914,0
                102.314612186,28.663491218,0
                102.314694031,28.5868811670001,0
                102.314775875,28.5102711160001,0
                102.31488312,28.4098855330001,0
                102.330832254,28.3174420610001,0
                102.330931032,28.224981654,0
                102.33366307,28.140449248,0
                102.333742093,28.066480923,0
                102.315345967,27.976642488,0
                102.315441923,27.886823808,0
                102.299667768,27.815480275,0
                102.281257532,27.7388504690001,0
                102.268139214,27.6543011300001,0
                102.268221059,27.577691079,0
                102.268294437,27.509006206,0
                102.284212525,27.445621718,0
                102.310694696,27.3848902450001,0
                102.334526674,27.332081127,0
                102.366266896,27.295130832,0
                102.371599737,27.248906274,0
                102.337284111,27.223773189,0
                102.26860206,27.221058085,0
                102.20783672,27.226276625,0
                102.147088314,27.2156448100001,0
                102.091637471,27.191810011,0
                102.030866487,27.202312002,0
                101.985907757,27.248494227,0
                101.985841435,27.3105747860001,0
                101.98578499,27.363409303,0
                101.985700323,27.4426610800001,0
                101.985610011,27.527196308,0
                102.011993403,27.558925242,0
                102.027798603,27.6012097890001,0
                102.019825447,27.6461106620001,0
                101.98540681,27.717400572,0
                101.921937656,27.780734259,0
                101.871699708,27.8229482510001,0
                101.842570167,27.8889603530001,0
                101.842471389,27.98142076,0
                101.842361322,28.0844480690001,0
                101.863410463,28.1637224240001,0
                101.879178973,28.240349408,0
                101.908178691,28.295856696,0
                101.910738571,28.372469569,0
                101.915954289,28.4358766350001,0
                101.913239186,28.5045586850001,0
                101.841912587,28.504482485,0
                101.794412321,28.4568806180001,0
                101.77332367,28.4145904260001,0
                101.741696337,28.3458716870001,0
                101.702169227,28.2533689470001,0
                101.689011398,28.205803771,0
                101.673240066,28.1318185120001,0
                101.673316266,28.0604919130001,0
                101.673381177,27.9997322180001,0
                101.673434799,27.9495394260001,0
                101.673485599,27.9019883600001,0
                101.625988156,27.8517447680001,0
                101.607546875,27.804173946,0
                101.56269398,27.751291451,0
                101.517841085,27.698408955,0
                101.465034789,27.671935251,0
                101.420145205,27.6533951920001,0
                101.388517872,27.5846764520001,0
                101.356882073,27.523882891,0
                101.325220873,27.4868648610001,0
                101.280365156,27.4366240910001,0
                101.21698349,27.418064277,0
                101.172082618,27.4100911210001,0
                101.129851692,27.3757035290001,0
                101.129930714,27.3017352040001,0
                101.17489791,27.2476278010001,0
                101.193439381,27.2014173540001,0
                101.230479988,27.1486223470001,0
                101.24638961,27.0931630370001,0
                101.28079978,27.029798305,0
                101.288818091,26.9426298180001,0
                101.278344322,26.8554415740001,0
                101.270484055,26.7946734120001,0
                101.241498449,26.7259574940001,0
                101.183417168,26.691552969,0
                101.12003268,26.6756348800001,0
                101.046053067,26.686122761,0
                100.977345616,26.70718319,0
                100.91388775,26.759949975,0
                100.842552684,26.7677989520001,0
                100.768578715,26.773003381,0
                100.702515812,26.791424906,0
                100.641742006,26.8045686240001,0
                100.562476118,26.8176925860001,0
                100.496435793,26.8149803050001,0
                100.451585721,26.759456083,0
                100.427869454,26.703954439,0
                100.406806203,26.637888715,0
                100.393673774,26.566548004,0
                100.375252248,26.500485102,0
                100.343616449,26.439691539,0
                100.31195525,26.4026735100001,0
                100.269707391,26.384136273,0
                100.214222681,26.392002184,0
                100.153440408,26.4130710800001,0
                100.100577668,26.4394318940001,0
                100.066178786,26.492229723,0
                100.066142098,26.5265721590001,0
                100.002726565,26.539713055,0
                99.9076413670001,26.5237610990001,0
                99.8363175900001,26.5210431730001,0
                99.7597075400001,26.5209613280001,0
                99.7042623400001,26.4918430760001,0
                99.6884458520001,26.460125432,0
                99.6620709270001,26.420471322,0
                99.6251149860001,26.394014552,0
                99.5643524690001,26.396591367,0
                99.5088508250001,26.4203076320001,0
                99.4507102780001,26.44137935,0
                99.3873060340001,26.443953343,0
                99.3186719620001,26.396328899,0
                99.273776733,26.3830722910001,0
                99.2077364080001,26.3803600090001,0
                99.1759623190001,26.449011016,0
                99.182931662,26.5194645650001,0
                99.203986446,26.5934554680001,0
                99.2180079170001,26.6568719410001,0
                99.231995522,26.751989125,0
                99.2319164990001,26.825957449,0
                99.2424156700001,26.8893701590001,0
                99.2529186020001,26.949260569,0
                99.2598766560001,27.0302810210001,0
                99.2844763200001,27.08314188,0
                99.2667895540001,27.153569089,0
                99.2315138600001,27.202843676,0
                99.1715895840001,27.245047319,0
                99.0975836300001,27.280191308,0
                99.0412305740001,27.276608799,0
                98.991952224,27.244855407,0
                98.939162863,27.202531348,0
                98.9180779740001,27.1567188550001,0
                98.8934971260001,27.0862464910001,0
                98.8829941930001,27.0263560810001,0
                98.8830845040001,26.941820853,0
                98.8902194180001,26.8572931510001,0
                98.907924999,26.769254436,0
                98.918533295,26.7305204130001,0
                98.92212333,26.667122754,0
                98.9257284160001,26.5896358910001,0
                98.922296427,26.5050969000001,0
                98.8941895140001,26.438143073,0
                98.8625508920001,26.3799912370001,0
                98.824782111,26.2901321050001,0
                98.82483103,26.2443421890001,0
                98.8416184040001,26.191525546,0
                98.8557678170001,26.135183779,0
                98.8734545830001,26.064756571,0
                98.8911451110001,25.9908070610001,0
                98.89476525,25.8992309930001,0
                98.901907689,25.8076586880001,0
                98.9019867120001,25.733690364,0
                98.9126740310001,25.620988015,0
                98.9057197400001,25.5364452600001,0
                98.9023028030001,25.437817065,0
                98.8953372220001,25.363841214,0
                98.8883791690001,25.282820761,0
                98.8884469020001,25.2194193390001,0
                98.8814625080001,25.163054994,0
                98.8427435350001,25.138357494,0
                98.7899090180001,25.1383010490001,0
                98.747543566,25.2298357240001,0
                98.698122223,25.331929776,0
                98.694490795,25.4340727470001,0
                98.662650855,25.564364024,0
                98.6554745480001,25.68763704,0
                98.6412912690001,25.7756795170001,0
                98.6341224880001,25.8919079300001,0
                98.6223539090001,25.98813799,0
                98.6191276150001,26.006987699,0
                98.60745029,26.075212773,0
                98.5721444920001,26.1526657690001,0
                98.5473604430001,26.2723976680001,0
                98.5331771640001,26.360440146,0
                98.533049223,26.480198386,0
                98.5082124910001,26.6492425010001,0
                98.501036185,26.7725155160001,0
                98.490345103,26.888740166,0
                98.497291868,26.9803275240001,0
                98.504212292,27.0965709880001,0
                98.5146474910001,27.2198628190001,0
                98.5110085380001,27.3290503920001,0
                98.4791610710001,27.466386271,0
                98.4508735350001,27.568502902,0
                98.4085231350001,27.6459483720001,0
                98.348602622,27.684629714,0
                98.3150805540001,27.7409507850001,0
                98.2922355860001,27.749433873,0
                98.2921808890001,27.8006320420001,0
                98.2656789640001,27.879855596,0
                98.2418159420001,27.9617236990001,0
                98.212686401,28.0277358010001,0
                98.186201409,28.0911090010001,0
                98.1729081120001,28.1703466650001,0
                98.172846023,28.228464635,0
                98.1516585940001,28.2786348490001,0
                98.1067069200001,28.3182127590001,0
                98.0326877950001,28.3656848030001,0
                98.006185869,28.444908357,0
                97.958550136,28.5241093330001,0
                97.905625307,28.6085881170001,0
                97.8527174110001,28.6772165450001,0
                97.820909455,28.777568262,0
                97.8208078550001,28.8726703930001,0
                97.820689321,28.983622881,0
                97.8205707870001,29.0945753680001,0
                97.788804225,29.156181772,0
                97.751733513,29.237155187,0
                97.7516093350001,29.3533911270001,0
                97.693401055,29.4378642660001,0
                97.6404931590001,29.5064926950001,0
                97.5558958410001,29.564520353,0
                97.4977383600001,29.6014424260001,0
                97.4395187910001,29.6964824680001,0
                97.391877413,29.780966897,0
                97.3389638720001,29.8548787760001,0
                97.2543496210001,29.9287567900001,0
                97.1485789860001,30.0237460320001,0
                97.0639760230001,30.087057142,0
                96.9793843510001,30.139801348,0
                96.9071640060001,30.1520522610001,0
                96.8260645300001,30.2329786390001,0
                96.6568887110001,30.33142245,0
                96.5863674280001,30.4017932140001,0
                96.5088015410001,30.472156452,0
                96.4382727320001,30.5495718190001,0
                96.3747960520001,30.6199501080001,0
                96.2831334350001,30.6973428960001,0
                96.1915310270001,30.718378866,0
                96.1139801940001,30.774652899,0
                96.0434212810001,30.8802466760001,0
                95.9799445990001,30.950624965,0
                95.8602841970001,30.858917193,0
                95.7616484750001,30.8693787330001,0
                95.694698412,30.893963345,0
                95.6101857620001,30.8727392260001,0
                95.5326161130001,30.9466247660001,0
                95.4586440250001,30.950068045,0
                95.409241497,31.034550591,0
                95.4091624750001,31.108518916,0
                95.35272287,31.185949334,0
                95.2753187930001,31.1048536210001,0
                95.1802279490001,31.094185118,0
                95.1308969180001,31.111743942,0
                95.081592227,31.104646658,0
                95.0181719920001,31.12219043,0
                94.95123698,31.1326858360001,0
                94.8772310260001,31.1678298260001,0
                94.7610026120001,31.160661045,0
                94.6341621400001,31.1957485900001,0
                94.5741889450001,31.283742149,0
                94.5248315730001,31.3259570810001,0
                94.4895257760001,31.403410078,0
                94.3645324660001,31.353876433,0
                94.3593662040001,31.2482895950001,0
                94.352396861,31.177836046,0
                94.3136929400001,31.13904934,0
                94.2186434910001,31.089635523,0
                94.1129744550001,31.089522634,0
                94.0143048670001,31.131684885,0
                93.9649173910001,31.202078226,0
                93.887434291,31.1949508380001,0
                93.848745422,31.1420749280001,0
                93.7607405740001,31.092668637,0
                93.6198297120001,31.110129624,0
                93.517630296,31.1593327140001,0
                93.4541498520001,31.2332333050001,0
                93.461119195,31.303686854,0
                93.5526651590001,31.3354854020001,0
                93.6723744800001,31.381403259,0
                93.756883368,31.4061496790001,0
                93.8554965120001,31.416821946,0
                93.9224202340001,31.4168934420001,0
                94.0034369240001,31.41345769,0
                94.0774203010001,31.399447507,0
                94.1689926060001,31.406589947,0
                94.2147411280001,31.445384179,0
                94.2569711130001,31.480652347,0
                94.327424663,31.4736830040001,0
                94.3625648880001,31.5512112600001,0
                94.3026217980001,31.611026409,0
                94.2216088700001,31.61093986,0
                94.144091904,31.6355131830001,0
                94.0983019880001,31.6354642650001,0
                94.0138006270001,31.6036732420001,0
                93.9116538930001,31.603564116,0
                93.8201079290001,31.571765568,0
                93.7602363350001,31.5646569950001,0
                93.650988554,31.61737486,0
                93.6017177290001,31.5785768650001,0
                93.545364674,31.574994357,0
                93.4432781470001,31.518528411,0
                93.3516757390001,31.539564381,0
                93.3093629690001,31.5817868400001,0
                93.207216235,31.581677713,0
                93.1472957220001,31.620359056,0
                93.0909200880001,31.6379103530001,0
                93.062670182,31.704803972,0
                93.108354734,31.803477324,0
                93.245713191,31.814190984,0
                93.372478404,31.849549462,0
                93.495710026,31.8954710830001,0
                93.5872145980001,31.9660149440001,0
                93.6858390300001,31.966120307,0
                93.7632280560001,32.0613052240001,0
                93.9181904930001,32.079082301,0
                94.0590938300001,32.068665917,0
                94.210571594,32.051216219,0
                94.2986667540001,32.0160872810001,0
                94.3867393360001,32.0020921510001,0
                94.488886069,32.002201278,0
                94.5382058120001,31.9952093570001,0
                94.55940359,31.935352815,0
                94.6017125970001,31.8966526580001,0
                94.654573455,31.872052995,0
                94.6722827990001,31.780491979,0
                94.6899658010001,31.7135870710001,0
                94.746379065,31.660812761,0
                94.7218170310001,31.5727288910001,0
                94.767791333,31.400185052,0
                94.8769638540001,31.4179132090001,0
                94.9474813740001,31.3510647470001,0
                95.0249682370001,31.354669834,0
                95.0284002270001,31.439208825,0
                94.9472969880001,31.5236575050001,0
                94.901428051,31.597576911,0
                94.8661410670001,31.657418401,0
                94.851995419,31.710237867,0
                94.8624419070001,31.822962794,0
                94.9258169870001,31.847686636,0
                94.9856998700001,31.8442283050001,0
                95.031561282,31.7773535010001,0
                95.0738702890001,31.7386533440001,0
                95.221893487,31.6577984620001,0
                95.3487189080001,31.6368001220001,0
                95.4192251380001,31.5805185630001,0
                95.5002794590001,31.5418597980001,0
                95.5249920110001,31.489051622,0
                95.5919909940001,31.418677094,0
                95.599110855,31.348238597,0
                95.4723305910001,31.326969322,0
                95.551323966,31.192545296,0
                95.6520770770001,31.2250145,0
                95.747164157,31.239205306,0
                95.881015366,31.2358259970001,0
                95.944401735,31.249982936,0
                96.0148477580001,31.2500581960001,0
                96.1276216030001,31.1938217920001,0
                96.2579279320001,31.211572528,0
                96.3777952990001,31.1095537360001,0
                96.5541173220001,30.9160153190001,0
                96.691645113,30.7682254260001,0
                96.8749741080001,30.6099175470001,0
                97.047724912,30.462165284,0
                97.223967912,30.3425951930001,0
                97.4637139330001,30.1279907040001,0
                97.5589628220001,29.9907225580001,0
                97.6013395620001,29.8886209790001,0
                97.6824616160001,29.786560794,0
                97.7882661190001,29.659870841,0
                97.915200665,29.5367257670001,0
                98.0103931080001,29.4522921390001,0
                98.0668628160001,29.346683311,0
                98.1762385390001,29.1742072060001,0
                98.271510005,29.0158052530001,0
                98.3385541430001,28.9031631120001,0
                98.3773408490001,28.864459192,0
                98.447756768,28.8927128610001,0
                98.4617142690001,29.016008454,0
                98.4474933600001,29.139273944,0
                98.3909408660001,29.322373397,0
                98.2709267440001,29.561761936,0
                98.189699326,29.7624465540001,0
                98.0627309130001,29.917292339,0
                97.949844178,30.079197778,0
                97.7277472920001,30.2585980710001,0
                97.5338626820001,30.4063277560001,0
                97.4422000650001,30.483720545,0
                97.3328469210001,30.6350628440001,0
                97.1037167210001,30.8038887060001,0
                96.952099725,30.9516635470001,0
                96.8533511140001,31.0677941230001,0
                96.7510613860001,31.201532442,0
                96.7015647840001,31.374072518,0
                96.6028312240001,31.476113889,0
                96.4935646280001,31.54644326,0
                96.356130911,31.6061756240001,0
                96.2821249570001,31.6413196130001,0
                96.2855268430001,31.7540370140001,0
                96.3312113950001,31.8527103650001,0
                96.4297981980001,31.8880387410001,0
                96.5143334270001,31.8881290520001,0
                96.5811630740001,31.9762580780001,0
                96.65508248,32.0221270160001,0
                96.5844897010001,32.159421503,0
                96.49987545,32.233299516,0
                96.4046566650001,32.342389252,0
                96.3094755110001,32.4162559760001,0
                96.274165951,32.4972312730001,0
                96.2952056840001,32.5853113810001,0
                96.376196033,32.6065317370001,0
                96.446717316,32.5361609720001,0
                96.5066415920001,32.4939573290001,0
                96.5736405740001,32.423582803,0
                96.6545481370001,32.5222937830001,0
                96.7072923440001,32.606885457,0
                96.7742160660001,32.6069569540001,0
                96.8622924100001,32.5894395220001,0
                96.87650203,32.4767409360001,0
                96.9224161240001,32.3605539160001,0
                96.9753672940001,32.251419024,0
                97.052967046,32.1493550750001,0
                97.000313152,31.980228174,0
                96.986412096,31.804098063,0
                97.0922316510001,31.663318905,0
                97.205028074,31.5859486950001,0
                97.282729427,31.388782614,0
                97.353401229,31.1775198030001,0
                97.4381772880001,30.952182839,0
                97.5370651300001,30.7057271200001,0
                97.7415015910001,30.5720979270001,0
                97.953020285,30.403253249,0
                98.1785755020001,30.2837358410001,0
                98.3266701960001,30.135957236,0
                98.4889444080001,29.903658455,0
                98.693636752,29.5305127830001,0
                98.8065987460001,29.2981613200001,0
                98.8843151510001,29.086906035,0
                98.9090521630001,29.0112029000001,0
                98.9988087550001,29.0694168260001,0
                98.99323179,29.344150674,0
                98.9084877160001,29.5395480780001,0
                98.7867481920001,29.745472874,0
                98.7549063690001,29.877525301,0
                98.754720101,30.051879209,0
                98.691138057,30.2208819320001,0
                98.6909179230001,30.426936552,0
                98.6642184410001,30.6910809180001,0
                98.5900582040001,30.8706392550001,0
                98.4948262490001,30.9920570460001,0
                98.367814561,31.1874092940001,0
                98.367688501,31.305406384,0
                98.360538536,31.4040232900001,0
                98.3251349020001,31.5730561170001,0
                98.2686651930001,31.678664945,0
                98.235101731,31.773731329,0
                98.0499833630001,31.958454584,0
                97.9177559570001,32.0903997670001,0
                97.8595646090001,32.1590225510001,0
                97.9069971420001,32.270025838,0
                97.9015612890001,32.4126733910001,0
                97.8908814960001,32.5183311370001,0
                98.0070440570001,32.587140189,0
                98.1126792250001,32.618953789,0
                98.2131043200001,32.5820768720001,0
                98.2765791190001,32.5134597320001,0
                98.3823328220001,32.4343208450001,0
                98.419401651,32.355108579,0
                98.3560397410001,32.3180566840001,0
                98.2979499940001,32.291577336,0
                98.3615094610001,32.1437084200001,0
                98.482194667,32.009114599,0
                98.5796813540001,32.0968710650001,0
                98.6310388790001,32.0753114140001,0
                98.6839580640001,31.9961160830001,0
                98.731672819,31.8429467820001,0
                98.784631516,31.726767287,0
                98.8322108040001,31.7004008280001,0
                98.932551232,31.7427756880001,0
                99.0382428450001,31.7217547700001,0
                99.101740222,31.632003824,0
                99.1282477930001,31.5474968180001,0
                99.218066472,31.5475927740001,0
                99.3184802790001,31.521282759,0
                99.4136219220001,31.4844001980001,0
                99.471818914,31.4104939630001,0
                99.385584624,31.3522838000001,0
                99.3433132470001,31.355760945,0
                99.279911826,31.3556932120001,0
                99.2024249620001,31.3520881250001,0
                99.1461208250001,31.3027157000001,0
                99.1919784740001,31.239363198,0
                99.2871257620001,31.1971971840001,0
                99.3822881020001,31.1409419660001,0
                99.3612446060001,31.0563841600001,0
                99.2555812150001,31.0509878190001,0
                99.1499404020001,31.0244576700001,0
                99.1077292320001,30.9715779970001,0
                99.2346788310001,30.8343437180001,0
                99.287660105,30.6970304170001,0
                99.3089632460001,30.538549442,0
                99.330277676,30.369501563,0
                99.377902121,30.30086749,0
                99.4623639700001,30.369642674,0
                99.5520866950001,30.459557311,0
                99.641894085,30.4702201700001,0
                99.705222129,30.538972777,0
                99.7950859650001,30.4968011190001,0
                99.8639063050001,30.3700716550001,0
                99.8006685730001,30.2167838190001,0
                99.732175613,30.0370730810001,0
                99.6794483400001,29.936631053,0
                99.626726712,29.8309055730001,0
                99.6321625640001,29.688258019,0
                99.653414904,29.5773281100001,0
                99.7380460890001,29.487599742,0
                99.6853583270001,29.3501735510001,0
                99.611542403,29.207441331,0
                99.5640760040001,29.1281387540001,0
                99.6011561220001,29.038359585,0
                99.6487410560001,29.006709674,0
                99.634804251,28.864041424,0
                99.6313854320001,28.767174379,0
                99.7229408040001,28.790167174,0
                99.7862519130001,28.8747701360001,0
                99.8231006090001,29.0016124900001,0
                99.92865111,29.1126778660001,0
                99.933855539,29.1866518360001,0
                99.9389922340001,29.324027227,0
                99.9353815040001,29.4067975410001,0
                99.937076802,29.468439694,0
                100.011043246,29.470279867,0
                100.081496795,29.4633105240001,0
                100.118578794,29.371770204,0
                100.145161625,29.2168171750001,0
                100.145289566,29.0970589350001,0
                100.126037324,28.984324601,0
                100.097964279,28.8856700640001,0
                100.068150778,28.767640989,0
                100.057700528,28.6584383630001,0
                100.105381416,28.5369697730001,0
                100.141042348,28.462287474,0
                100.170749071,28.3450739730001,0
                100.209599747,28.2464909330001,0
                100.280151133,28.14794176,0
                100.357622945,28.165636052,0
                100.378651389,28.2642830620001,0
                100.375076406,28.313591515,0
                100.350337512,28.391055801,0
                100.463036097,28.405265421,0
                100.521167238,28.392999456,0
                100.529858219,28.5004390490001,0
                100.51217898,28.5638216560001,0
                100.494503504,28.6236819600001,0
                100.531425577,28.6818394420001,0
                100.610720628,28.641417645,0
                100.649417022,28.6872489530001,0
                100.645815698,28.7612135150001,0
                100.617558266,28.8351517360001,0
                100.578743338,28.900272914,0
                100.520572687,28.9495230430001,0
                100.508178781,29.0111501420001,0
                100.516928089,29.0639940680001,0
                100.522134399,29.136206886,0
                100.506176799,29.2365755370001,0
                100.583656136,29.2472252260001,0
                100.689396668,29.180414393,0
                100.761714851,29.076583649,0
                100.846430701,28.9076035030001,0
                100.90291358,28.789666622,0
                100.966474929,28.6400365550001,0
                101.012464281,28.453403511,0
                100.998482322,28.3530028760001,0
                100.944054106,28.1962021470001,0
                100.903598443,28.1486078070001,0
                100.877224458,28.1080731210001,0
                100.891407737,28.020030644,0
                100.926666498,27.9866064120001,0
                100.993554471,28.0201397700001,0
                101.069189872,28.1082782030001,0
                101.132576242,28.122435142,0
                101.229424472,28.136627828,0
                101.278648258,28.2194545880001,0
                101.248601454,28.319808186,0
                101.207923775,28.480029616,0
                101.158461039,28.6208689810001,0
                101.091356694,28.7898679410001,0
                101.027791583,28.9430203090001,0
                100.920160077,29.1313486510001,0
                100.877785218,29.231689079,0
                100.77900274,29.3795203650001,0
                100.706656335,29.509768368,0
                100.62550606,29.638245812,0
                100.553236796,29.696286641,0
                100.470434496,29.7226154690001,0
                100.380572542,29.763025977,0
                100.318823145,29.865106859,0
                100.299371466,29.9390544880001,0
                100.334543678,29.9866431830001,0
                100.406733918,30.0025706800001,0
                100.521278322,29.9375304050001,0
                100.598836682,29.8742117690001,0
                100.646417851,29.84608416,0
                100.70103986,29.821486377,0
                100.75218096,29.75813952,0
                100.773388146,29.689477224,0
                100.799869375,29.629626327,0
                100.831656634,29.548647266,0
                100.923208243,29.5751623630001,0
                100.940714385,29.673805611,0
                100.898358341,29.756534532,0
                100.864774183,29.8709735730001,0
                100.840031527,29.9519601590001,0
                100.76070449,30.022321515,0
                100.691961291,30.0768438060001,0
                100.640816428,30.1437129650001,0
                100.580848877,30.226423072,0
                100.566678769,30.3021374960001,0
                100.517327041,30.3390689760001,0
                100.425735921,30.3495380420001,0
                100.330596159,30.384659454,0
                100.240692812,30.4638152740001,0
                100.171923272,30.5429936730001,0
                100.103131155,30.643305878,0
                100.083624912,30.768326874,0
                100.129260545,30.9127901410001,0
                100.159085335,31.020252312,0
                100.143137142,31.111815209,0
                100.090197261,31.210383198,0
                99.98087422,31.3335470870001,0
                99.8926868680001,31.4549724030001,0
                99.792190276,31.558773043,0
                99.7269035260001,31.674939367,0
                99.6123177300001,31.778724955,0
                99.4907211980001,31.850802306,0
                99.3761655050001,31.926409484,0
                99.3215265630001,31.9668576220001,0
                99.2703610020001,32.0530994380001,0
                99.1769485250001,32.119923441,0
                99.0500290300001,32.228979311,0
                98.9478277330001,32.279943551,0
                98.8544096100001,32.3520510070001,0
                98.8032816800001,32.4030698110001,0
                98.822594129,32.459447326,0
                98.8947617920001,32.4965086290001,0
                99.018087489,32.45437272,0
                99.1925542870001,32.348889952,0
                99.3688367980001,32.192335697,0
                99.5274852260001,32.056896437,0
                99.6773279010001,31.9214477680001,0
                99.7654531640001,31.858140421,0
                99.909976639,31.7561479680001,0
                100.052727674,31.664720538,0
                100.188420937,31.5856136370001,0
                100.253656887,31.516998379,0
                100.283705573,31.4148836300001,0
                100.347297025,31.2370751550001,0
                100.370342501,31.096207566,0
                100.398637563,30.9870463340001,0
                100.342444434,30.8337660240001,0
                100.375985318,30.7598334480001,0
                100.465890547,30.678916477,0
                100.596281542,30.617415436,0
                100.71784797,30.573516495,0
                100.832362269,30.5366546290001,0
                100.95390612,30.5138894940001,0
                101.029599847,30.5474322590001,0
                101.040099017,30.6108449700001,0
                101.039918394,30.7799154260001,0
                101.043335332,30.8785436220001,0
                101.007991904,30.99121963,0
                100.940968463,31.0844891150001,0
                100.858130414,31.1442798040001,0
                100.761167413,31.2375173040001,0
                100.695931463,31.3061325620001,0
                100.613072718,31.385295909,0
                100.535499307,31.4627037490001,0
                100.475507298,31.568308814,0
                100.41200992,31.6580597600001,0
                100.374944854,31.7337497240001,0
                100.385417683,31.8218185420001,0
                100.425924146,31.8218618170001,0
                100.473473331,31.8236737670001,0
                100.524608787,31.7656103620001,0
                100.632117996,31.691756808,0
                100.688567007,31.605520637,0
                100.790832275,31.4946772750001,0
                100.879021509,31.3714908090001,0
                100.981283014,31.2641697490001,0
                101.060572421,31.2290314040001,0
                101.155695249,31.209760348,0
                101.231496221,31.14291753,0
                101.287943351,31.058442509,0
                101.307411964,30.968644526,0
                101.307600113,30.7925294660001,0
                101.272505042,30.672733597,0
                101.24448656,30.523005692,0
                101.274510787,30.4437859020001,0
                101.334487744,30.3522700410001,0
                101.364468697,30.3135567140001,0
                101.473609233,30.361224432,0
                101.533518457,30.3331099930001,0
                101.616396017,30.236335141,0
                101.685176846,30.1465898390001,0
                101.713456855,30.0515178110001,0
                101.727657069,29.9476249780001,0
                101.676700354,29.8383790780001,0
                101.659184803,29.7485415830001,0
                101.599356484,29.7009265460001,0
                101.543059873,29.64450952,0
                101.543129488,29.5793469480001,0
                101.65415159,29.51430291,0
                101.717558656,29.509087192,0
                101.712369278,29.421024018,0
                101.68421721,29.3963378060001,0
                101.627881087,29.3769049420001,0
                101.566240817,29.37683909,0
                101.479963253,29.3591353910001,0
                101.411302839,29.336167055,0
                101.39724562,29.306212443,0
                101.402672065,29.172370642,0
                101.434480021,29.0720189260001,0
                101.44694166,28.9469904040001,0
                101.447009393,28.883588983,0
                101.434752836,28.816652091,0
                101.454189464,28.7567936670001,0
                101.47713334,28.711028211,0
                101.533493922,28.7075661170001,0
                101.575682513,28.7815795980001,0
                101.579135199,28.8467459330001,0
                101.600169288,28.940109492,0
                101.654766837,28.938406668,0
                101.712911148,28.9138126490001,0
                101.734071295,28.8891791180001,0
                101.764022144,28.8786441990001,0
                101.850245145,28.947421266,0
                101.895976734,29.002065853,0
                101.943531563,28.9985943520001,0
                101.987584788,28.9757464320001,0
                102.029886268,28.9440908770001,0
                102.073930085,28.9300487090001,0
                102.13024363,28.97061538,0
                102.130166488,29.0428225540001,0
                102.115964395,29.1484765380001,0
                102.096467559,29.2646917800001,0
                102.046882527,29.520005935,0
                102.018380502,29.8228937320001,0
                101.954640412,30.139833105,0
                101.912056708,30.435661248,0
                101.862548816,30.6187682280001,0
                101.763826546,30.710242695,0
                101.679170902,30.822866021,0
                101.628045794,30.871243099,0
                101.627994994,30.9187941650001,0
                101.699248215,30.987555238,0
                101.770436524,31.117076007,0
                101.833708123,31.2386631320001,0
                101.865284654,31.3549329370001,0
                101.870407239,31.5055169570001,0
                101.828066246,31.5741566740001,0
                101.748769315,31.6163396210001,0
                101.640387998,31.682267057,0
                101.555813258,31.719160908,0
                101.455328896,31.8115140690001,0
                101.36811243,31.8484050980001,0
                101.280935476,31.8483119640001,0
                101.133060916,31.7900359490001,0
                101.05645651,31.784670652,0
                101.000937932,31.824237274,0
                100.995566991,31.9061251320001,0
                101.029852983,31.9589963390001,0
                101.08529536,31.990756317,0
                101.14335124,32.048936375,0
                101.164417314,32.112360374,0
                101.135284951,32.181014202,0
                101.042762456,32.239033394,0
                100.966093138,32.2944277930001,0
                100.955421812,32.392160362,0
                100.95531739,32.489904219,0
                101.000192863,32.5216529080001,0
                101.071508173,32.5322960120001,0
                101.161380475,32.4821991750001,0
                101.251340267,32.350208837,0
                101.351858496,32.226154966,0
                101.415350228,32.1416874710001,0
                101.494714894,32.0361031030001,0
                101.563433634,32.0044757700001,0
                101.674411522,31.980818771,0
                101.785364008,31.9809373050001,0
                101.861948659,32.0047946820001,0
                101.920021472,32.0471243860001,0
                101.935764583,32.147526903,0
                101.859067043,32.22933856,0
                101.769172163,32.3005692040001,0
                101.732131556,32.3533642100001,0
                101.639600594,32.4193085790001,0
                101.528569084,32.4931583700001,0
                101.4598447,32.530069154,0
                101.433370996,32.582875449,0
                101.475548299,32.6674558330001,0
                101.618198675,32.67024996,0
                101.705406673,32.641284109,0
                101.792583627,32.6413772430001,0
                101.869210611,32.625608733,0
                101.969635706,32.5887318150001,0
                102.070094668,32.5201541860001,0
                102.17055363,32.4515765580001,0
                102.284224043,32.380371316,0
                102.34245208,32.2774060950001,0
                102.403395221,32.1057588250001,0
                102.427323154,31.963131026,0
                102.451172065,31.8944715540001,0
                102.509332369,31.8549077540001,0
                102.614995759,31.860304096,0
                102.712739617,31.860408518,0
                102.815769748,31.85787686,0
                102.863360326,31.8209434980001,0
                102.874051408,31.704718848,0
                102.784291995,31.6491466480001,0
                102.636397679,31.609362715,0
                102.499027933,31.609215958,0
                102.398659282,31.5932583580001,0
                102.319492173,31.513921915,0
                102.287907174,31.405577286,0
                102.258986479,31.2761016740001,0
                102.213794723,31.2327441420001,0
                102.228356374,31.098192538,0
                102.36565086,31.1687853180001,0
                102.411478406,31.133611224,0
                102.422146909,31.0385203820001,0
                102.510223254,31.0210029510001,0
                102.577150739,31.0175521460001,0
                102.62298581,30.9753334500001,0
                102.616005179,30.9154468040001,0
                102.545634414,30.8449255210001,0
                102.482244282,30.834290884,0
                102.411820836,30.8130818170001,0
                102.316820305,30.7178780850001,0
                102.249964317,30.654405167,0
                102.250024524,30.5980483480001,0
                102.2677,30.538188043,0
                102.285349136,30.5029838470001,0
                102.31008803,30.425519561,0
                102.324237442,30.3691777940001,0
                102.352472296,30.3163733800001,0
                102.401848483,30.2565469420001,0
                102.430113441,30.1755641190001,0
                102.489966221,30.200284197,0
                102.549800185,30.2426157830001,0
                102.556735661,30.344770043,0
                102.556615246,30.4574836800001,0
                102.55299887,30.545537446,0
                102.559975739,30.608946394,0
                102.633872567,30.6759491390001,0
                102.6901466,30.753499972,0
                102.760585098,30.7606198350001,0
                102.82750882,30.760691331,0
                102.890883901,30.785415173,0
                102.908431436,30.845313108,0
                102.975272373,30.922875231,0
                103.006886535,31.0039220250001,0
                103.013773092,31.1518662,0
                102.95734854,31.215207413,0
                102.886861123,31.2538774670001,0
                102.848033025,31.3313267,0
                102.886684263,31.4194256230001,0
                102.918339818,31.461727103,0
                102.971061446,31.5674525840001,0
                103.037981406,31.571046381,0
                103.097860526,31.5711103520001,0
                103.140101799,31.595811616,0
                103.196394647,31.655750944,0
                103.220952918,31.7473571150001,0
                103.203213471,31.86709654,0
                103.143244039,31.951567798,0
                103.058603448,32.05010192,0
                103.005712486,32.1028799920001,0
                103.005663566,32.148669908,0
                103.047848395,32.22620569,0
                103.114625361,32.363646933,0
                103.19558937,32.4095233960001,0
                103.280158465,32.3779129970001,0
                103.34356365,32.3744584290001,0
                103.396334196,32.4343939940001,0
                103.382075658,32.592882495,0
                103.388996082,32.7091259600001,0
                103.427658609,32.786657979,0
                103.494386657,32.9698891370001,0
                103.522083681,33.019014011,0
                103.522256501,33.2587479380001,0
                103.518628837,33.3573686080001,0
                103.51142619,33.505297731,0
                103.507764659,33.635619112,0
                103.507674347,33.7201543410001,0
                103.53224767,33.797671307,0
                103.620271332,33.8294660930001,0
                103.676650729,33.808392493,0
                103.704874294,33.766154982,0
                103.757772782,33.706332307,0
                103.831797552,33.653576812,0
                103.845962016,33.58314584,0
                103.846086195,33.4669099010001,0
                103.796898156,33.35062128,0
                103.673715452,33.258909746,0
                103.691597893,33.005322876,0
                103.737455542,32.9419703730001,0
                103.779794652,32.8750918060001,0
                103.815081635,32.8152503160001,0
                103.843301437,32.776535107,0
                103.955902186,32.8823245580001,0
                104.068585719,32.910623383,0
                104.142350843,33.100906669,0
                104.290057951,33.315925086,0
                104.300387787,33.5378413490001,0
                104.28261071,33.6928037860001,0
                104.194353743,33.879391674,0
                104.303466057,33.9534766520001,0
                104.343074071,33.9702499160001,0
                104.406433158,34.009943537,0
                104.509463291,34.0074118790001,0
                104.54912869,33.9704700500001,0
                104.557147001,33.883301563,0
                104.538767809,33.7776127720001,0
                104.52571158,33.6349454630001,0
                104.538999233,33.5609912480001,0
                104.568142884,33.481770517,0
                104.573527936,33.3866740290001,0
                104.547186878,33.3153192080001,0
                104.505015219,33.2254553720001,0
                104.441698466,33.1461358620001,0
                104.394215134,33.0826836410001,0
                104.328262298,32.9980778560001,0
                104.283412225,32.942553635,0
                104.264993522,32.8738490060001,0
                104.272963855,32.8315898590001,0
                104.296790188,32.7840641930001,0
              </coordinates>
            </LinearRing>
          </outerBoundaryIs>
        </Polygon>
      </Placemark>
    </Document>
  </Document>
</kml>
