<?xml version="1.0" encoding="UTF-8"?>
<kml xmlns="http://www.opengis.net/kml/2.2">
  <Document id="root_doc">
    <Schema id="Bioregions_PA6.schema">
      <SimpleField name="OBJECTID" type="float"/>
      <SimpleField name="Shape_Leng" type="float"/>
      <SimpleField name="Shape_Area" type="float"/>
      <SimpleField name="Bioregions" type="string"/>
    </Schema>
    <Document id="Bioregions_PA6">
      <name>Bioregions_PA6</name>
      <Placemark id="Bioregions_PA6.1">
        <ExtendedData>
          <SchemaData schemaUrl="#Bioregions_PA6.schema">
            <SimpleData name="OBJECTID">170</SimpleData>
            <SimpleData name="Shape_Leng">137.82346409200</SimpleData>
            <SimpleData name="Shape_Area">409.62542965100</SimpleData>
            <SimpleData name="Bioregions">PA6</SimpleData>
          </SchemaData>
        </ExtendedData>
        <Polygon>
          <outerBoundaryIs>
            <LinearRing>
              <coordinates>
                173.41622878,56.171959637,0
                173.360120781,56.1278070650001,0
                172.882458498,55.787738389,0
                172.354074098,55.411556187,0
                171.714888415,54.9564917770001,0
                171.420043209,54.7465781660001,0
                170.985101037,54.4369222130001,0
                170.579454549,54.148125248,0
                170.28923064,53.941501359,0
                169.844132309,53.5541301430001,0
                169.331202321,53.1077263970001,0
                168.797366726,52.6431286280001,0
                168.376506082,52.2768526610001,0
                167.974438743,51.9269336520001,0
                167.650846955,51.6453116050001,0
                167.454839432,51.421668088,0
                166.886515484,51.4956214330001,0
                166.252239273,51.578156086,0
                165.677573938,51.65293416,0
                165.431893281,51.6849033610001,0
                165.235761588,51.710424645,0
                164.935991278,51.7494324790001,0
                164.821258294,51.6628678280001,0
                164.747691545,51.608019191,0
                164.659261748,51.5426328840001,0
                164.57689311,51.482234202,0
                164.486732064,51.41666809,0
                164.410543501,51.3617107110001,0
                164.330593252,51.304491022,0
                164.221830999,51.2274217470001,0
                164.124368263,51.159149169,0
                164.011376337,51.081003353,0
                163.897311918,51.0032996310001,0
                163.82630622,50.955583936,0
                163.755026971,50.9082347390001,0
                163.681684656,50.8601331520001,0
                163.608539044,50.8128400860001,0
                163.533305832,50.7649757070001,0
                163.418654968,50.693741286,0
                163.330179951,50.640397282,0
                163.243923139,50.5900002710001,0
                163.155874086,50.540497848,0
                163.071419659,50.49525471,0
                162.961465268,50.4405649110001,0
                162.857248559,50.3948113220001,0
                162.689389691,50.3437132400001,0
                162.624447857,50.283444559,0
                162.55521946,50.2206767860001,0
                162.448512333,50.1260633640001,0
                162.341032713,50.0330330990001,0
                162.220516096,49.931228332,0
                162.089354469,49.8233500010001,0
                162.015018622,49.76355461,0
                161.937735281,49.702426351,0
                161.863472961,49.644697916,0
                161.787060387,49.58634957,0
                161.713572631,49.531264508,0
                161.638516472,49.476070398,0
                161.562210821,49.42109242,0
                161.460163551,49.3494247880001,0
                161.369334616,49.2874975120001,0
                161.26786762,49.2204953990001,0
                161.161571423,49.1529097390001,0
                161.067359093,49.095375742,0
                160.97666509,49.0422286530001,0
                160.865148401,48.9801063310001,0
                160.766884409,48.9285477350001,0
                160.667757251,48.8798228890001,0
                160.556017504,48.8292325830001,0
                160.473206027,48.7949928830001,0
                160.371227476,48.731900356,0
                160.279061837,48.6743673990001,0
                160.172420391,48.607255534,0
                160.058868856,48.5351174830001,0
                159.978388338,48.4835126020001,0
                159.85798496,48.4054321690001,0
                159.777656478,48.3526255780001,0
                159.699094451,48.300278715,0
                159.604665832,48.236147572,0
                159.517885355,48.17553358,0
                159.405337224,48.0925801750001,0
                159.303299838,48.002011295,0
                159.192607649,47.8810500500001,0
                159.128265256,47.8155471700001,0
                159.052927273,47.7408576490001,0
                158.953100858,47.6444625840001,0
                158.828064066,47.527262143,0
                158.753277507,47.458917011,0
                158.675515976,47.3892286720001,0
                158.596247079,47.3196525390001,0
                158.515034421,47.249949777,0
                158.387142174,47.14362456,0
                158.304037765,47.0769696260001,0
                158.199287182,46.995981907,0
                158.124615266,46.9405315120001,0
                158.056637358,46.8918903380001,0
                157.972618547,46.834486774,0
                157.890304338,46.7815681100001,0
                157.762474066,46.7072867950001,0
                157.61111568,46.6359891060001,0
                157.478235305,46.49023083,0
                157.403345557,46.4103287080001,0
                157.320483657,46.323585076,0
                157.242433021,46.2434940360001,0
                157.155421117,46.156146967,0
                157.059258269,46.0621942070001,0
                156.990357896,45.996716092,0
                156.920610409,45.932180245,0
                156.851786229,45.8704270870001,0
                156.78326782,45.8111137920001,0
                156.683419985,45.7197581250001,0
                156.615737444,45.659845144,0
                156.536226306,45.5913476480001,0
                156.412094711,45.4887888330001,0
                156.291061111,45.39490342,0
                156.186516882,45.3201648020001,0
                156.078496702,45.2517606850001,0
                155.980838761,45.2021818530001,0
                155.900389278,45.137607372,0
                155.830273971,45.0827459590001,0
                155.728808041,45.0050980730001,0
                155.64166253,44.939892237,0
                155.530721634,44.858759321,0
                155.408705837,44.7719200280001,0
                155.294261573,44.6927670680001,0
                155.174001878,44.612058274,0
                155.083487229,44.5530439610001,0
                154.99059911,44.494099696,0
                154.909754854,44.444193512,0
                154.771455603,44.3620194760001,0
                154.63848005,44.2871267880001,0
                154.517429741,44.222818741,0
                154.396791741,44.1628043760001,0
                154.250167846,44.096050088,0
                154.151791638,44.0555900480001,0
                154.054842591,44.0196030160001,0
                153.966178595,43.9905145230001,0
                153.879436341,43.9660859680001,0
                153.713033714,43.9327110190001,0
                153.569462123,43.824127655,0
                153.475684095,43.756735185,0
                153.384070323,43.6929373300001,0
                153.304382498,43.6389310530001,0
                153.217348008,43.5814350030001,0
                153.094879367,43.503049999,0
                152.949624719,43.4137698220001,0
                152.870708295,43.366908892,0
                152.788855117,43.3195161140001,0
                152.714405095,43.277478327,0
                152.637872997,43.2353270770001,0
                152.490242625,43.1570715280001,0
                152.391289252,43.106889159,0
                152.289863853,43.0573690080001,0
                152.182909371,43.007280741,0
                152.073679392,42.958424414,0
                151.939387445,42.901611529,0
                151.856129877,42.86823149,0
                151.771926683,42.835941361,0
                151.671302458,42.799333217,0
                151.569572886,42.7645702950001,0
                151.443753584,42.724797408,0
                151.27963538,42.678486191,0
                151.173978298,42.652151153,0
                151.052207081,42.6253338860001,0
                151.009176891,42.6973049800001,0
                150.970850711,42.761408261,0
                150.954005075,42.7895837610001,0
                150.862351331,42.942880797,0
                150.780213191,43.0802626980001,0
                150.649413786,43.299034212,0
                150.519207097,43.516813922,0
                150.4073038,43.7039803600001,0
                150.381292567,43.747486091,0
                150.271517738,43.9310924270001,0
                150.149077719,44.1358820190001,0
                150.06190363,44.2816867670001,0
                149.995940236,44.392014986,0
                149.956713708,44.45762438,0
                149.868841004,44.6045978940001,0
                149.757267019,44.791213295,0
                149.67051924,44.9363049470001,0
                149.649392982,44.9716399910001,0
                149.564750069,45.1132112220001,0
                149.496561177,45.227261755,0
                149.409064925,45.3392014900001,0
                149.345881119,45.4200372660001,0
                149.300420571,45.478198123,0
                149.18735135,45.6228552790001,0
                149.155360158,45.731745818,0
                149.131597251,45.8126287430001,0
                149.100736964,45.917670931,0
                149.087392511,45.9630925590001,0
                149.040330104,46.123282396,0
                149.017498528,46.2009959320001,0
                149.014536429,46.211078236,0
                148.924811001,46.335220894,0
                148.848054278,46.441420189,0
                148.772506868,46.545946379,0
                148.696215569,46.651501523,0
                148.64268742,46.7255621200001,0
                148.605798808,46.7766005130001,0
                148.58903575,46.799793644,0
                148.504131665,46.917265564,0
                148.457786481,46.9813878680001,0
                148.377942608,47.0918579930001,0
                148.307332445,47.1895534770001,0
                148.294493058,47.20731786,0
                148.162076896,47.3905265940001,0
                148.049822923,47.5458392950001,0
                147.946040135,47.689431282,0
                147.886266394,47.77213305,0
                147.758849599,47.948424726,0
                147.601370666,47.869070069,0
                147.518953792,47.827540072,0
                147.438186078,47.7868408520001,0
                147.296116728,47.7152511370001,0
                147.128708885,47.63089333,0
                146.917702306,47.5245659710001,0
                146.795320801,47.4628971430001,0
                146.668716599,47.3991004650001,0
                146.617074759,47.3730777750001,0
                146.495702472,47.3119171750001,0
                146.347982709,47.237480535,0
                146.305080106,47.215861784,0
                146.250958022,47.1885893940001,0
                146.192896686,47.078949675,0
                146.081667863,46.8689116140001,0
                146.032128301,46.775363865,0
                146.004590092,46.7233622620001,0
                145.950288257,46.6208216680001,0
                145.900790912,46.527353852,0
                145.852162716,46.4355272000001,0
                145.808841342,46.3537215640001,0
                145.741818308,46.227158924,0
                145.639407296,46.1557199100001,0
                145.48959168,46.051212649,0
                145.410530946,45.9960618810001,0
                145.340496404,45.9472073590001,0
                145.238169667,45.8758269260001,0
                145.179680318,45.8446363910001,0
                145.13818717,45.8225092430001,0
                145.087312046,45.7953787710001,0
                145.030122098,45.764880582,0
                144.904804857,45.6980522360001,0
                144.781414519,45.6322511210001,0
                144.714305772,45.596464129,0
                144.644011988,45.5589783950001,0
                144.603880513,45.5375771820001,0
                144.568611064,45.518768548,0
                144.433660762,45.446803366,0
                144.433147079,45.446529431,0
                144.312650367,45.382271503,0
                144.20969058,45.3933227800001,0
                144.132681853,45.401588502,0
                144.022026003,45.4134656430001,0
                143.958635181,45.420269594,0
                143.915408603,45.424909357,0
                143.769485546,45.440571993,0
                143.611703041,45.45750753,0
                143.445551218,45.5297410690001,0
                143.32790404,45.5808876880001,0
                143.138962112,45.663029109,0
                143.017511406,45.7158292060001,0
                142.983826045,45.7420763150001,0
                142.916007748,45.794919007,0
                142.843816947,45.8511695,0
                142.811868331,45.876063566,0
                142.788668895,46.0553319300001,0
                142.775700656,46.1555407860001,0
                142.771423154,46.188594009,0
                142.766962741,46.223060977,0
                142.760489349,46.273082673,0
                142.751507997,46.342483884,0
                142.7442613,46.3984808440001,0
                142.730050958,46.5082881330001,0
                142.71070111,46.6578096750001,0
                142.696404563,46.7682828530001,0
                142.675686658,46.928375653,0
                142.675611399,46.9988211340001,0
                142.640260457,47.1185419780001,0
                142.640155081,47.217166455,0
                142.590722447,47.329827193,0
                142.537019131,47.4101963680001,0
                142.520163542,47.4354213610001,0
                142.464730114,47.479671029,0
                142.449657292,47.4917028770001,0
                142.444919973,47.5066488150001,0
                142.407246701,47.625505307,0
                142.35079957,47.7099802750001,0
                142.302919049,47.7696999440001,0
                142.266151454,47.8155587370001,0
                142.195607617,47.9070633540001,0
                142.120305707,47.9830550720001,0
                142.103093374,48.0004250700001,0
                142.030244234,48.024941944,0
                141.919647639,48.062162437,0
                141.763314994,48.0753178300001,0
                141.742593272,48.0770616510001,0
                141.667548775,48.0833767670001,0
                141.504481033,48.097098911,0
                141.426924653,48.103625256,0
                141.261831748,48.1175175770001,0
                141.176893393,48.1246654600001,0
                141.092176723,48.1317944910001,0
                140.839035827,48.1530963280001,0
                140.685565941,48.1660108520001,0
                140.641516035,48.16971762,0
                140.569709363,48.175759957,0
                140.337551952,48.195296195,0
                140.130281975,48.2127379560001,0
                140.030790731,48.22111033,0
                139.963309859,48.2267889020001,0
                139.907755098,48.231463815,0
                139.83472729,48.2376089860001,0
                139.735056883,48.2459962360001,0
                139.609862197,48.2565312240001,0
                139.461887975,48.2915963410001,0
                139.299854498,48.2984680500001,0
                139.151917887,48.2983100020001,0
                138.996981849,48.255876465,0
                138.863164541,48.227555115,0
                138.799146142,48.2000380050001,0
                138.76458521,48.1851825140001,0
                138.645997878,48.1257303400001,0
                138.623768271,48.114585807,0
                138.511130105,48.0440190640001,0
                138.39853666,47.931185219,0
                138.285921069,47.839484928,0
                138.242327808,47.805877744,0
                138.194416444,47.768941414,0
                138.159138118,47.7285362040001,0
                138.095912616,47.6561219750001,0
                138.018542334,47.5433257600001,0
                137.927052769,47.45869285,0
                137.911998343,47.4385756120001,0
                137.800430434,47.289487007,0
                137.708986055,47.162586263,0
                137.648377782,47.090457568,0
                137.596415509,47.0286181060001,0
                137.462665935,46.9368952360001,0
                137.386609574,46.8844870880001,0
                137.350034957,46.8592845090001,0
                137.230359505,46.7816660610001,0
                137.146525733,46.7462619830001,0
                137.096572208,46.725165776,0
                137.047642865,46.702519846,0
                137.005037588,46.682800715,0
                136.973091106,46.6759192660001,0
                136.906435815,46.661561057,0
                136.814855938,46.661463219,0
                136.695150386,46.6120233670001,0
                136.624832434,46.4921898740001,0
                136.540394831,46.4005197550001,0
                136.53023163,46.3911182200001,0
                136.448905337,46.31588678,0
                136.419532566,46.3066733150001,0
                136.336229405,46.2805432000001,0
                136.260835771,46.2211751300001,0
                136.237687811,46.2029474340001,0
                136.224550329,46.1932916590001,0
                136.132101671,46.1253435530001,0
                136.082857065,46.061889352,0
                136.049941579,45.990372264,0
                136.040687281,45.9702649010001,0
                135.956287428,45.8433716810001,0
                135.920955102,45.8185826610001,0
                135.88589412,45.7939838,0
                135.801441759,45.7164032150001,0
                135.791034424,45.7157415770001,0
                135.688735499,45.7092380010001,0
                135.590111249,45.709132638,0
                135.573906941,45.727323369,0
                135.533686663,45.772474001,0
                135.521851344,45.807853741,0
                135.505417702,45.8569789160001,0
                135.505334916,45.9344700440001,0
                135.554579523,45.997924245,0
                135.596764273,46.0754596680001,0
                135.716454774,46.138989129,0
                135.822056094,46.202503537,0
                135.94474477,46.284485171,0
                135.94876882,46.2871740730001,0
                136.0543776,46.3436437190001,0
                136.167038488,46.393076249,0
                136.215705797,46.420955253,0
                136.265602889,46.449538944,0
                136.364136828,46.5341793790001,0
                136.40940306,46.5795421560001,0
                136.434507519,46.6047002880001,0
                136.466114132,46.6927918750001,0
                136.399164242,46.717376545,0
                136.368001496,46.7329161980001,0
                136.328680362,46.7525238040001,0
                136.291665937,46.77626345,0
                136.279334508,46.7841722480001,0
                136.236995423,46.851050738,0
                136.233401591,46.9179706200001,0
                136.250945389,46.9813908900001,0
                136.261529103,47.0008439630001,0
                136.272037661,47.0201592810001,0
                136.321289793,47.0765686770001,0
                136.381101176,47.1400341670001,0
                136.404783587,47.165462217,0
                136.430356967,47.1929208860001,0
                136.501582268,47.2272028030001,0
                136.51836939,47.2352827720001,0
                136.540078097,47.2434499170001,0
                136.602870632,47.267073586,0
                136.666791529,47.2857913830001,0
                136.687379327,47.2918201100001,0
                136.747239629,47.309495661,0
                136.77289402,47.3386329890001,0
                136.800010393,47.36943102,0
                136.81188596,47.3932458470001,0
                136.828128428,47.4258183100001,0
                136.805483496,47.452522533,0
                136.789334498,47.471566157,0
                136.739965713,47.5243482170001,0
                136.697637969,47.5806597760001,0
                136.681378143,47.61668991,0
                136.665861921,47.651072234,0
                136.655231089,47.7109402080001,0
                136.655155829,47.781386044,0
                136.655073147,47.858877008,0
                136.690235681,47.915271424,0
                136.741833804,47.966979543,0
                136.750050903,47.9752141980001,0
                136.816914484,48.031642478,0
                136.870501487,48.0638726970001,0
                136.887315278,48.0739855190001,0
                136.961223367,48.1304212570001,0
                136.966887298,48.1349150250001,0
                137.045687239,48.1974352330001,0
                137.116076774,48.250345086,0
                137.120346487,48.2589074250001,0
                137.137165218,48.292635606,0
                137.137093722,48.359559097,0
                137.130694126,48.378690197,0
                137.119426012,48.412374818,0
                137.073568355,48.4757273530001,0
                137.044685865,48.5333381460001,0
                137.038270029,48.5461355250001,0
                137.034668608,48.6200999920001,0
                137.055719781,48.6976135890001,0
                137.061820181,48.7196663220001,0
                137.073263585,48.7610337950001,0
                137.13661206,48.8104136740001,0
                137.172494833,48.8369947990001,0
                137.217561197,48.8703791240001,0
                137.305550975,48.933874652,0
                137.337368733,48.956315847,0
                137.400581711,49.000900454,0
                137.495630878,49.050313965,0
                137.594176536,49.1243876240001,0
                137.611440181,49.1330424650001,0
                137.671625765,49.1632156160001,0
                137.689886928,49.19006032,0
                137.724377368,49.240763116,0
                137.742464074,49.2982508160001,0
                137.745439797,49.3077090780001,0
                137.722262251,49.3572369880001,0
                137.720727166,49.3605172810001,0
                137.667843784,49.406250808,0
                137.607308802,49.450893992,0
                137.586766723,49.466043218,0
                137.516260623,49.5223246730001,0
                137.470410476,49.5786324690001,0
                137.470338979,49.6455568200001,0
                137.484345373,49.7230621400001,0
                137.496852913,49.746888008,0
                137.519496989,49.790023391,0
                137.579304612,49.8570110060001,0
                137.623229952,49.9079820740001,0
                137.646145363,49.934573346,0
                137.702446063,49.9874682970001,0
                137.779857309,50.0615193780001,0
                137.807046437,50.087063363,0
                137.836157921,50.1144137110001,0
                137.885420972,50.1602562100001,0
                137.885308111,50.2659255730001,0
                137.842987893,50.3151923280001,0
                137.8132071,50.3396646160001,0
                137.783056156,50.364440889,0
                137.753242321,50.3912156550001,0
                137.712542468,50.4277665270001,0
                137.6643061,50.4573798280001,0
                137.620902389,50.4840260300001,0
                137.550415016,50.522696024,0
                137.486302592,50.5395936210001,0
                137.430622998,50.554268527,0
                137.32844624,50.5823377580001,0
                137.208668762,50.599821397,0
                137.155766355,50.6065902780001,0
                137.099462619,50.613794209,0
                137.05352457,50.612309447,0
                136.986752587,50.610151106,0
                136.951712213,50.5989609310001,0
                136.909288361,50.585412616,0
                136.821257191,50.5606623410001,0
                136.71210735,50.521800435,0
                136.602964892,50.47589386,0
                136.576780895,50.4667987870001,0
                136.511418914,50.444094932,0
                136.439845154,50.3848403540001,0
                136.43047737,50.377084923,0
                136.427741321,50.3752963680001,0
                136.349521086,50.3241636010001,0
                136.310962841,50.2855232920001,0
                136.268594592,50.2430645700001,0
                136.177090006,50.17252061,0
                136.157354326,50.160026406,0
                136.110211582,50.13018119,0
                136.043298951,50.1195429160001,0
                136.020621493,50.1102376000001,0
                135.965842234,50.0877596540001,0
                135.916066594,50.0697802380001,0
                135.877818512,50.0559645380001,0
                135.813626257,50.0383840850001,0
                135.800225951,50.034744609,0
                135.673551516,50.0310905430001,0
                135.606627727,50.031019046,0
                135.525614886,50.030932498,0
                135.48039953,50.0440677940001,0
                135.441053114,50.0554979290001,0
                135.399941995,50.082842316,0
                135.37760676,50.0976980980001,0
                135.368239155,50.113717378,0
                135.352905328,50.1399389260001,0
                135.352852646,50.1892516950001,0
                135.379011343,50.230038414,0
                135.384500767,50.238597585,0
                135.406918057,50.257854024,0
                135.433767908,50.2809181210001,0
                135.479501401,50.333801781,0
                135.511785709,50.3538346870001,0
                135.553420744,50.3796701690001,0
                135.613262233,50.414957201,0
                135.660570523,50.4244715290001,0
                135.683693106,50.4291218830001,0
                135.702808758,50.4331674200001,0
                135.750601898,50.4432823480001,0
                135.848853446,50.480246578,0
                135.86327025,50.485670509,0
                135.880802164,50.4887836560001,0
                135.92313814,50.4963013280001,0
                135.933002495,50.50054141,0
                135.997072506,50.528081468,0
                136.014601304,50.605590555,0
                135.961733122,50.6372344370001,0
                135.898305263,50.6618230870001,0
                135.827836791,50.6828813820001,0
                135.754166702,50.695079165,0
                135.743286293,50.696880637,0
                135.641139586,50.6967715120001,0
                135.553093365,50.686110576,0
                135.450965472,50.668389919,0
                135.400916615,50.6516475130001,0
                135.345334136,50.633053943,0
                135.300766388,50.6181451800001,0
                135.260828844,50.604785264,0
                135.148156669,50.5659195960001,0
                135.120553333,50.5555346350001,0
                135.063655497,50.534128224,0
                135.019906789,50.50643245,0
                134.996776727,50.4917894720001,0
                134.922868619,50.435353665,0
                134.848956739,50.382440042,0
                134.806753227,50.322515416,0
                134.772187026,50.26476589,0
                134.754012613,50.2344018200001,0
                134.708279135,50.1815183080001,0
                134.696638593,50.167793848,0
                134.648475209,50.111007972,0
                134.622181815,50.0800077600001,0
                134.588671416,50.040498407,0
                134.518315747,49.955887971,0
                134.483171748,49.8818820060001,0
                134.487087067,49.8726107190001,0
                134.511421597,49.814988198,0
                134.536164346,49.7340015130001,0
                134.515303509,49.696357576,0
                134.501009017,49.670562757,0
                134.437656483,49.6247051,0
                134.381337328,49.589421831,0
                134.332301765,49.57029205,0
                134.317962127,49.564697827,0
                134.229930993,49.5399473670001,0
                134.170063165,49.52931662,0
                134.099628561,49.5186745830001,0
                134.080027913,49.5195059330001,0
                134.018611776,49.522110599,0
                133.984315282,49.5310967020001,0
                133.951669392,49.539650092,0
                133.888241532,49.564238743,0
                133.869736024,49.5780871010001,0
                133.845939809,49.595894688,0
                133.817308122,49.6374456660001,0
                133.807134444,49.652209971,0
                133.789443755,49.7261595780001,0
                133.789327102,49.8353510360001,0
                133.78923679,49.9198861080001,0
                133.768058083,49.962130637,0
                133.732786003,50.0078829450001,0
                133.686969723,50.032490411,0
                133.623545627,50.0535562310001,0
                133.567177623,50.0640628,0
                133.511589195,50.066530432,0
                133.489683448,50.0675027500001,0
                133.415734141,50.049812241,0
                133.334769908,50.0039357370001,0
                133.333301737,50.0028846710001,0
                133.260858079,49.9510219910001,0
                133.173408777,49.884534086,0
                133.15879409,49.8734224770001,0
                133.138733408,49.856492599,0
                133.091930742,49.816994261,0
                132.996896062,49.753491142,0
                132.929224848,49.709141206,0
                132.905380048,49.6935138810001,0
                132.80330113,49.630003237,0
                132.701214684,49.5735373950001,0
                132.680153138,49.560870053,0
                132.613213504,49.5206091700001,0
                132.518156623,49.478239838,0
                132.419581026,49.4323445520001,0
                132.349803566,49.407990483,0
                132.338598528,49.404079643,0
                132.243514922,49.386366481,0
                132.127309387,49.358063939,0
                132.014614226,49.340331963,0
                131.989452111,49.3362459570001,0
                131.905442185,49.322603719,0
                131.782157358,49.3259939870001,0
                131.665921955,49.325869809,0
                131.575296189,49.328605365,0
                131.553204095,49.329272152,0
                131.539012111,49.331724686,0
                131.472176611,49.3432744260001,0
                131.408756149,49.360818393,0
                131.359394588,49.4065555280001,0
                131.324103694,49.4699194180001,0
                131.302894881,49.540343163,0
                131.303881452,49.5594744580001,0
                131.30634596,49.6072704740001,0
                131.319894514,49.640274547,0
                131.33093777,49.6671763050001,0
                131.374691359,49.744779226,0
                131.37664124,49.748237616,0
                131.422340786,49.8328223140001,0
                131.461010661,49.9033091700001,0
                131.479371966,49.9451600830001,0
                131.499662349,49.9914083510001,0
                131.533803829,50.0313263830001,0
                131.541877006,50.0407655330001,0
                131.594628961,50.118313105,0
                131.637421324,50.178357657,0
                131.647384488,50.1923376190001,0
                131.686065772,50.2522579870001,0
                131.715553174,50.2965917230001,0
                131.735298733,50.3262789020001,0
                131.780983307,50.4249525020001,0
                131.819615552,50.5306625200001,0
                131.847696072,50.6222725000001,0
                131.787727074,50.7067436020001,0
                131.720735849,50.7700736240001,0
                131.703537807,50.7790588820001,0
                131.646725967,50.80874034,0
                131.589767382,50.8428326010001,0
                131.576234681,50.8509324410001,0
                131.505728151,50.907213896,0
                131.449314991,50.9599884310001,0
                131.399961687,50.9986808840001,0
                131.383722214,51.008913261,0
                131.33299282,51.04087724,0
                131.244848617,51.1217961510001,0
                131.223752507,51.1541758560001,0
                131.198983448,51.192193026,0
                131.23062786,51.2450615280001,0
                131.270924724,51.325871244,0
                131.272804971,51.3296418240001,0
                131.315001228,51.3966106620001,0
                131.354399485,51.458668743,0
                131.364230524,51.474154216,0
                131.420515742,51.541137915,0
                131.431276126,51.5565447930001,0
                131.469752986,51.611636794,0
                131.519004897,51.6680462570001,0
                131.571756699,51.7455932120001,0
                131.601423034,51.795157316,0
                131.603400797,51.798461638,0
                131.603302959,51.8900415140001,0
                131.601208084,51.902528863,0
                131.589123637,51.974561641,0
                131.549193843,52.0293418530001,0
                131.532683514,52.051992463,0
                131.527786267,52.056364795,0
                131.465696077,52.111799644,0
                131.425845445,52.13830546,0
                131.402249555,52.1539997040001,0
                131.378623755,52.1683460150001,0
                131.321183622,52.2032252380001,0
                131.240129988,52.2418838240001,0
                131.220990337,52.2476035780001,0
                131.169661097,52.262942724,0
                131.106715812,52.2738203370001,0
                131.088632967,52.2769452200001,0
                131.107255591,52.294903344,0
                131.181878189,52.3668635540001,0
                131.230909686,52.41190572,0
                131.259080838,52.4377849520001,0
                131.272244202,52.4498770390001,0
                131.311186209,52.4856502810001,0
                131.371896283,52.5414208240001,0
                131.445815209,52.5877299360001,0
                131.47856612,52.6123479820001,0
                131.509165327,52.635348922,0
                131.541466439,52.6643989900001,0
                131.560629994,52.6816339550001,0
                131.603897466,52.711090868,0
                131.630584787,52.7292599620001,0
                131.66662708,52.7608648340001,0
                131.693927051,52.784803804,0
                131.759916454,52.8350670940001,0
                131.816671358,52.8747536450001,0
                131.873426261,52.914440196,0
                131.904575242,52.947390393,0
                131.920923402,52.964684194,0
                131.964966071,53.0038056970001,0
                131.978986503,53.0162596230001,0
                132.028260611,53.0366468660001,0
                132.084608557,53.0599610200001,0
                132.170527917,53.1075287510001,0
                132.23759975,53.144661898,0
                132.241469713,53.1468044360001,0
                132.32046389,53.1905382510001,0
                132.390838556,53.2575370810001,0
                132.432862332,53.3120411290001,0
                132.501609206,53.2740851570001,0
                132.600549362,53.2194591140001,0
                132.737452081,53.143873485,0
                132.902208248,53.052909636,0
                133.018470951,52.9887196070001,0
                133.127131917,52.9287265890001,0
                133.218985629,52.878013056,0
                133.250799229,52.7723778870001,0
                133.381203396,52.698548793,0
                133.571486682,52.6247836690001,0
                133.701841929,52.5967444890001,0
                133.733610374,52.533376935,0
                133.67026916,52.4769523830001,0
                133.585775324,52.438116758,0
                133.466081055,52.3781096970001,0
                133.42742229,52.297055377,0
                133.48737667,52.226673325,0
                133.617723951,52.2060910000001,0
                133.730411688,52.23045527,0
                133.839551595,52.2787123750001,0
                133.931092544,52.3152049890001,0
                134.114210813,52.354145977,0
                134.251554218,52.3789488410001,0
                134.318534385,52.32618582,0
                134.318602118,52.2627843990001,0
                134.382073605,52.1972685430001,0
                134.498309544,52.1973927220001,0
                134.632117028,52.2349408950001,0
                134.76596071,52.23860619,0
                134.910408484,52.2074720140001,0
                134.910502999,52.1190023300001,0
                134.910612125,52.016855139,0
                134.910728778,51.9076639040001,0
                134.910877994,51.767991614,0
                134.755896742,51.7678260430001,0
                134.632594926,51.787608645,0
                134.424800431,51.767472323,0
                134.301543771,51.7449873100001,0
                134.100859152,51.6637598940001,0
                133.935405071,51.575525504,0
                133.79108856,51.4837913920001,0
                133.671394291,51.42378433,0
                133.600982134,51.39200836,0
                133.509432543,51.3636042730001,0
                133.477791904,51.307341427,0
                133.481378176,51.24746607,0
                133.541283637,51.2228739330001,0
                133.618766737,51.230001321,0
                133.784277262,51.2654011920001,0
                133.91459488,51.2725850250001,0
                134.090691124,51.29038468,0
                134.182233325,51.3257055290001,0
                134.316039514,51.364465995,0
                134.509739601,51.3894569080001,0
                134.657604754,51.456538675,0
                134.773821878,51.474274359,0
                134.851286385,51.4990130740001,0
                134.948805973,51.518625576,0
                134.999215287,51.5062159010001,0
                135.044975098,51.534443228,0
                135.051929389,51.6189859830001,0
                135.062111174,51.678883678,0
                135.061806946,51.7681524180001,0
                135.06151095,51.8550060540001,0
                135.061162868,51.9571430400001,0
                135.060706721,52.090989591,0
                135.060342055,52.1979927030001,0
                135.060013511,52.2943969020001,0
                135.102233044,52.339351251,0
                135.067797449,52.4264918380001,0
                135.00955566,52.5426649720001,0
                135.057050093,52.595550589,0
                135.18377135,52.672296599,0
                135.310483569,52.756967086,0
                135.342127901,52.8098346250001,0
                135.349965462,52.8917370010001,0
                135.352542234,52.9524991170001,0
                135.323447026,52.986810533,0
                135.262633535,53.0369393280001,0
                135.196533856,53.0897024430001,0
                135.212347269,53.1240618350001,0
                135.278334059,53.1769672080001,0
                135.336407087,53.219297381,0
                135.399766304,53.258990941,0
                135.455216832,53.282825933,0
                135.449854443,53.3567885740001,0
                135.389046597,53.401632856,0
                135.309732855,53.4596663730001,0
                135.214557149,53.528249691,0
                135.153766811,53.5572427270001,0
                135.090294703,53.6232188010001,0
                135.024175268,53.6944742750001,0
                134.992403936,53.7604842150001,0
                135.03988483,53.826577678,0
                135.087373618,53.884746663,0
                135.140142952,53.9455624030001,0
                135.126835755,54.0380089340001,0
                135.08979799,54.0881619850001,0
                135.089741545,54.140996801,0
                135.105538023,54.19120744,0
                135.18211752,54.220348378,0
                135.319433163,54.270687695,0
                135.448832794,54.3130929220001,0
                135.535981847,54.3396040370001,0
                135.591378754,54.413630444,0
                135.583394436,54.4690990510001,0
                135.541101527,54.4928284750001,0
                135.427504018,54.4953505190001,0
                135.332405087,54.4926055180001,0
                135.189780103,54.4660374270001,0
                135.036596855,54.4315301330001,0
                134.925660788,54.4155603520001,0
                134.806774842,54.423358975,0
                134.661468665,54.4337704860001,0
                134.539946678,54.4362840650001,0
                134.5268026,54.3755083680001,0
                134.566487692,54.320075919,0
                134.632618419,54.23825142,0
                134.635316546,54.1854205700001,0
                134.579928106,54.1034685400001,0
                134.498132975,54.0109204070001,0
                134.469150657,53.9395621880001,0
                134.52998333,53.87094218,0
                134.62247784,53.8393407560001,0
                134.630529891,53.7204717430001,0
                134.575130164,53.6490853010001,0
                134.495956961,53.575032348,0
                134.4405657,53.4957214290001,0
                134.435355711,53.4270308660001,0
                134.504156341,53.318793499,0
                134.564980547,53.2580991140001,0
                134.559829825,53.1339326230001,0
                134.49649883,53.0678210820001,0
                134.419942483,53.0175466760001,0
                134.346005242,52.9884085620001,0
                134.293176642,52.98306875,0
                134.219214,52.9777063610001,0
                134.158434376,52.996133807,0
                134.113505428,53.0145770410001,0
                134.042139314,53.051485557,0
                134.007779922,53.0672989700001,0
                133.968145628,53.075182259,0
                133.931167129,53.0698593810001,0
                133.912705817,53.040780533,0
                133.933954534,52.9334613080001,0
                133.814246625,52.8856937260001,0
                133.72267426,52.8785510170001,0
                133.631079316,52.8925429220001,0
                133.525367458,52.933024802,0
                133.461896387,52.998030789,0
                133.377323736,53.033163689,0
                133.267979618,53.0183897680001,0
                133.189278744,53.060711177,0
                133.077080128,53.1210460030001,0
                132.961614891,53.1831374540001,0
                132.830903128,53.2534277280001,0
                132.688565405,53.3299698640001,0
                132.570722887,53.3933397000001,0
                132.502086206,53.430249088,0
                132.485692112,53.4901111120001,0
                132.43633891,53.528803505,0
                132.341183455,53.578013792,0
                132.231962746,53.606075493,0
                132.080503324,53.6059136850001,0
                132.013386818,53.621734287,0
                131.946622225,53.637471744,0
                131.789879686,53.6373042910001,0
                131.747121681,53.651506157,0
                131.726455566,53.6583702470001,0
                131.690529835,53.6722329680001,0
                131.617219122,53.700521359,0
                131.532825422,53.719901808,0
                131.479815272,53.7320751340001,0
                131.403855786,53.7596983600001,0
                131.349439587,53.7794871180001,0
                131.284245195,53.809357134,0
                131.23663947,53.8603796880001,0
                131.169644328,53.9272318370001,0
                131.09915493,53.9676630690001,0
                131.032203124,53.994008701,0
                130.945867136,54.0309008340001,0
                130.864799588,54.0818876380001,0
                130.846028667,54.0974960520001,0
                130.801341559,54.1346539830001,0
                130.78366977,54.190992742,0
                130.783598274,54.257916234,0
                130.798667024,54.283320238,0
                130.822274379,54.323119911,0
                130.876800309,54.388340644,0
                130.933083715,54.4570857360001,0
                130.998154215,54.5434520530001,0
                131.098449372,54.628094187,0
                131.195214811,54.719777515,0
                131.295536309,54.7797640220001,0
                131.365935394,54.8238679660001,0
                131.434592056,54.850358783,0
                131.552579648,54.8592904650001,0
                131.665293503,54.859410881,0
                131.76744021,54.8595200070001,0
                131.853736625,54.8596122000001,0
                131.973494863,54.859740141,0
                132.087969671,54.8598624380001,0
                132.181310469,54.859962157,0
                132.269368123,54.860056231,0
                132.336276718,54.874217065,0
                132.385535927,54.923582492,0
                132.397699025,54.9801271540001,0
                132.399555873,54.9887596080001,0
                132.386007916,55.010384856,0
                132.364272551,55.045078705,0
                132.335835116,55.060095071,0
                132.274403197,55.092533969,0
                132.168707671,55.11707728,0
                132.059516294,55.1169606280001,0
                131.930952434,55.1168232790001,0
                131.821761057,55.116706627,0
                131.773329561,55.1166548850001,0
                131.728399563,55.135979391,0
                131.72595236,55.160188852,0
                131.723059389,55.18880791,0
                131.769231921,55.24301282,0
                131.794409411,55.2808669010001,0
                131.819344185,55.3183566340001,0
                131.845694806,55.380464025,0
                131.848844583,55.396299625,0
                131.852264277,55.4134931460001,0
                131.976425326,55.4136257910001,0
                132.145495679,55.4138064140001,0
                132.296954787,55.4139682220001,0
                132.462502948,55.4141450820001,0
                132.66327417,55.4143595720001,0
                132.895716814,55.4419057010001,0
                133.061238633,55.466738761,0
                133.128272967,55.472131113,0
                133.283124795,55.484588086,0
                133.445117127,55.5164615140001,0
                133.617649037,55.5730026140001,0
                133.80426765,55.633081599,0
                133.973300165,55.6684853830001,0
                134.073408057,55.685005613,0
                134.188122913,55.7039369130001,0
                134.335626931,55.7328820860001,0
                134.476891217,55.7606033650001,0
                134.677381179,55.785881363,0
                134.702288472,55.78902177,0
                134.781587549,55.7988462930001,0
                134.903033395,55.8138925690001,0
                134.941097051,55.818845201,0
                135.12138586,55.8423038710001,0
                135.266009041,55.853306242,0
                135.40314763,55.8637396820001,0
                135.670793536,55.909815607,0
                135.868008601,55.9417266630001,0
                135.91389281,55.9519742950001,0
                135.99478112,55.9700399970001,0
                136.089425408,55.997450975,0
                136.177884413,56.0230709050001,0
                136.222721072,56.044052542,0
                136.283500728,56.0724952690001,0
                136.420149525,56.1759086980001,0
                136.455954102,56.203005101,0
                136.507344481,56.245310461,0
                136.603760992,56.3246822770001,0
                136.756845729,56.4516488740001,0
                136.808400845,56.4912621230001,0
                136.915219357,56.573338506,0
                137.058391796,56.6858010170001,0
                137.1105435,56.7267665900001,0
                137.295306242,56.8749007770001,0
                137.474785554,57.023029319,0
                137.649015301,57.139451632,0
                137.860200985,57.282330325,0
                138.066131317,57.398786505,0
                138.224522062,57.5046250240001,0
                138.266057135,57.528418286,0
                138.409329975,57.6104920280001,0
                138.473306952,57.6415952460001,0
                138.583593575,57.695212923,0
                138.652517979,57.7532353540001,0
                138.715561303,57.806307352,0
                138.773310613,57.8593572400001,0
                138.842239965,57.9226778780001,0
                138.929032754,57.9929333420001,0
                138.979491228,58.0337778510001,0
                139.074531203,58.091997582,0
                139.136241449,58.12447896,0
                139.180140995,58.1475859270001,0
                139.262026061,58.155598706,0
                139.281236641,58.159010021,0
                139.351827859,58.1715456000001,0
                139.377451431,58.188056121,0
                139.388786563,58.195360045,0
                139.441587217,58.227117074,0
                139.494351182,58.2932168310001,0
                139.539192752,58.356665977,0
                139.642169279,58.4043272060001,0
                139.767673005,58.4551675970001,0
                139.779479844,58.459950473,0
                139.787735732,58.464089405,0
                139.863969801,58.50230817,0
                139.903056624,58.5209723240001,0
                139.91941776,58.5287849580001,0
                139.953647323,58.6344911320001,0
                140.072522242,58.637259397,0
                140.154427124,58.62678011,0
                140.207613452,58.6144708130001,0
                140.268049468,58.600483867,0
                140.296539254,58.5987878600001,0
                140.355232108,58.5952942690001,0
                140.434459736,58.5805260600001,0
                140.482060311,58.571653456,0
                140.563965061,58.5611740850001,0
                140.628489042,58.538309939,0
                140.682887895,58.519033807,0
                140.810515922,58.571124249,0
                140.850608746,58.5845358220001,0
                140.958399807,58.6205938940001,0
                141.113350916,58.64893814,0
                141.247138192,58.705437922,0
                141.277200915,58.7139277730001,0
                141.472497667,58.7690810500001,0
                141.590430758,58.805110583,0
                141.634470883,58.8185654170001,0
                141.664830693,58.8396318650001,0
                141.725983006,58.8820654150001,0
                141.764349994,58.9315026840001,0
                141.775227485,58.945518844,0
                141.82604085,59.0283759280001,0
                141.88359403,58.9526075000001,0
                141.936298814,58.8832223750001,0
                142.01555335,58.778883546,0
                142.050137121,58.7333538410001,0
                142.080289281,58.6936585110001,0
                142.10478406,58.6614112490001,0
                142.18423934,58.556809195,0
                142.266065754,58.449085041,0
                142.421172963,58.2448863700001,0
                142.468932514,58.1820110620001,0
                142.543858326,58.0833712080001,0
                142.58366735,58.0309623140001,0
                142.611170535,57.994754335,0
                142.630812512,57.9688957990001,0
                142.68491184,57.897674877,0
                142.771493918,57.95018335,0
                142.83032569,57.9858627250001,0
                142.956123714,58.062155256,0
                142.959424322,58.0641569730001,0
                143.084452243,58.139982552,0
                143.145979839,58.1772967590001,0
                143.222210336,58.2235279440001,0
                143.262905711,58.2383820200001,0
                143.33901909,58.266164298,0
                143.487145178,58.3202306650001,0
                143.61521144,58.366974967,0
                143.620499634,58.3689051680001,0
                143.917381165,58.384382122,0
                144.122567056,58.3950788490001,0
                144.368473882,58.4078985770001,0
                144.734538184,58.4269820280001,0
                144.944956326,58.4379517300001,0
                145.234941991,58.4288516280001,0
                145.428199277,58.4227871250001,0
                145.586585409,58.417817105,0
                145.706524533,58.4140529640001,0
                145.960254553,58.406090406,0
                146.171666847,58.3994562710001,0
                146.312126661,58.3950489280001,0
                146.644255855,58.3846262850001,0
                146.849226202,58.3781936930001,0
                146.967749876,58.3744742110001,0
                147.481939428,58.35833839,0
                147.982054113,58.342644034,0
                148.201230391,58.335766273,0
                148.327573747,58.3318018900001,0
                148.457615886,58.3277206060001,0
                148.686482905,58.3205382580001,0
                148.919656746,58.3132212420001,0
                149.038354493,58.3094967430001,0
                149.25084865,58.3028287980001,0
                149.60727621,58.291642966,0
                149.686712289,58.2891501180001,0
                149.769434673,58.2865542500001,0
                149.982513252,58.2798680230001,0
                150.208395689,58.2727793490001,0
                150.405596747,58.266590765,0
                150.539384212,58.2623923200001,0
                150.884903319,58.251549337,0
                151.406358352,58.235185476,0
                151.665620393,58.2270497980001,0
                151.863563233,58.2208387210001,0
                152.189692442,58.2106038250001,0
                152.321453974,58.2064689200001,0
                152.666643142,58.1956365730001,0
                152.786380617,58.1918791590001,0
                153.243815287,58.1775244410001,0
                153.704213844,58.163076684,0
                153.977648166,58.176906354,0
                154.272841089,58.1918353040001,0
                154.315292119,58.193982272,0
                154.661974881,58.2115161180001,0
                154.717223057,58.214310358,0
                154.906951925,58.22390678,0
                155.075154745,58.232413084,0
                155.151462626,58.2362723200001,0
                155.278447619,58.290600291,0
                155.472394565,58.373576934,0
                155.759848034,58.4965574170001,0
                156.024348183,58.6097183570001,0
                156.259551897,58.7103456410001,0
                156.346906165,58.7763391180001,0
                156.441169889,58.8475529610001,0
                156.519003609,58.9063547980001,0
                156.546820948,58.927370421,0
                156.663867485,59.0157961400001,0
                156.809909287,59.126127271,0
                157.038126427,59.298540202,0
                157.291064985,59.4896301590001,0
                157.462613954,59.619230815,0
                157.502365902,59.6492624520001,0
                157.531858219,59.671543274,0
                157.637475712,59.7513354920001,0
                157.848958906,59.8837202610001,0
                158.00054749,59.978614131,0
                158.149925937,60.072122091,0
                158.373595299,60.212138505,0
                158.631110324,60.2522319030001,0
                158.842798306,60.2851890840001,0
                159.138123305,60.3311686010001,0
                159.353592211,60.3242611430001,0
                159.614431191,60.315897201,0
                159.906588943,60.3065313450001,0
                160.241858116,60.2957821840001,0
                160.558569394,60.43962946,0
                160.921656334,60.6045383680001,0
                161.279175128,60.7669170360001,0
                161.721086155,60.9676281870001,0
                161.899733936,61.048768152,0
                162.16514591,61.1693128650001,0
                162.363142547,61.259239801,0
                162.493585327,61.3184869670001,0
                162.74974238,61.387170746,0
                163.012566734,61.4576437710001,0
                163.215736868,61.512121628,0
                163.331478414,61.465115252,0
                163.430875989,61.424745741,0
                163.542364251,61.379466549,0
                163.694847655,61.3175369320001,0
                163.913420478,61.1786778800001,0
                164.076450982,61.075101857,0
                164.213645612,60.9948170010001,0
                164.287669199,60.942060059,0
                164.418096909,60.847098681,0
                164.534466455,60.7204197550001,0
                164.633205253,60.6148554860001,0
                164.732020782,60.4353240740001,0
                164.802644066,60.2698500110001,0
                164.834449632,60.1712602600001,0
                164.858671598,60.0634127820001,0
                164.943029352,59.988216267,0
                164.996993373,59.9401085210001,0
                165.112953188,59.836738763,0
                165.209430668,59.800209835,0
                165.371279824,59.7389316030001,0
                165.537494428,59.675997318,0
                165.737589927,59.6002349660001,0
                166.000430961,59.5007169350001,0
                166.254593813,59.4044835820001,0
                166.568005263,59.2858170980001,0
                166.898839536,59.160553845,0
                167.255786273,59.025404576,0
                167.540429326,58.917631446,0
                167.764414464,58.8328236610001,0
                168.019196039,58.7363573220001,0
                168.331553365,58.6180905750001,0
                168.648358632,58.498140376,0
                168.855152395,58.419842563,0
                169.163691962,58.303021716,0
                169.369825753,58.2249728780001,0
                169.724865902,58.090545417,0
                170.060686635,57.9633954170001,0
                170.424966404,57.8254685580001,0
                170.714779243,57.7157378680001,0
                170.887712736,57.6502612720001,0
                171.114472969,57.5644027540001,0
                171.386984437,57.4612231510001,0
                171.714317187,57.3372870220001,0
                171.938728558,57.252317055,0
                172.144667565,57.174343601,0
                172.303869957,57.114065845,0
                172.511509312,57.0354459550001,0
                172.643093842,56.9190018510001,0
                172.800823323,56.7794158020001,0
                172.984787165,56.6166168940001,0
                173.105240513,56.4924734940001,0
                173.237145952,56.3565271790001,0
                173.41622878,56.171959637,0
              </coordinates>
            </LinearRing>
          </outerBoundaryIs>
        </Polygon>
      </Placemark>
    </Document>
  </Document>
</kml>
