<?xml version="1.0" encoding="UTF-8"?>
<kml xmlns="http://www.opengis.net/kml/2.2">
  <Document id="root_doc">
    <Schema id="Bioregions_PA9.schema">
      <SimpleField name="OBJECTID" type="float"/>
      <SimpleField name="Shape_Leng" type="float"/>
      <SimpleField name="Shape_Area" type="float"/>
      <SimpleField name="Bioregions" type="string"/>
    </Schema>
    <Document id="Bioregions_PA9">
      <name>Bioregions_PA9</name>
      <Placemark id="Bioregions_PA9.1">
        <ExtendedData>
          <SchemaData schemaUrl="#Bioregions_PA9.schema">
            <SimpleData name="OBJECTID">172</SimpleData>
            <SimpleData name="Shape_Leng">62.64383360860</SimpleData>
            <SimpleData name="Shape_Area">255.11630752400</SimpleData>
            <SimpleData name="Bioregions">PA9</SimpleData>
          </SchemaData>
        </ExtendedData>
        <Polygon>
          <outerBoundaryIs>
            <LinearRing>
              <coordinates>
                -0.602252533999945,64.4881221050001,0
                -0.612783254999954,64.3513310660001,0
                -0.626260263999939,64.17626856,0
                -0.642224699999929,63.9688951150001,0
                -0.610112171999958,63.948986533,0
                -0.571281042999942,63.92371719,0
                -0.518430699999954,63.8878968180001,0
                -0.479907681999975,63.8609169380001,0
                -0.436741693999977,63.8299030160001,0
                -0.402836203999925,63.8049982310001,0
                -0.366689973999939,63.77794384,0
                -0.328376128999935,63.7487184230001,0
                -0.287967791999961,63.7173005600001,0
                -0.242334711999945,63.681103331,0
                -0.194462001999966,63.642327558,0
                -0.144440162999956,63.600946725,0
                -0.09235969599996,63.5569343230001,0
                -0.0452382419999253,63.5163018280001,0
                0.00332550100006301,63.473622199,0
                0.0532711570000401,63.428877749,0
                0.104538348000062,63.382050791,0
                0.150975498000037,63.338846618,0
                0.198359035000067,63.293984424,0
                0.246647075000055,63.2474519370001,0
                0.295797737000044,63.1992368910001,0
                0.342708988000027,63.152409376,0
                0.390309535000029,63.1040766450001,0
                0.438564679000024,63.0542285320001,0
                0.487439719000065,63.0028548720001,0
                0.520812402000047,62.9672574470001,0
                0.554441779000058,62.930955118,0
                0.588317134000022,62.893944746,0
                0.622427744000049,62.8562231910001,0
                0.663824629000032,62.809823656,0
                0.70552874200007,62.762381599,0
                0.747521333000066,62.713891528,0
                0.78978365200004,62.664347949,0
                0.836272701000041,62.6089733970001,0
                0.883037212000033,62.5523259970001,0
                0.930052686000067,62.4943985720001,0
                0.977294627000049,62.435183947,0
                1.00177729200004,62.4040014890001,0
                1.02639769200005,62.372539697,0
                1.05097490900005,62.3406590870001,0
                1.07568991600004,62.3085011920001,0
                1.10035017400003,62.2759201050001,0
                1.12514414500004,62.243060476,0
                1.14987385200004,62.209774956,0
                1.17473322600006,62.176209595,0
                1.21017971400005,62.127648854,0
                1.24567115900004,62.0783633980001,0
                1.28119770300003,62.0283503360001,0
                1.31674948500006,61.9776067810001,0
                1.34360208100003,61.9386721170001,0
                1.37058733500004,61.899404356,0
                1.39744291500006,61.8596255470001,0
                1.42442622000004,61.8195117070001,0
                1.45485359100007,61.773589615,0
                1.48526418100005,61.727122207,0
                1.51565181200004,61.6801076730001,0
                1.54601030200007,61.6325442020001,0
                1.57793572800006,61.581870554,0
                1.60981478500003,61.5305842650001,0
                1.64164026200007,61.478683222,0
                1.67340494600006,61.426165311,0
                1.71916633100005,61.1783055990001,0
                1.75875321100006,60.9638891720001,0
                1.79947075700005,60.743348666,0
                1.86033975100003,60.413660846,0
                1.91204463800005,60.1336090460001,0
                1.94034267700005,59.9803369460001,0
                1.85472449500003,59.8398974850001,0
                1.78049821800005,59.7181441600001,0
                1.66663845200003,59.5313800430001,0
                1.56944630800007,59.3719558180001,0
                1.51798137200007,59.142188898,0
                1.47084866500006,58.931763356,0
                1.42578381600003,58.7305698370001,0
                1.37254620900006,58.4928887680001,0
                1.49293816100004,58.361443331,0
                1.61212374800004,58.231315018,0
                1.71767999800005,58.1160673860001,0
                1.85160260500004,57.9698490100001,0
                1.95484934600006,57.7530889430001,0
                2.04015830200007,57.5739881330001,0
                2.13784622100007,57.368898465,0
                2.25585203400004,57.121152652,0
                2.35039296900004,56.9226698790001,0
                2.47305642600003,56.665145635,0
                2.63879475100003,56.5378828680001,0
                2.81354951900005,56.4036967930001,0
                2.95356902100002,56.296182317,0
                3.15114558100004,56.1444724470001,0
                3.20574208000005,56.0360660010001,0
                3.27203166900006,55.9044418380001,0
                3.18790241500005,55.7130242750001,0
                3.09465806900005,55.500867328,0
                2.98997247900007,55.262678355,0
                2.86566821600007,54.9798514180001,0
                2.78106222000002,54.787349132,0
                2.71046992400005,54.626731932,0
                2.63164631600006,54.4473861930001,0
                2.67835090100004,54.2764701790001,0
                2.73246086800003,54.078454079,0
                2.78681764200007,53.879534789,0
                2.80916912900005,53.797739246,0
                2.88380221900007,53.5246185230001,0
                2.93424649800005,53.3400170530001,0
                3.00033199000006,53.0981763730001,0
                3.06840079900007,52.8490777160001,0
                2.98567918700007,52.593020306,0
                2.87017825500004,52.4701944020001,0
                2.71916870100006,52.3096079490001,0
                2.56250104600002,52.143004563,0
                2.44627473900005,52.010792038,0
                2.33764792500006,51.8872242680001,0
                2.23994729100002,51.7760855070001,0
                2.10161686300006,51.624599135,0
                1.99296042300006,51.5681881570001,0
                1.86154963200005,51.3442158760001,0
                1.72093595900003,51.250795257,0
                1.58807054900007,51.1625224140001,0
                1.35306299900003,51.0559244190001,0
                1.15674540200007,50.96687595,0
                1.10185889000007,50.8256598950001,0
                0.975189684000043,50.7291218820001,0
                0.786235979000026,50.5851151740001,0
                0.581011794000062,50.4287082960001,0
                0.354575665000027,50.3854764110001,0
                0.135851149000075,50.343716853,0
                -0.0660834789999285,50.3051628710001,0
                -0.221283207999932,50.295874956,0
                -0.384831868999925,50.2860874,0
                -0.508343013999934,50.23804347,0
                -0.636297997999975,50.1882709540001,0
                -0.875807541999961,50.192638565,0
                -1.09763435799994,50.1966837190001,0
                -1.44642366999994,50.2030441160001,0
                -1.75285735899996,50.2086321310001,0
                -1.99083572999996,50.2129718200001,0
                -2.19006738599995,50.2166049370001,0
                -2.45899375699997,50.1460092410001,0
                -2.65013320399993,50.095833342,0
                -2.81631788499993,50.052208304,0
                -2.93664357699993,50.02062168,0
                -3.07155477499992,49.836640936,0
                -3.28372300099994,49.763765564,0
                -3.50966592099996,49.6861588730001,0
                -3.71661069599998,49.6150776480001,0
                -3.89280713299996,49.605431089,0
                -4.06561863599995,49.5959698520001,0
                -4.23140962199994,49.559885568,0
                -4.42951429899995,49.516768235,0
                -4.50464210899997,49.524163936,0
                -4.68100842999996,49.4451626630001,0
                -4.88112587599994,49.402432344,0
                -5.17337735799993,49.340028992,0
                -5.34703011599993,49.302949577,0
                -5.47634142899994,49.2753382220001,0
                -5.66188518999996,49.269281506,0
                -5.83292338099994,49.263698296,0
                -6.00686431499997,49.2140134310001,0
                -6.17542246699998,49.1658661170001,0
                -6.34918390699994,49.1162325240001,0
                -6.61717638599993,49.0396825730001,0
                -6.73297568799995,49.0066054100001,0
                -6.93955205099996,48.9475984920001,0
                -7.21727523399994,48.8682690420001,0
                -7.55923804299994,48.7705900460001,0
                -7.83835122299996,48.690863554,0
                -8.03233215199998,48.6354544230001,0
                -8.18726456199994,48.5911991950001,0
                -8.48802979399994,48.505287964,0
                -8.79785190599995,48.4167897070001,0
                -9.10699961599994,48.328484087,0
                -9.37078011899996,48.2531372540001,0
                -9.62339760499998,48.1809790500001,0
                -9.74237584999997,48.146993847,0
                -9.79534569499998,48.019664655,0
                -9.86653206199998,47.848546492,0
                -9.95374329099997,47.6389076780001,0
                -10.011812638,47.499320277,0
                -10.0757562809999,47.537130699,0
                -10.1091900389999,47.5576807840001,0
                -10.1483863559999,47.582325085,0
                -10.1927369429999,47.6108912170001,0
                -10.2416335089999,47.643206793,0
                -10.2812833629999,47.6700466660001,0
                -10.322924342,47.698860037,0
                -10.3662928909999,47.7295722160001,0
                -10.411125448,47.7621085120001,0
                -10.467156921,47.8039641660001,0
                -10.524486684,47.84826588,0
                -10.582642764,47.894879899,0
                -10.6411531859999,47.943672469,0
                -10.67680594,47.974438972,0
                -10.712307919,48.0059355430001,0
                -10.7475520959999,48.0381318500001,0
                -10.7824314399999,48.070997559,0
                -10.8231938769999,48.1108180470001,0
                -10.8631133129999,48.151487495,0
                -10.902010989,48.192955243,0
                -10.9397081449999,48.2351706330001,0
                -10.968853517,48.239388079,0
                -11.052786462,48.2526409180001,0
                -11.1136561609999,48.2629370940001,0
                -11.1862522169999,48.275829898,0
                -11.226742365,48.2832852220001,0
                -11.2699177869999,48.291431926,0
                -11.3156963759999,48.3002840830001,0
                -11.3639960249999,48.3098557690001,0
                -11.434973656,48.3243420680001,0
                -11.5104201619999,48.340275848,0
                -11.549750877,48.3487972620001,0
                -11.590116769,48.357694608,0
                -11.6314904929999,48.3669725760001,0
                -11.6738447,48.376635852,0
                -11.744873433,48.393215732,0
                -11.818313562,48.4108509330001,0
                -11.894046846,48.429561726,0
                -11.9327364719999,48.439326803,0
                -11.9719550469999,48.449368378,0
                -12.019658423,48.461777284,0
                -12.068075602,48.474591757,0
                -12.117181103,48.487816164,0
                -12.166949442,48.501454876,0
                -12.2202919809999,48.516338917,0
                -12.2743176349999,48.531696674,0
                -12.328996235,48.5475333210001,0
                -12.3842976139999,48.563854028,0
                -12.446875427,48.5826954610001,0
                -12.510152892,48.6021566260001,0
                -12.574087748,48.6222447650001,0
                -12.638637737,48.6429671240001,0
                -12.6836513289999,48.657684428,0
                -12.728925325,48.6727114030001,0
                -12.774445714,48.688050452,0
                -12.820198486,48.703703976,0
                -12.8587526709999,48.717081138,0
                -12.897452287,48.7306827580001,0
                -12.9362890629999,48.7445102550001,0
                -12.975254724,48.7585650450001,0
                -13.032293895,48.779472093,0
                -13.089563917,48.8008699550001,0
                -13.1470391309999,48.8227630310001,0
                -13.204693875,48.845155719,0
                -13.248244026,48.8623630290001,0
                -13.291870574,48.8798584360001,0
                -13.335562539,48.897643821,0
                -13.379308941,48.9157210660001,0
                -13.441555426,48.9419191360001,0
                -13.503858163,48.968715951,0
                -13.566185627,48.996116918,0
                -13.628506294,49.02412744,0
                -13.673637583,49.0448058860001,0
                -13.718736764,49.0658092080001,0
                -13.7637918479999,49.0871394640001,0
                -13.8087908439999,49.1087987060001,0
                -13.853721763,49.1307889930001,0
                -13.8985726139999,49.1531123760001,0
                -13.943331406,49.1757709140001,0
                -13.987986152,49.198766661,0
                -14.046248793,49.2293741140001,0
                -14.10428582,49.260567232,0
                -14.1620703569999,49.2923506230001,0
                -14.219575532,49.324728894,0
                -14.2632598889999,49.3498437000001,0
                -14.306753913,49.375309756,0
                -14.3500456579999,49.4011291100001,0
                -14.3931231729999,49.4273038090001,0
                -14.4359745109999,49.453835903,0
                -14.478587725,49.4807274390001,0
                -14.5209508679999,49.5079804650001,0
                -14.563051989,49.535597029,0
                -14.5976468329999,49.5587010310001,0
                -14.6320477319999,49.582055987,0
                -14.6662479359999,49.605663055,0
                -14.700240697,49.6295233930001,0
                -14.760994538,49.6731950810001,0
                -14.8210122639999,49.717700935,0
                -14.880254301,49.7630477370001,0
                -14.938681077,49.8092422730001,0
                -14.993093915,49.853668428,0
                -15.046710434,49.898862969,0
                -15.089964219,49.9364170280001,0
                -15.1326442819999,49.9744924550001,0
                -15.174732342,50.0130923840001,0
                -15.2162101239999,50.0522199480001,0
                -15.251693395,50.086602541,0
                -15.286691436,50.1213868360001,0
                -15.321192304,50.1565748800001,0
                -15.355184059,50.19216872,0
                -15.3886547549999,50.2281704040001,0
                -15.421592453,50.2645819780001,0
                -15.4539852089999,50.301405489,0
                -15.4858210799999,50.338642985,0
                -15.5298323549999,50.3919689430001,0
                -15.5726742529999,50.4461313030001,0
                -15.614313081,50.501135837,0
                -15.65471515,50.556988323,0
                -15.6938469149999,50.6136947530001,0
                -15.731674529,50.6712606900001,0
                -15.768164301,50.72969191,0
                -15.803282538,50.7889941880001,0
                -15.832918191,50.8417099420001,0
                -15.8614509019999,50.895103636,0
                -15.8888579609999,50.94917916,0
                -15.915116661,51.0039404080001,0
                -15.9451437719999,51.0707132470001,0
                -15.973437567,51.1384903090001,0
                -15.992563226,51.187518175,0
                -16.0107700999999,51.2370642600001,0
                -16.028043797,51.287131033,0
                -16.044369924,51.3377209590001,0
                -16.062421585,51.3981816090001,0
                -16.07910616,51.459380336,0
                -16.0943998999999,51.5213212090001,0
                -16.108279054,51.5840083000001,0
                -16.1198149259999,51.6425415,0
                -16.130106451,51.701717253,0
                -16.1391349479999,51.761538762,0
                -16.146881731,51.82200923,0
                -16.153328143,51.883132092,0
                -16.158455465,51.944910323,0
                -16.162245017,52.0073471260001,0
                -16.164678114,52.070445702,0
                -16.165776681,52.14456276,0
                -16.1649911489999,52.219581777,0
                -16.1622922509999,52.295507769,0
                -16.1576507189999,52.372345754,0
                -16.153514846,52.4234942050001,0
                -16.148513855,52.4750425070001,0
                -16.142639367,52.5269920980001,0
                -16.1358829989999,52.5793444120001,0
                -16.1272718439999,52.63837298,0
                -16.1175354499999,52.697909071,0
                -16.106662091,52.7579546960001,0
                -16.0946400459999,52.818511863,0
                -16.082258031,52.8760087310001,0
                -16.068837146,52.9339627080001,0
                -16.0511581009999,53.0048424030001,0
                -16.0319201309999,53.0763994810001,0
                -16.011105781,53.1486369340001,0
                -15.988697605,53.221557751,0
                -16.0181218069999,53.2940867780001,0
                -16.0323301129999,53.3333974670001,0
                -16.048154773,53.3804658230001,0
                -16.0650335139999,53.434934991,0
                -16.082404061,53.4964481200001,0
                -16.096069749,53.549646452,0
                -16.109416602,53.6068221190001,0
                -16.1221695369999,53.6678005370001,0
                -16.134053471,53.7324071200001,0
                -16.143055664,53.7886311830001,0
                -16.1511134699999,53.8471322840001,0
                -16.158069844,53.907810753,0
                -16.16376774,53.9705669190001,0
                -16.168050127,54.0353013640001,0
                -16.170759936,54.101914181,0
                -16.1717401189999,54.1703056970001,0
                -16.170833629,54.2403762430001,0
                -16.168903029,54.29226385,0
                -16.165834194,54.344946387,0
                -16.1615669559999,54.3983856670001,0
                -16.1560411469999,54.4525435030001,0
                -16.1466603809999,54.525467522,0
                -16.134815948,54.599500757,0
                -16.120367178,54.6745539300001,0
                -16.1031733999999,54.7505377640001,0
                -16.0854863129999,54.8187356190001,0
                -16.065424102,54.8875346950001,0
                -16.042888197,54.956872434,0
                -16.0177800299999,55.0266862760001,0
                -15.997413082,55.078798589,0
                -15.975533073,55.131113316,0
                -15.95209964,55.1836048440001,0
                -15.9270724249999,55.2362475570001,0
                -15.90182957,55.286286191,0
                -15.875082687,55.3364159070001,0
                -15.846797357,55.3866148600001,0
                -15.8169391599999,55.4368612050001,0
                -15.7854735519999,55.487133289,0
                -15.752366223,55.537409074,0
                -15.7175827519999,55.5876667140001,0
                -15.6810887199999,55.637884365,0
                -15.643110957,55.6877054560001,0
                -15.603377705,55.737444124,0
                -15.561855231,55.787078959,0
                -15.518509797,55.836588551,0
                -15.4839513909999,55.8745246460001,0
                -15.448281919,55.912364483,0
                -15.4114860889999,55.950098354,0
                -15.373548603,55.9877165510001,0
                -15.3284554049999,56.030853661,0
                -15.281806563,56.073809913,0
                -15.2335787649999,56.1165705120001,0
                -15.1837486979999,56.15912066,0
                -15.132292847,56.2014457230001,0
                -15.0791880859999,56.243530741,0
                -15.0244111009999,56.285360918,0
                -14.9679385769999,56.3269214570001,0
                -14.912982154,56.3659424370001,0
                -14.856470481,56.40469682,0
                -14.7983838709999,56.44317211,0
                -14.7387026379999,56.481355814,0
                -14.67740686,56.5192355830001,0
                -14.614477074,56.5567987740001,0
                -14.549893595,56.5940328950001,0
                -14.483636733,56.6309254500001,0
                -14.5251602079999,56.6751875990001,0
                -14.571527169,56.7288206970001,0
                -14.599496885,56.7630184970001,0
                -14.6300421609999,56.801948843,0
                -14.675794202,56.86349412,0
                -14.699809984,56.89745922,0
                -14.7243805959999,56.933489889,0
                -14.749352277,56.971539073,0
                -14.774571271,57.0115597160001,0
                -14.799883817,57.0535047660001,0
                -14.825136158,57.0973271670001,0
                -14.8520593,57.1465134840001,0
                -14.878543373,57.1977594890001,0
                -14.904396939,57.2510065980001,0
                -14.92942856,57.306196223,0
                -14.9594872709999,57.3783732270001,0
                -14.973794422,57.4155456330001,0
                -14.9875563759999,57.4534211370001,0
                -15.00818149,57.5150043460001,0
                -15.027118217,57.5782666160001,0
                -15.044174895,57.643149292,0
                -15.059159864,57.7095937230001,0
                -15.071881506,57.7775415150001,0
                -15.082148096,57.8469337660001,0
                -15.089767971,57.9177118200001,0
                -15.094549468,57.9898170230001,0
                -15.096025056,58.0362751000001,0
                -15.096229277,58.0832298380001,0
                -15.095113027,58.1306662110001,0
                -15.092627202,58.1785691900001,0
                -15.088722699,58.226923748,0
                -15.0833504139999,58.2757148590001,0
                -15.076461244,58.324927496,0
                -15.0680060839999,58.374546631,0
                -15.0583015249999,58.422867963,0
                -15.047044442,58.4715413010001,0
                -15.0341905249999,58.520553083,0
                -15.0196954629999,58.5698897500001,0
                -15.00012737,58.629346653,0
                -14.97806896,58.6892262650001,0
                -14.9534442639999,58.749505341,0
                -14.926177314,58.810160631,0
                -14.908474145,58.846811689,0
                -14.8897712369999,58.883585361,0
                -14.8700520629999,58.920476589,0
                -14.849300096,58.957480317,0
                -14.82749881,58.994591487,0
                -14.804631679,59.0318050400001,0
                -14.7806821779999,59.069115921,0
                -14.755633777,59.10651907,0
                -14.7294698489999,59.1440095730001,0
                -14.702173963,59.181582232,0
                -14.6737295889999,59.2192319870001,0
                -14.6441202029999,59.256953782,0
                -14.613329278,59.2947425580001,0
                -14.5813402869999,59.3325932600001,0
                -14.548136701,59.3705008270001,0
                -14.5137019979999,59.4084602030001,0
                -14.4690584749999,59.455812253,0
                -14.4224468429999,59.503227076,0
                -14.3738351549999,59.550694896,0
                -14.32319146,59.5982059360001,0
                -14.284696793,59.633110297,0
                -14.2450769119999,59.6680288150001,0
                -14.2043191729999,59.7029576210001,0
                -14.1624109319999,59.7378928460001,0
                -14.111417665,59.7791548530001,0
                -14.0587812159999,59.8204140400001,0
                -14.004480757,59.8616640340001,0
                -13.948495458,59.9028984610001,0
                -13.890804268,59.9441111030001,0
                -13.8313865699999,59.9852954300001,0
                -13.7702215309999,60.0264450650001,0
                -13.707288325,60.0675536370001,0
                -13.64403392,60.10769664,0
                -13.579050213,60.1477883480001,0
                -13.5123177429999,60.1878228040001,0
                -13.47828964,60.2078167010001,0
                -13.443817048,60.227794052,0
                -13.620334021,60.3683269310001,0
                -13.7236376889999,60.4505714970001,0
                -13.859614446,60.5588285380001,0
                -13.9895870289999,60.6623053930001,0
                -14.1499641419999,60.789988624,0
                -13.942479044,61.0346318300001,0
                -13.7610768219999,61.2485210310001,0
                -13.594604631,61.444806408,0
                -13.360777926,61.7205086910001,0
                -13.130288552,61.9922759670001,0
                -12.921385796,62.141373135,0
                -12.682755566,62.311687265,0
                -12.4507764419999,62.4772543980001,0
                -12.2770800119999,62.601224259,0
                -12.125654212,62.6774410630001,0
                -11.959632363,62.7610044630001,0
                -11.7992562179999,62.8417262230001,0
                -11.5938013909999,62.945137334,0
                -11.250487743,63.117936613,0
                -10.932469818,63.278003852,0
                -10.741152346,63.37429924,0
                -10.5300735719999,63.480541041,0
                -10.1642427909999,63.6646738160001,0
                -9.95881060499994,63.768073531,0
                -9.71961282499996,63.8884684060001,0
                -9.40444058999998,64.0471033310001,0
                -9.01044632699995,64.2454115670001,0
                -8.65868553199994,64.4224625300001,0
                -8.38292361899994,64.561261146,0
                -8.12963382699996,64.6887489210001,0
                -7.72441470899997,64.89270694,0
                -7.46550145399993,65.023025159,0
                -7.18973929799995,65.1618238990001,0
                -6.91138753799993,65.3019260570001,0
                -6.59191335399993,65.424923543,0
                -6.28273832699995,65.543955855,0
                -5.99575895099997,65.654442847,0
                -5.71842639599993,65.7612158150001,0
                -5.67093115299997,65.7610486520001,0
                -5.61328419099993,65.7602104740001,0
                -5.53456841999997,65.7583099220001,0
                -5.47761036299994,65.7564818710001,0
                -5.41370781899997,65.754027675,0
                -5.34310991899997,65.750856307,0
                -5.26606579299994,65.746876736,0
                -5.22480992599998,65.7445323320001,0
                -5.18200733299994,65.7419471370001,0
                -5.13769004999995,65.739109446,0
                -5.09189010999995,65.7360075540001,0
                -5.04463954899995,65.7326297560001,0
                -4.99597040199995,65.728964347,0
                -4.94591470199993,65.724999622,0
                -4.89450448399998,65.7207238770001,0
                -4.82587721699997,65.7146973160001,0
                -4.75509618599995,65.7081026110001,0
                -4.68223123599995,65.700914239,0
                -4.60735220699996,65.6931066830001,0
                -4.54314948399997,65.6860736740001,0
                -4.47762438499996,65.6785735820001,0
                -4.41081792599994,65.6705914230001,0
                -4.34277111899996,65.662112209,0
                -4.29576856799997,65.6560491330001,0
                -4.24822336199998,65.6497441340001,0
                -4.20014843299998,65.643192485,0
                -4.15155671199994,65.63638946,0
                -4.10246112899995,65.6293303360001,0
                -4.05287461899997,65.622010388,0
                -4.00281010999993,65.6144248890001,0
                -3.95228053399995,65.6065691160001,0
                -3.90913574899997,65.5997016380001,0
                -3.86567456999995,65.592634075,0
                -3.82190485099994,65.585363558,0
                -3.77783444599993,65.5778872180001,0
                -3.73347120699998,65.5702021860001,0
                -3.68882298799997,65.562305591,0
                -3.64389764299995,65.554194565,0
                -3.59870302499996,65.545866238,0
                -3.55042291499996,65.5367809210001,0
                -3.50185740199993,65.5274438760001,0
                -3.45301588999996,65.5178516670001,0
                -3.40390778499994,65.5080008580001,0
                -3.35454248999997,65.497888012,0
                -3.30492941199998,65.487509693,0
                -3.25507795499993,65.476862463,0
                -3.20499752499995,65.465942888,0
                -3.14433769699997,65.4524131250001,0
                -3.08337529199997,65.4384766100001,0
                -3.02212678399997,65.4241273220001,0
                -2.96060864599997,65.409359243,0
                -2.89196530799995,65.3924533520001,0
                -2.82303208199994,65.3750148460001,0
                -2.75383155699996,65.35703547,0
                -2.68438632699997,65.338506969,0
                -2.62090911099995,65.3211373660001,0
                -2.55726454399996,65.3032986640001,0
                -2.49346972299998,65.284984615,0
                -2.42954174299996,65.266188975,0
                -2.38668557199998,65.2533359230001,0
                -2.34378252699997,65.24026243,0
                -2.30083773499996,65.2269666240001,0
                -2.25785632399993,65.2134466310001,0
                -2.21484341999997,65.1997005790001,0
                -2.17180414999996,65.1857265930001,0
                -2.12874364099997,65.171522801,0
                -2.08566701899997,65.1570873300001,0
                -2.03151720199997,65.1386147060001,0
                -1.97736021099996,65.119769508,0
                -1.92320621999994,65.1005480200001,0
                -1.86906540599995,65.0809465230001,0
                -1.80906908899993,65.0587663260001,0
                -1.74911534099994,65.0361094090001,0
                -1.68921802699992,65.012970706,0
                -1.62939101499995,64.9893451500001,0
                -1.58120387499997,64.9699341190001,0
                -1.53307874999996,64.950200501,0
                -1.48502290799996,64.93014164,0
                -1.43704362299997,64.9097548770001,0
                -1.38914816899995,64.8890375550001,0
                -1.34134381699994,64.8679870170001,0
                -1.29363784199995,64.846600606,0
                -1.24603751299998,64.824875664,0
                -1.20326516299997,64.8050182870001,0
                -1.16058971299998,64.7848822400001,0
                -1.11801647599998,64.76446558,0
                -1.07555076199998,64.743766367,0
                -1.03656929499994,64.7244656130001,0
                -0.997687533999965,64.704922396,0
                -0.958909620999975,64.6851352020001,0
                -0.920239697999932,64.6651025180001,0
                -0.87867394999995,64.6432277850001,0
                -0.837243728999965,64.6210640460001,0
                -0.795954222999967,64.5986094030001,0
                -0.754810620999933,64.575861961,0
                -0.716462184999955,64.554317639,0
                -0.67825019299994,64.5325139240001,0
                -0.640178894999963,64.5104492630001,0
                -0.602252533999945,64.4881221050001,0
              </coordinates>
            </LinearRing>
          </outerBoundaryIs>
        </Polygon>
      </Placemark>
    </Document>
  </Document>
</kml>
